PathFileType	4	(X/Y/Z)	subject01_static.trc																									
DataRate	CameraRate	NumFrames	NumMarkers	Units	OrigDataRate	OrigDataStartFrame	OrigNumFrames																					
100.0	100.0	6	9	mm	100.0	0	6																					
Frame#	Time	RASIS			LASIS			RKNEE			LKNEE			RANKLE			LANKLE			LTOE			RTOE			PELVIS		
 		X1	Y1	Z1	X2	Y2	Z2	X3	Y3	Z3	X4	Y4	Z4	X5	Y5	Z5	X6	Y6	Z6	X7	Y7	Z7	X8	Y8	Z8	X9	Y9	Z9
 																												
0	0.0	218.23	886.58	-142.78	236.36	892.01	52.4	-11.22	526.48	-145.53	383.05	484.82	55.77	-53.35	100.58	-173.37	680.32	178.76	52.08	609.02	16.55	36.92	-223.59	40.55	-188.22	241.66	985.23	-49.19
1	0.01	218.23	886.58	-142.78	236.36	892.01	52.4	-11.22	526.48	-145.53	383.05	484.82	55.77	-53.35	100.58	-173.37	680.32	178.76	52.08	609.02	16.55	36.92	-223.59	40.55	-188.22	241.66	985.23	-49.19
2	0.02	218.23	886.58	-142.78	236.36	892.01	52.4	-11.22	526.48	-145.53	383.05	484.82	55.77	-53.35	100.58	-173.37	680.32	178.76	52.08	609.02	16.55	36.92	-223.59	40.55	-188.22	241.66	985.23	-49.19
3	0.03	218.23	886.58	-142.78	236.36	892.01	52.4	-11.22	526.48	-145.53	383.05	484.82	55.77	-53.35	100.58	-173.37	680.32	178.76	52.08	609.02	16.55	36.92	-223.59	40.55	-188.22	241.66	985.23	-49.19
4	0.04	218.23	886.58	-142.78	236.36	892.01	52.4	-11.22	526.48	-145.53	383.05	484.82	55.77	-53.35	100.58	-173.37	680.32	178.76	52.08	609.02	16.55	36.92	-223.59	40.55	-188.22	241.66	985.23	-49.19
5	0.05	218.23	886.58	-142.78	236.36	892.01	52.4	-11.22	526.48	-145.53	383.05	484.82	55.77	-53.35	100.58	-173.37	680.32	178.76	52.08	609.02	16.55	36.92	-223.59	40.55	-188.22	241.66	985.23	-49.19
