PathFileType	4	(X/Y/Z)	Static.trc
DataRate	CameraRate	NumFrames	NumMarkers	Units	OrigDataRate	OrigDataStartFrame	OrigNumFrames
100.000000	100.000000	6	9	mm	100.000000	1	6
Frame#	Time	RASIS			LASIS			RKNEE			LKNEE			RANKLE			LANKLE			RTOE			LTOE			PELVIS		
		X1	Y1	Z1	X2	Y2	Z2	X3	Y3	Z3	X4	Y4	Z4	X5	Y5	Z5	X6	Y6	Z6	X7	Y7	Z7	X8	Y8	Z8	X9	Y9	Z9
1	0.000000	706.293881	889.421999	224.523649	704.181671	889.728665	383.541375	727.343023	473.407477	222.344115	725.960970	474.385589	379.176199	730.718434	75.612292	203.982592	728.376031	72.673619	367.109120	593.819678	15.966335	200.178400	590.938807	14.339276	353.641093	715.795457	970.633984	304.016411
2	0.010000	706.293881	889.421999	224.523649	704.181671	889.728665	383.541375	727.343023	473.407477	222.344115	725.960970	474.385589	379.176199	730.718434	75.612292	203.982592	728.376031	72.673619	367.109120	593.819678	15.966335	200.178400	590.938807	14.339276	353.641093	715.795457	970.633984	304.016411
3	0.020000	706.293881	889.421999	224.523649	704.181671	889.728665	383.541375	727.343023	473.407477	222.344115	725.960970	474.385589	379.176199	730.718434	75.612292	203.982592	728.376031	72.673619	367.109120	593.819678	15.966335	200.178400	590.938807	14.339276	353.641093	715.795457	970.633984	304.016411
4	0.030000	706.293881	889.421999	224.523649	704.181671	889.728665	383.541375	727.343023	473.407477	222.344115	725.960970	474.385589	379.176199	730.718434	75.612292	203.982592	728.376031	72.673619	367.109120	593.819678	15.966335	200.178400	590.938807	14.339276	353.641093	715.795457	970.633984	304.016411
5	0.040000	706.293881	889.421999	224.523649	704.181671	889.728665	383.541375	727.343023	473.407477	222.344115	725.960970	474.385589	379.176199	730.718434	75.612292	203.982592	728.376031	72.673619	367.109120	593.819678	15.966335	200.178400	590.938807	14.339276	353.641093	715.795457	970.633984	304.016411
6	0.050000	706.293881	889.421999	224.523649	704.181671	889.728665	383.541375	727.343023	473.407477	222.344115	725.960970	474.385589	379.176199	730.718434	75.612292	203.982592	728.376031	72.673619	367.109120	593.819678	15.966335	200.178400	590.938807	14.339276	353.641093	715.795457	970.633984	304.016411
