OS_from_script.mot
version=1
datacolumns 20
datarows 496
range 0.00000 4.95000
inDegrees=yes
endheader
time	pelvis_tilt	pelvis_list	pelvis_rotation	hip_flexion_r	hip_adduction_r	hip_rotation_r	knee_angle_r	ankle_angle_r	hip_flexion_l	hip_adduction_l	hip_rotation_l	knee_angle_l	ankle_angle_l	pelvis_tx	pelvis_ty	pelvis_tz	lumbar_bending	lumbar_rotation	lumbar_extension
0.000000	-0.000000	0.000000	-0.000000	-0.000000	0.000000	-0.000000	-0.000000	-0.000000	-0.000000	0.000000	-0.000000	-0.000000	-0.000000	0.970000	0.000000	0.290000	-0.000000	-0.000000	0.000000
0.010000	-0.000000	0.000000	-0.000000	-0.000000	0.000000	-0.000000	-0.000000	-0.000000	-0.000000	0.000000	-0.000000	-0.000000	-0.000000	0.970000	0.000000	0.290000	-0.000000	-0.000000	0.000000
0.020000	-0.000000	0.000000	-0.000000	-0.000000	0.000000	-0.000000	-0.000000	-0.000000	-0.000000	0.000000	-0.000000	-0.000000	-0.000000	0.970000	0.000000	0.290000	-0.000000	-0.000000	0.000000
0.030000	-0.000000	0.000000	-0.000000	-0.000000	0.000000	-0.000000	-0.000000	-0.000000	-0.000000	0.000000	-0.000000	-0.000000	-0.000000	0.970000	0.000000	0.290000	-0.000000	-0.000000	0.000000
0.040000	-0.000000	0.000000	-0.000000	-0.000000	0.000000	-0.000000	-0.000000	-0.000000	-0.000000	0.000000	-0.000000	-0.000000	-0.000000	0.970000	0.000000	0.290000	-0.000000	-0.000000	0.000000
0.050000	-0.000000	0.000000	-0.000000	-0.000000	0.000000	-0.000000	-0.000000	-0.000000	-0.000000	0.000000	-0.000000	-0.000000	-0.000000	0.970000	0.000000	0.290000	-0.000000	-0.000000	0.000000
0.060000	-0.000000	0.000000	-0.000000	-0.000000	0.000000	-0.000000	-0.000000	-0.000000	-0.000000	0.000000	-0.000000	-0.000000	-0.000000	0.970000	0.000000	0.290000	-0.000000	-0.000000	0.000000
0.070000	-0.000000	0.000000	-0.000000	-0.000000	0.000000	-0.000000	-0.000000	-0.000000	-0.000000	0.000000	-0.000000	-0.000000	-0.000000	0.970000	0.000000	0.290000	-0.000000	-0.000000	0.000000
0.080000	-0.000000	0.000000	-0.000000	-0.000000	0.000000	-0.000000	-0.000000	-0.000000	-0.000000	0.000000	-0.000000	-0.000000	-0.000000	0.970000	0.000000	0.290000	-0.000000	-0.000000	0.000000
0.090000	-0.000000	0.000000	-0.000000	-0.000000	0.000000	-0.000000	-0.000000	-0.000000	-0.000000	0.000000	-0.000000	-0.000000	-0.000000	0.970000	0.000000	0.290000	-0.000000	-0.000000	0.000000
0.100000	-0.000000	0.000000	-0.000000	-0.000000	0.000000	-0.000000	-0.000000	-0.000000	-0.000000	0.000000	-0.000000	-0.000000	-0.000000	0.970000	0.000000	0.290000	-0.000000	-0.000000	0.000000
0.110000	-0.000000	0.000000	-0.000000	-0.000000	0.000000	-0.000000	-0.000000	-0.000000	-0.000000	0.000000	-0.000000	-0.000000	-0.000000	0.970000	0.000000	0.290000	-0.000000	-0.000000	0.000000
0.120000	-0.000000	0.000000	-0.000000	-0.000000	0.000000	-0.000000	-0.000000	-0.000000	-0.000000	0.000000	-0.000000	-0.000000	-0.000000	0.970000	0.000000	0.290000	-0.000000	-0.000000	0.000000
0.130000	-0.000000	0.000000	-0.000000	-0.000000	0.000000	-0.000000	-0.000000	-0.000000	-0.000000	0.000000	-0.000000	-0.000000	-0.000000	0.970000	0.000000	0.290000	-0.000000	-0.000000	0.000000
0.140000	-0.000000	0.000000	-0.000000	-0.000000	0.000000	-0.000000	-0.000000	-0.000000	-0.000000	0.000000	-0.000000	-0.000000	-0.000000	0.970000	0.000000	0.290000	-0.000000	-0.000000	0.000000
0.150000	-0.000000	0.000000	-0.000000	-0.000000	0.000000	-0.000000	-0.000000	-0.000000	-0.000000	0.000000	-0.000000	-0.000000	-0.000000	0.970000	0.000000	0.290000	-0.000000	-0.000000	0.000000
0.160000	-0.000000	0.000000	-0.000000	-0.000000	0.000000	-0.000000	-0.000000	-0.000000	-0.000000	0.000000	-0.000000	-0.000000	-0.000000	0.970000	0.000000	0.290000	-0.000000	-0.000000	0.000000
0.170000	-0.000000	0.000000	-0.000000	-0.000000	0.000000	-0.000000	-0.000000	-0.000000	-0.000000	0.000000	-0.000000	-0.000000	-0.000000	0.970000	0.000000	0.290000	-0.000000	-0.000000	0.000000
0.180000	-0.000000	0.000000	-0.000000	-0.000000	0.000000	-0.000000	-0.000000	-0.000000	-0.000000	0.000000	-0.000000	-0.000000	-0.000000	0.970000	0.000000	0.290000	-0.000000	-0.000000	0.000000
0.190000	-0.000000	0.000000	-0.000000	-0.000000	0.000000	-0.000000	-0.000000	-0.000000	-0.000000	0.000000	-0.000000	-0.000000	-0.000000	0.970000	0.000000	0.290000	-0.000000	-0.000000	0.000000
0.200000	-0.000000	0.000000	-0.000000	-0.000000	0.000000	-0.000000	-0.000000	-0.000000	-0.000000	0.000000	-0.000000	-0.000000	-0.000000	0.970000	0.000000	0.290000	-0.000000	-0.000000	0.000000
0.210000	-0.000000	0.000000	-0.000000	-0.000000	0.000000	-0.000000	-0.000000	-0.000000	-0.000000	0.000000	-0.000000	-0.000000	-0.000000	0.970000	0.000000	0.290000	-0.000000	-0.000000	0.000000
0.220000	-0.000000	0.000000	-0.000000	-0.000000	0.000000	-0.000000	-0.000000	-0.000000	-0.000000	0.000000	-0.000000	-0.000000	-0.000000	0.970000	0.000000	0.290000	-0.000000	-0.000000	0.000000
0.230000	-0.000000	0.000000	-0.000000	-0.000000	0.000000	-0.000000	-0.000000	-0.000000	-0.000000	0.000000	-0.000000	-0.000000	-0.000000	0.970000	0.000000	0.290000	-0.000000	-0.000000	0.000000
0.240000	-0.000000	0.000000	-0.000000	-0.000000	0.000000	-0.000000	-0.000000	-0.000000	-0.000000	0.000000	-0.000000	-0.000000	-0.000000	0.970000	0.000000	0.290000	-0.000000	-0.000000	0.000000
0.250000	-0.000000	0.000000	-0.000000	-0.000000	0.000000	-0.000000	-0.000000	-0.000000	-0.000000	0.000000	-0.000000	-0.000000	-0.000000	0.970000	0.000000	0.290000	-0.000000	-0.000000	0.000000
0.260000	-0.000000	0.000000	-0.000000	-0.000000	0.000000	-0.000000	-0.000000	-0.000000	-0.000000	0.000000	-0.000000	-0.000000	-0.000000	0.970000	0.000000	0.290000	-0.000000	-0.000000	0.000000
0.270000	-0.000000	0.000000	-0.000000	-0.000000	0.000000	-0.000000	-0.000000	-0.000000	-0.000000	0.000000	-0.000000	-0.000000	-0.000000	0.970000	0.000000	0.290000	-0.000000	-0.000000	0.000000
0.280000	-0.000000	0.000000	-0.000000	-0.000000	0.000000	-0.000000	-0.000000	-0.000000	-0.000000	0.000000	-0.000000	-0.000000	-0.000000	0.970000	0.000000	0.290000	-0.000000	-0.000000	0.000000
0.290000	-0.000000	0.000000	-0.000000	-0.000000	0.000000	-0.000000	-0.000000	-0.000000	-0.000000	0.000000	-0.000000	-0.000000	-0.000000	0.970000	0.000000	0.290000	-0.000000	-0.000000	0.000000
0.300000	-0.000000	0.000000	-0.000000	-0.000000	0.000000	-0.000000	-0.000000	-0.000000	-0.000000	0.000000	-0.000000	-0.000000	-0.000000	0.970000	0.000000	0.290000	-0.000000	-0.000000	0.000000
0.310000	-0.000000	0.000000	-0.000000	-0.000000	0.000000	-0.000000	-0.000000	-0.000000	-0.000000	0.000000	-0.000000	-0.000000	-0.000000	0.970000	0.000000	0.290000	-0.000000	-0.000000	0.000000
0.320000	-0.000000	0.000000	-0.000000	-0.000000	0.000000	-0.000000	-0.000000	-0.000000	-0.000000	0.000000	-0.000000	-0.000000	-0.000000	0.970000	0.000000	0.290000	-0.000000	-0.000000	0.000000
0.330000	-0.000000	0.000000	-0.000000	-0.000000	0.000000	-0.000000	-0.000000	-0.000000	-0.000000	0.000000	-0.000000	-0.000000	-0.000000	0.970000	0.000000	0.290000	-0.000000	-0.000000	0.000000
0.340000	-0.000000	0.000000	-0.000000	-0.000000	0.000000	-0.000000	-0.000000	-0.000000	-0.000000	0.000000	-0.000000	-0.000000	-0.000000	0.970000	0.000000	0.290000	-0.000000	-0.000000	0.000000
0.350000	-0.000000	0.000000	-0.000000	-0.000000	0.000000	-0.000000	-0.000000	-0.000000	-0.000000	0.000000	-0.000000	-0.000000	-0.000000	0.970000	0.000000	0.290000	-0.000000	-0.000000	0.000000
0.360000	-0.000000	0.000000	-0.000000	-0.000000	0.000000	-0.000000	-0.000000	-0.000000	-0.000000	0.000000	-0.000000	-0.000000	-0.000000	0.970000	0.000000	0.290000	-0.000000	-0.000000	0.000000
0.370000	-0.000000	0.000000	-0.000000	-0.000000	0.000000	-0.000000	-0.000000	-0.000000	-0.000000	0.000000	-0.000000	-0.000000	-0.000000	0.970000	0.000000	0.290000	-0.000000	-0.000000	0.000000
0.380000	-0.000000	0.000000	-0.000000	-0.000000	0.000000	-0.000000	-0.000000	-0.000000	-0.000000	0.000000	-0.000000	-0.000000	-0.000000	0.970000	0.000000	0.290000	-0.000000	-0.000000	0.000000
0.390000	-0.000000	0.000000	-0.000000	-0.000000	0.000000	-0.000000	-0.000000	-0.000000	-0.000000	0.000000	-0.000000	-0.000000	-0.000000	0.970000	0.000000	0.290000	-0.000000	-0.000000	0.000000
0.400000	-0.000000	0.000000	-0.000000	-0.000000	0.000000	-0.000000	-0.000000	-0.000000	-0.000000	0.000000	-0.000000	-0.000000	-0.000000	0.970000	0.000000	0.290000	-0.000000	-0.000000	0.000000
0.410000	-0.000000	0.000000	-0.000000	-0.000000	0.000000	-0.000000	-0.000000	-0.000000	-0.000000	0.000000	-0.000000	-0.000000	-0.000000	0.970000	0.000000	0.290000	-0.000000	-0.000000	0.000000
0.420000	-0.000000	0.000000	-0.000000	-0.000000	0.000000	-0.000000	-0.000000	-0.000000	-0.000000	0.000000	-0.000000	-0.000000	-0.000000	0.970000	0.000000	0.290000	-0.000000	-0.000000	0.000000
0.430000	-0.000000	0.000000	-0.000000	-0.000000	0.000000	-0.000000	-0.000000	-0.000000	-0.000000	0.000000	-0.000000	-0.000000	-0.000000	0.970000	0.000000	0.290000	-0.000000	-0.000000	0.000000
0.440000	-0.000000	0.000000	-0.000000	-0.000000	0.000000	-0.000000	-0.000000	-0.000000	-0.000000	0.000000	-0.000000	-0.000000	-0.000000	0.970000	0.000000	0.290000	-0.000000	-0.000000	0.000000
0.450000	-0.000000	0.000000	-0.000000	-0.000000	0.000000	-0.000000	-0.000000	-0.000000	-0.000000	0.000000	-0.000000	-0.000000	-0.000000	0.970000	0.000000	0.290000	-0.000000	-0.000000	0.000000
0.460000	-0.000000	0.000000	-0.000000	-0.000000	0.000000	-0.000000	-0.000000	-0.000000	-0.000000	0.000000	-0.000000	-0.000000	-0.000000	0.970000	0.000000	0.290000	-0.000000	-0.000000	0.000000
0.470000	-0.000000	0.000000	-0.000000	-0.000000	0.000000	-0.000000	-0.000000	-0.000000	-0.000000	0.000000	-0.000000	-0.000000	-0.000000	0.970000	0.000000	0.290000	-0.000000	-0.000000	0.000000
0.480000	-0.000000	0.000000	-0.000000	-0.000000	0.000000	-0.000000	-0.000000	-0.000000	-0.000000	0.000000	-0.000000	-0.000000	-0.000000	0.970000	0.000000	0.290000	-0.000000	-0.000000	0.000000
0.490000	-0.000000	0.000000	-0.000000	-0.000000	0.000000	-0.000000	-0.000000	-0.000000	-0.000000	0.000000	-0.000000	-0.000000	-0.000000	0.970000	0.000000	0.290000	-0.000000	-0.000000	0.000000
0.500000	-0.000000	0.000000	-0.000000	-0.000000	0.000000	-0.000000	-0.000000	-0.000000	-0.000000	0.000000	-0.000000	-0.000000	-0.000000	0.970000	0.000000	0.290000	-0.000000	-0.000000	0.000000
0.510000	-0.000000	0.000000	-0.000000	-0.000000	0.000000	-0.000000	-0.000000	-0.000000	-0.000000	0.000000	-0.000000	-0.000000	-0.000000	0.970000	0.000000	0.290000	-0.000000	-0.000000	0.000000
0.520000	-0.000000	0.000000	-0.000000	-0.000000	0.000000	-0.000000	-0.000000	-0.000000	-0.000000	0.000000	-0.000000	-0.000000	-0.000000	0.970000	0.000000	0.290000	-0.000000	-0.000000	0.000000
0.530000	-0.000000	0.000000	-0.000000	-0.000000	0.000000	-0.000000	-0.000000	-0.000000	-0.000000	0.000000	-0.000000	-0.000000	-0.000000	0.970000	0.000000	0.290000	-0.000000	-0.000000	0.000000
0.540000	-0.000000	0.000000	-0.000000	-0.000000	0.000000	-0.000000	-0.000000	-0.000000	-0.000000	0.000000	-0.000000	-0.000000	-0.000000	0.970000	0.000000	0.290000	-0.000000	-0.000000	0.000000
0.550000	-0.000000	0.000000	-0.000000	-0.000000	0.000000	-0.000000	-0.000000	-0.000000	-0.000000	0.000000	-0.000000	-0.000000	-0.000000	0.970000	0.000000	0.290000	-0.000000	-0.000000	0.000000
0.560000	-0.000000	0.000000	-0.000000	-0.000000	0.000000	-0.000000	-0.000000	-0.000000	-0.000000	0.000000	-0.000000	-0.000000	-0.000000	0.970000	0.000000	0.290000	-0.000000	-0.000000	0.000000
0.570000	-0.000000	0.000000	-0.000000	-0.000000	0.000000	-0.000000	-0.000000	-0.000000	-0.000000	0.000000	-0.000000	-0.000000	-0.000000	0.970000	0.000000	0.290000	-0.000000	-0.000000	0.000000
0.580000	-0.000000	0.000000	-0.000000	-0.000000	0.000000	-0.000000	-0.000000	-0.000000	-0.000000	0.000000	-0.000000	-0.000000	-0.000000	0.970000	0.000000	0.290000	-0.000000	-0.000000	0.000000
0.590000	-0.000000	0.000000	-0.000000	-0.000000	0.000000	-0.000000	-0.000000	-0.000000	-0.000000	0.000000	-0.000000	-0.000000	-0.000000	0.970000	0.000000	0.290000	-0.000000	-0.000000	0.000000
0.600000	-0.000000	0.000000	-0.000000	-0.000000	0.000000	-0.000000	-0.000000	-0.000000	-0.000000	0.000000	-0.000000	-0.000000	-0.000000	0.970000	0.000000	0.290000	-0.000000	-0.000000	0.000000
0.610000	-0.000000	0.000000	-0.000000	-0.000000	0.000000	-0.000000	-0.000000	-0.000000	-0.000000	0.000000	-0.000000	-0.000000	-0.000000	0.970000	0.000000	0.290000	-0.000000	-0.000000	0.000000
0.620000	-0.000000	0.000000	-0.000000	-0.000000	0.000000	-0.000000	-0.000000	-0.000000	-0.000000	0.000000	-0.000000	-0.000000	-0.000000	0.970000	0.000000	0.290000	-0.000000	-0.000000	0.000000
0.630000	-0.000000	0.000000	-0.000000	-0.000000	0.000000	-0.000000	-0.000000	-0.000000	-0.000000	0.000000	-0.000000	-0.000000	-0.000000	0.970000	0.000000	0.290000	-0.000000	-0.000000	0.000000
0.640000	-0.000000	0.000000	-0.000000	-0.000000	0.000000	-0.000000	-0.000000	-0.000000	-0.000000	0.000000	-0.000000	-0.000000	-0.000000	0.970000	0.000000	0.290000	-0.000000	-0.000000	0.000000
0.650000	-0.000000	0.000000	-0.000000	-0.000000	0.000000	-0.000000	-0.000000	-0.000000	-0.000000	0.000000	-0.000000	-0.000000	-0.000000	0.970000	0.000000	0.290000	-0.000000	-0.000000	0.000000
0.660000	-0.000000	0.000000	-0.000000	-0.000000	0.000000	-0.000000	-0.000000	-0.000000	-0.000000	0.000000	-0.000000	-0.000000	-0.000000	0.970000	0.000000	0.290000	-0.000000	-0.000000	0.000000
0.670000	-0.000000	0.000000	-0.000000	-0.000000	0.000000	-0.000000	-0.000000	-0.000000	-0.000000	0.000000	-0.000000	-0.000000	-0.000000	0.970000	0.000000	0.290000	-0.000000	-0.000000	0.000000
0.680000	-0.000000	0.000000	-0.000000	-0.000000	0.000000	-0.000000	-0.000000	-0.000000	-0.000000	0.000000	-0.000000	-0.000000	-0.000000	0.970000	0.000000	0.290000	-0.000000	-0.000000	0.000000
0.690000	-0.000000	0.000000	-0.000000	-0.000000	0.000000	-0.000000	-0.000000	-0.000000	-0.000000	0.000000	-0.000000	-0.000000	-0.000000	0.970000	0.000000	0.290000	-0.000000	-0.000000	0.000000
0.700000	-0.000000	0.000000	-0.000000	-0.000000	0.000000	-0.000000	-0.000000	-0.000000	-0.000000	0.000000	-0.000000	-0.000000	-0.000000	0.970000	0.000000	0.290000	-0.000000	-0.000000	0.000000
0.710000	-0.000000	0.000000	-0.000000	-0.000000	0.000000	-0.000000	-0.000000	-0.000000	-0.000000	0.000000	-0.000000	-0.000000	-0.000000	0.970000	0.000000	0.290000	-0.000000	-0.000000	0.000000
0.720000	-0.000000	0.000000	-0.000000	-0.000000	0.000000	-0.000000	-0.000000	-0.000000	-0.000000	0.000000	-0.000000	-0.000000	-0.000000	0.970000	0.000000	0.290000	-0.000000	-0.000000	0.000000
0.730000	-0.000000	0.000000	-0.000000	-0.000000	0.000000	-0.000000	-0.000000	-0.000000	-0.000000	0.000000	-0.000000	-0.000000	-0.000000	0.970000	0.000000	0.290000	-0.000000	-0.000000	0.000000
0.740000	-0.000000	0.000000	-0.000000	-0.000000	0.000000	-0.000000	-0.000000	-0.000000	-0.000000	0.000000	-0.000000	-0.000000	-0.000000	0.970000	0.000000	0.290000	-0.000000	-0.000000	0.000000
0.750000	-0.000000	0.000000	-0.000000	-0.000000	0.000000	-0.000000	-0.000000	-0.000000	-0.000000	0.000000	-0.000000	-0.000000	-0.000000	0.970000	0.000000	0.290000	-0.000000	-0.000000	0.000000
0.760000	-0.000000	0.000000	-0.000000	-0.000000	0.000000	-0.000000	-0.000000	-0.000000	-0.000000	0.000000	-0.000000	-0.000000	-0.000000	0.970000	0.000000	0.290000	-0.000000	-0.000000	0.000000
0.770000	-0.000000	0.000000	-0.000000	-0.000000	0.000000	-0.000000	-0.000000	-0.000000	-0.000000	0.000000	-0.000000	-0.000000	-0.000000	0.970000	0.000000	0.290000	-0.000000	-0.000000	0.000000
0.780000	-0.000000	0.000000	-0.000000	-0.000000	0.000000	-0.000000	-0.000000	-0.000000	-0.000000	0.000000	-0.000000	-0.000000	-0.000000	0.970000	0.000000	0.290000	-0.000000	-0.000000	0.000000
0.790000	-0.000000	0.000000	-0.000000	-0.000000	0.000000	-0.000000	-0.000000	-0.000000	-0.000000	0.000000	-0.000000	-0.000000	-0.000000	0.970000	0.000000	0.290000	-0.000000	-0.000000	0.000000
0.800000	-0.000000	0.000000	-0.000000	-0.000000	0.000000	-0.000000	-0.000000	-0.000000	-0.000000	0.000000	-0.000000	-0.000000	-0.000000	0.970000	0.000000	0.290000	-0.000000	-0.000000	0.000000
0.810000	-0.000000	0.000000	-0.000000	-0.000000	0.000000	-0.000000	-0.000000	-0.000000	-0.000000	0.000000	-0.000000	-0.000000	-0.000000	0.970000	0.000000	0.290000	-0.000000	-0.000000	0.000000
0.820000	-0.000000	0.000000	-0.000000	-0.000000	0.000000	-0.000000	-0.000000	-0.000000	-0.000000	0.000000	-0.000000	-0.000000	-0.000000	0.970000	0.000000	0.290000	-0.000000	-0.000000	0.000000
0.830000	-0.000000	0.000000	-0.000000	-0.000000	0.000000	-0.000000	-0.000000	-0.000000	-0.000000	0.000000	-0.000000	-0.000000	-0.000000	0.970000	0.000000	0.290000	-0.000000	-0.000000	0.000000
0.840000	-0.000000	0.000000	-0.000000	-0.000000	0.000000	-0.000000	-0.000000	-0.000000	-0.000000	0.000000	-0.000000	-0.000000	-0.000000	0.970000	0.000000	0.290000	-0.000000	-0.000000	0.000000
0.850000	-0.000000	0.000000	-0.000000	-0.000000	0.000000	-0.000000	-0.000000	-0.000000	-0.000000	0.000000	-0.000000	-0.000000	-0.000000	0.970000	0.000000	0.290000	-0.000000	-0.000000	0.000000
0.860000	-0.000000	0.000000	-0.000000	-0.000000	0.000000	-0.000000	-0.000000	-0.000000	-0.000000	0.000000	-0.000000	-0.000000	-0.000000	0.970000	0.000000	0.290000	-0.000000	-0.000000	0.000000
0.870000	-0.000000	0.000000	-0.000000	-0.000000	0.000000	-0.000000	-0.000000	-0.000000	-0.000000	0.000000	-0.000000	-0.000000	-0.000000	0.970000	0.000000	0.290000	-0.000000	-0.000000	0.000000
0.880000	-0.000000	0.000000	-0.000000	-0.000000	0.000000	-0.000000	-0.000000	-0.000000	-0.000000	0.000000	-0.000000	-0.000000	-0.000000	0.970000	0.000000	0.290000	-0.000000	-0.000000	0.000000
0.890000	-0.000000	0.000000	-0.000000	-0.000000	0.000000	-0.000000	-0.000000	-0.000000	-0.000000	0.000000	-0.000000	-0.000000	-0.000000	0.970000	0.000000	0.290000	-0.000000	-0.000000	0.000000
0.900000	-0.000000	0.000000	-0.000000	-0.000000	0.000000	-0.000000	-0.000000	-0.000000	-0.000000	0.000000	-0.000000	-0.000000	-0.000000	0.970000	0.000000	0.290000	-0.000000	-0.000000	0.000000
0.910000	-0.000000	0.000000	-0.000000	-0.000000	0.000000	-0.000000	-0.000000	-0.000000	-0.000000	0.000000	-0.000000	-0.000000	-0.000000	0.970000	0.000000	0.290000	-0.000000	-0.000000	0.000000
0.920000	-0.000000	0.000000	-0.000000	-0.000000	0.000000	-0.000000	-0.000000	-0.000000	-0.000000	0.000000	-0.000000	-0.000000	-0.000000	0.970000	0.000000	0.290000	-0.000000	-0.000000	0.000000
0.930000	-0.000000	0.000000	-0.000000	-0.000000	0.000000	-0.000000	-0.000000	-0.000000	-0.000000	0.000000	-0.000000	-0.000000	-0.000000	0.970000	0.000000	0.290000	-0.000000	-0.000000	0.000000
0.940000	-0.000000	0.000000	-0.000000	-0.000000	0.000000	-0.000000	-0.000000	-0.000000	-0.000000	0.000000	-0.000000	-0.000000	-0.000000	0.970000	0.000000	0.290000	-0.000000	-0.000000	0.000000
0.950000	-0.000000	0.000000	-0.000000	-0.000000	0.000000	-0.000000	-0.000000	-0.000000	-0.000000	0.000000	-0.000000	-0.000000	-0.000000	0.970000	0.000000	0.290000	-0.000000	-0.000000	0.000000
0.960000	-0.000000	0.000000	-0.000000	-0.000000	0.000000	-0.000000	-0.000000	-0.000000	-0.000000	0.000000	-0.000000	-0.000000	-0.000000	0.970000	0.000000	0.290000	-0.000000	-0.000000	0.000000
0.970000	-0.000000	0.000000	-0.000000	-0.000000	0.000000	-0.000000	-0.000000	-0.000000	-0.000000	0.000000	-0.000000	-0.000000	-0.000000	0.970000	0.000000	0.290000	-0.000000	-0.000000	0.000000
0.980000	-0.000000	0.000000	-0.000000	-0.000000	0.000000	-0.000000	-0.000000	-0.000000	-0.000000	0.000000	-0.000000	-0.000000	-0.000000	0.970000	0.000000	0.290000	-0.000000	-0.000000	0.000000
0.990000	-0.000000	0.000000	-0.000000	-0.000000	0.000000	-0.000000	-0.000000	-0.000000	-0.000000	0.000000	-0.000000	-0.000000	-0.000000	0.970000	0.000000	0.290000	-0.000000	-0.000000	0.000000
1.000000	-0.000000	0.000000	-0.000000	-0.000000	0.000000	-0.000000	-0.000000	-0.000000	-0.000000	0.000000	-0.000000	-0.000000	-0.000000	0.970000	0.000000	0.290000	-0.000000	-0.000000	0.000000
1.010000	-0.000000	0.000000	-0.000000	-0.000000	0.000000	-0.000000	-0.000000	-0.000000	-0.000000	0.000000	-0.000000	-0.000000	-0.000000	0.970000	0.000000	0.290000	-0.000000	-0.000000	0.000000
1.020000	-0.000000	0.000000	-0.000000	-0.000000	0.000000	-0.000000	-0.000000	-0.000000	-0.000000	0.000000	-0.000000	-0.000000	-0.000000	0.970000	0.000000	0.290000	-0.000000	-0.000000	0.000000
1.030000	-0.000000	0.000000	-0.000000	-0.000000	0.000000	-0.000000	-0.000000	-0.000000	-0.000000	0.000000	-0.000000	-0.000000	-0.000000	0.970000	0.000000	0.290000	-0.000000	-0.000000	0.000000
1.040000	-0.000000	0.000000	-0.000000	-0.000000	0.000000	-0.000000	-0.000000	-0.000000	-0.000000	0.000000	-0.000000	-0.000000	-0.000000	0.970000	0.000000	0.290000	-0.000000	-0.000000	0.000000
1.050000	-0.000000	0.000000	-0.000000	-0.000000	0.000000	-0.000000	-0.000000	-0.000000	-0.000000	0.000000	-0.000000	-0.000000	-0.000000	0.970000	0.000000	0.290000	-0.000000	-0.000000	0.000000
1.060000	-0.000000	0.000000	-0.000000	-0.000000	0.000000	-0.000000	-0.000000	-0.000000	-0.000000	0.000000	-0.000000	-0.000000	-0.000000	0.970000	0.000000	0.290000	-0.000000	-0.000000	0.000000
1.070000	-0.000000	0.000000	-0.000000	-0.000000	0.000000	-0.000000	-0.000000	-0.000000	-0.000000	0.000000	-0.000000	-0.000000	-0.000000	0.970000	0.000000	0.290000	-0.000000	-0.000000	0.000000
1.080000	-0.000000	0.000000	-0.000000	-0.000000	0.000000	-0.000000	-0.000000	-0.000000	-0.000000	0.000000	-0.000000	-0.000000	-0.000000	0.970000	0.000000	0.290000	-0.000000	-0.000000	0.000000
1.090000	-0.000000	0.000000	-0.000000	-0.000000	0.000000	-0.000000	-0.000000	-0.000000	-0.000000	0.000000	-0.000000	-0.000000	-0.000000	0.970000	0.000000	0.290000	-0.000000	-0.000000	0.000000
1.100000	-0.000000	0.000000	-0.000000	-0.000000	0.000000	-0.000000	-0.000000	-0.000000	-0.000000	0.000000	-0.000000	-0.000000	-0.000000	0.970000	0.000000	0.290000	-0.000000	-0.000000	0.000000
1.110000	-0.000000	0.000000	-0.000000	-0.000000	0.000000	-0.000000	-0.000000	-0.000000	-0.000000	0.000000	-0.000000	-0.000000	-0.000000	0.970000	0.000000	0.290000	-0.000000	-0.000000	0.000000
1.120000	-0.000000	0.000000	-0.000000	-0.000000	0.000000	-0.000000	-0.000000	-0.000000	-0.000000	0.000000	-0.000000	-0.000000	-0.000000	0.970000	0.000000	0.290000	-0.000000	-0.000000	0.000000
1.130000	-0.000000	0.000000	-0.000000	-0.000000	0.000000	-0.000000	-0.000000	-0.000000	-0.000000	0.000000	-0.000000	-0.000000	-0.000000	0.970000	0.000000	0.290000	-0.000000	-0.000000	0.000000
1.140000	-0.000000	0.000000	-0.000000	-0.000000	0.000000	-0.000000	-0.000000	-0.000000	-0.000000	0.000000	-0.000000	-0.000000	-0.000000	0.970000	0.000000	0.290000	-0.000000	-0.000000	0.000000
1.150000	-0.000000	0.000000	-0.000000	-0.000000	0.000000	-0.000000	-0.000000	-0.000000	-0.000000	0.000000	-0.000000	-0.000000	-0.000000	0.970000	0.000000	0.290000	-0.000000	-0.000000	0.000000
1.160000	-0.000000	0.000000	-0.000000	-0.000000	0.000000	-0.000000	-0.000000	-0.000000	-0.000000	0.000000	-0.000000	-0.000000	-0.000000	0.970000	0.000000	0.290000	-0.000000	-0.000000	0.000000
1.170000	-0.000000	0.000000	-0.000000	-0.000000	0.000000	-0.000000	-0.000000	-0.000000	-0.000000	0.000000	-0.000000	-0.000000	-0.000000	0.970000	0.000000	0.290000	-0.000000	-0.000000	0.000000
1.180000	-0.000000	0.000000	-0.000000	-0.000000	0.000000	-0.000000	-0.000000	-0.000000	-0.000000	0.000000	-0.000000	-0.000000	-0.000000	0.970000	0.000000	0.290000	-0.000000	-0.000000	0.000000
1.190000	-0.000000	0.000000	-0.000000	-0.000000	0.000000	-0.000000	-0.000000	-0.000000	-0.000000	0.000000	-0.000000	-0.000000	-0.000000	0.970000	0.000000	0.290000	-0.000000	-0.000000	0.000000
1.200000	-0.000000	0.000000	-0.000000	-0.000000	0.000000	-0.000000	-0.000000	-0.000000	-0.000000	0.000000	-0.000000	-0.000000	-0.000000	0.970000	0.000000	0.290000	-0.000000	-0.000000	0.000000
1.210000	-0.000000	0.000000	-0.000000	-0.000000	0.000000	-0.000000	-0.000000	-0.000000	-0.000000	0.000000	-0.000000	-0.000000	-0.000000	0.970000	0.000000	0.290000	-0.000000	-0.000000	0.000000
1.220000	-0.000000	0.000000	-0.000000	-0.000000	0.000000	-0.000000	-0.000000	-0.000000	-0.000000	0.000000	-0.000000	-0.000000	-0.000000	0.970000	0.000000	0.290000	-0.000000	-0.000000	0.000000
1.230000	-0.000000	0.000000	-0.000000	-0.000000	0.000000	-0.000000	-0.000000	-0.000000	-0.000000	0.000000	-0.000000	-0.000000	-0.000000	0.970000	0.000000	0.290000	-0.000000	-0.000000	0.000000
1.240000	-0.000000	0.000000	-0.000000	-0.000000	0.000000	-0.000000	-0.000000	-0.000000	-0.000000	0.000000	-0.000000	-0.000000	-0.000000	0.970000	0.000000	0.290000	-0.000000	-0.000000	0.000000
1.250000	-0.000000	0.000000	-0.000000	-0.000000	0.000000	-0.000000	-0.000000	-0.000000	-0.000000	0.000000	-0.000000	-0.000000	-0.000000	0.970000	0.000000	0.290000	-0.000000	-0.000000	0.000000
1.260000	-0.000000	0.000000	-0.000000	-0.000000	0.000000	-0.000000	-0.000000	-0.000000	-0.000000	0.000000	-0.000000	-0.000000	-0.000000	0.970000	0.000000	0.290000	-0.000000	-0.000000	0.000000
1.270000	-0.000000	0.000000	-0.000000	-0.000000	0.000000	-0.000000	-0.000000	-0.000000	-0.000000	0.000000	-0.000000	-0.000000	-0.000000	0.970000	0.000000	0.290000	-0.000000	-0.000000	0.000000
1.280000	-0.000000	0.000000	-0.000000	-0.000000	0.000000	-0.000000	-0.000000	-0.000000	-0.000000	0.000000	-0.000000	-0.000000	-0.000000	0.970000	0.000000	0.290000	-0.000000	-0.000000	0.000000
1.290000	-0.000000	0.000000	-0.000000	-0.000000	0.000000	-0.000000	-0.000000	-0.000000	-0.000000	0.000000	-0.000000	-0.000000	-0.000000	0.970000	0.000000	0.290000	-0.000000	-0.000000	0.000000
1.300000	-0.000000	0.000000	-0.000000	-0.000000	0.000000	-0.000000	-0.000000	-0.000000	-0.000000	0.000000	-0.000000	-0.000000	-0.000000	0.970000	0.000000	0.290000	-0.000000	-0.000000	0.000000
1.310000	-0.000000	0.000000	-0.000000	-0.000000	0.000000	-0.000000	-0.000000	-0.000000	-0.000000	0.000000	-0.000000	-0.000000	-0.000000	0.970000	0.000000	0.290000	-0.000000	-0.000000	0.000000
1.320000	-0.000000	0.000000	-0.000000	-0.000000	0.000000	-0.000000	-0.000000	-0.000000	-0.000000	0.000000	-0.000000	-0.000000	-0.000000	0.970000	0.000000	0.290000	-0.000000	-0.000000	0.000000
1.330000	-0.000000	0.000000	-0.000000	-0.000000	0.000000	-0.000000	-0.000000	-0.000000	-0.000000	0.000000	-0.000000	-0.000000	-0.000000	0.970000	0.000000	0.290000	-0.000000	-0.000000	0.000000
1.340000	-0.000000	0.000000	-0.000000	-0.000000	0.000000	-0.000000	-0.000000	-0.000000	-0.000000	0.000000	-0.000000	-0.000000	-0.000000	0.970000	0.000000	0.290000	-0.000000	-0.000000	0.000000
1.350000	-0.000000	0.000000	-0.000000	-0.000000	0.000000	-0.000000	-0.000000	-0.000000	-0.000000	0.000000	-0.000000	-0.000000	-0.000000	0.970000	0.000000	0.290000	-0.000000	-0.000000	0.000000
1.360000	-0.000000	0.000000	-0.000000	-0.000000	0.000000	-0.000000	-0.000000	-0.000000	-0.000000	0.000000	-0.000000	-0.000000	-0.000000	0.970000	0.000000	0.290000	-0.000000	-0.000000	0.000000
1.370000	-0.000000	0.000000	-0.000000	-0.000000	0.000000	-0.000000	-0.000000	-0.000000	-0.000000	0.000000	-0.000000	-0.000000	-0.000000	0.970000	0.000000	0.290000	-0.000000	-0.000000	0.000000
1.380000	-0.000000	0.000000	-0.000000	-0.000000	0.000000	-0.000000	-0.000000	-0.000000	-0.000000	0.000000	-0.000000	-0.000000	-0.000000	0.970000	0.000000	0.290000	-0.000000	-0.000000	0.000000
1.390000	-0.000000	0.000000	-0.000000	-0.000000	0.000000	-0.000000	-0.000000	-0.000000	-0.000000	0.000000	-0.000000	-0.000000	-0.000000	0.970000	0.000000	0.290000	-0.000000	-0.000000	0.000000
1.400000	-0.000000	0.000000	-0.000000	-0.000000	0.000000	-0.000000	-0.000000	-0.000000	-0.000000	0.000000	-0.000000	-0.000000	-0.000000	0.970000	0.000000	0.290000	-0.000000	-0.000000	0.000000
1.410000	-0.000000	0.000000	-0.000000	-0.000000	0.000000	-0.000000	-0.000000	-0.000000	-0.000000	0.000000	-0.000000	-0.000000	-0.000000	0.970000	0.000000	0.290000	-0.000000	-0.000000	0.000000
1.420000	-0.000000	0.000000	-0.000000	-0.000000	0.000000	-0.000000	-0.000000	-0.000000	-0.000000	0.000000	-0.000000	-0.000000	-0.000000	0.970000	0.000000	0.290000	-0.000000	-0.000000	0.000000
1.430000	-0.000000	0.000000	-0.000000	-0.000000	0.000000	-0.000000	-0.000000	-0.000000	-0.000000	0.000000	-0.000000	-0.000000	-0.000000	0.970000	0.000000	0.290000	-0.000000	-0.000000	0.000000
1.440000	-0.000000	0.000000	-0.000000	-0.000000	0.000000	-0.000000	-0.000000	-0.000000	-0.000000	0.000000	-0.000000	-0.000000	-0.000000	0.970000	0.000000	0.290000	-0.000000	-0.000000	0.000000
1.450000	-0.000000	0.000000	-0.000000	-0.000000	0.000000	-0.000000	-0.000000	-0.000000	-0.000000	0.000000	-0.000000	-0.000000	-0.000000	0.970000	0.000000	0.290000	-0.000000	-0.000000	0.000000
1.460000	-0.000000	0.000000	-0.000000	-0.000000	0.000000	-0.000000	-0.000000	-0.000000	-0.000000	0.000000	-0.000000	-0.000000	-0.000000	0.970000	0.000000	0.290000	-0.000000	-0.000000	0.000000
1.470000	-0.310000	3.800000	-1.040000	31.040000	-3.010000	-4.030000	-61.920000	-1.740000	9.420000	-1.710000	2.600000	-10.440000	3.970000	-1.620000	1.030000	0.330000	-0.000000	-0.000000	0.000000
1.480000	0.600000	3.320000	-1.260000	32.170000	-3.350000	-4.190000	-59.620000	-0.830000	8.940000	-1.620000	2.040000	-9.840000	4.700000	-1.600000	1.030000	0.330000	-0.000000	-0.000000	0.000000
1.490000	1.190000	2.230000	-1.800000	34.480000	-3.210000	-3.790000	-55.290000	-0.210000	8.630000	-0.970000	1.510000	-9.160000	5.810000	-1.590000	1.030000	0.330000	-0.000000	-0.000000	0.000000
1.500000	1.300000	2.050000	-1.900000	35.060000	-3.160000	-3.540000	-53.350000	-0.040000	8.240000	-0.780000	1.470000	-8.870000	6.190000	-1.580000	1.020000	0.330000	-0.000000	-0.000000	0.000000
1.510000	1.470000	1.940000	-1.920000	35.590000	-3.170000	-3.260000	-50.980000	0.190000	7.640000	-0.650000	1.470000	-8.490000	6.590000	-1.570000	1.020000	0.330000	-0.000000	-0.000000	0.000000
1.520000	1.720000	1.880000	-1.850000	36.060000	-3.310000	-2.970000	-48.210000	0.470000	6.860000	-0.630000	1.510000	-8.000000	6.990000	-1.560000	1.020000	0.330000	-0.000000	-0.000000	0.000000
1.530000	2.060000	1.880000	-1.650000	36.450000	-3.600000	-2.680000	-45.110000	0.780000	5.910000	-0.770000	1.590000	-7.400000	7.370000	-1.550000	1.020000	0.330000	-0.000000	-0.000000	0.000000
1.540000	2.470000	1.930000	-1.320000	36.710000	-4.050000	-2.370000	-41.730000	1.100000	4.800000	-1.080000	1.700000	-6.720000	7.720000	-1.540000	1.020000	0.340000	-0.000000	-0.000000	0.000000
1.550000	2.940000	2.050000	-0.880000	36.830000	-4.620000	-2.040000	-38.140000	1.440000	3.560000	-1.520000	1.810000	-5.960000	8.030000	-1.530000	1.020000	0.340000	-0.000000	-0.000000	0.000000
1.560000	3.440000	2.230000	-0.360000	36.810000	-5.280000	-1.660000	-34.400000	1.790000	2.210000	-2.080000	1.900000	-5.180000	8.310000	-1.510000	1.010000	0.340000	-0.000000	-0.000000	0.000000
1.570000	3.940000	2.470000	0.220000	36.690000	-6.000000	-1.200000	-30.590000	2.140000	0.790000	-2.710000	1.960000	-4.400000	8.550000	-1.500000	1.010000	0.340000	-0.000000	-0.000000	0.000000
1.580000	4.410000	2.750000	0.820000	36.510000	-6.730000	-0.640000	-26.780000	2.490000	-0.660000	-3.370000	2.000000	-3.660000	8.750000	-1.490000	1.010000	0.340000	-0.000000	-0.000000	0.000000
1.590000	4.850000	3.050000	1.410000	36.310000	-7.450000	-0.010000	-23.060000	2.810000	-2.100000	-4.020000	2.010000	-2.990000	8.930000	-1.470000	1.000000	0.340000	-0.000000	-0.000000	0.000000
1.600000	5.240000	3.350000	1.980000	36.140000	-8.120000	0.650000	-19.500000	3.090000	-3.500000	-4.630000	2.040000	-2.430000	9.120000	-1.460000	1.000000	0.340000	-0.000000	-0.000000	0.000000
1.610000	5.580000	3.640000	2.500000	36.020000	-8.740000	1.260000	-16.180000	3.330000	-4.830000	-5.180000	2.090000	-2.010000	9.330000	-1.450000	0.990000	0.340000	-0.000000	-0.000000	0.000000
1.620000	5.860000	3.900000	2.980000	35.990000	-9.300000	1.750000	-13.180000	3.520000	-6.060000	-5.680000	2.190000	-1.740000	9.590000	-1.430000	0.990000	0.340000	-0.000000	-0.000000	0.000000
1.630000	6.070000	4.110000	3.420000	36.060000	-9.770000	2.050000	-10.600000	3.670000	-7.160000	-6.100000	2.350000	-1.630000	9.900000	-1.420000	0.990000	0.340000	-0.000000	-0.000000	0.000000
1.640000	6.200000	4.270000	3.800000	36.240000	-10.170000	2.180000	-8.510000	3.800000	-8.150000	-6.450000	2.530000	-1.660000	10.230000	-1.410000	0.980000	0.340000	-0.000000	-0.000000	0.000000
1.650000	6.280000	4.390000	4.110000	36.500000	-10.460000	2.170000	-7.000000	3.930000	-9.050000	-6.680000	2.710000	-1.800000	10.570000	-1.390000	0.980000	0.340000	-0.000000	-0.000000	0.000000
1.660000	6.310000	4.480000	4.310000	36.820000	-10.640000	2.090000	-6.130000	4.050000	-9.880000	-6.780000	2.860000	-2.030000	10.900000	-1.380000	0.980000	0.340000	-0.000000	-0.000000	0.000000
1.670000	6.330000	4.550000	4.400000	37.170000	-10.690000	2.000000	-5.890000	4.160000	-10.670000	-6.720000	2.980000	-2.310000	11.180000	-1.360000	0.970000	0.350000	-0.000000	-0.000000	0.000000
1.680000	6.350000	4.610000	4.350000	37.520000	-10.610000	1.930000	-6.250000	4.230000	-11.420000	-6.480000	3.060000	-2.640000	11.430000	-1.350000	0.970000	0.350000	-0.000000	-0.000000	0.000000
1.690000	6.380000	4.650000	4.190000	37.850000	-10.390000	1.940000	-7.080000	4.210000	-12.140000	-6.090000	3.130000	-3.020000	11.620000	-1.340000	0.970000	0.350000	-0.000000	-0.000000	0.000000
1.700000	6.410000	4.660000	3.940000	38.160000	-10.070000	2.010000	-8.260000	4.070000	-12.790000	-5.580000	3.200000	-3.450000	11.750000	-1.320000	0.970000	0.350000	-0.000000	-0.000000	0.000000
1.710000	6.420000	4.620000	3.630000	38.450000	-9.660000	2.150000	-9.640000	3.760000	-13.390000	-4.990000	3.240000	-3.960000	11.790000	-1.310000	0.970000	0.350000	-0.000000	-0.000000	0.000000
1.720000	6.400000	4.540000	3.300000	38.720000	-9.180000	2.310000	-11.090000	3.250000	-13.900000	-4.390000	3.260000	-4.550000	11.710000	-1.290000	0.960000	0.350000	-0.000000	-0.000000	0.000000
1.730000	6.340000	4.400000	2.960000	38.980000	-8.670000	2.480000	-12.550000	2.530000	-14.300000	-3.790000	3.250000	-5.240000	11.480000	-1.280000	0.960000	0.350000	-0.000000	-0.000000	0.000000
1.740000	6.230000	4.210000	2.650000	39.250000	-8.130000	2.620000	-13.970000	1.660000	-14.590000	-3.230000	3.190000	-6.070000	11.110000	-1.260000	0.960000	0.360000	-0.000000	-0.000000	0.000000
1.750000	6.090000	3.970000	2.350000	39.510000	-7.580000	2.730000	-15.360000	0.710000	-14.740000	-2.710000	3.080000	-7.080000	10.590000	-1.240000	0.960000	0.360000	-0.000000	-0.000000	0.000000
1.760000	5.910000	3.700000	2.080000	39.770000	-7.030000	2.810000	-16.740000	-0.220000	-14.760000	-2.220000	2.920000	-8.300000	9.910000	-1.230000	0.960000	0.360000	-0.000000	-0.000000	0.000000
1.770000	5.700000	3.430000	1.850000	40.000000	-6.500000	2.890000	-18.110000	-1.050000	-14.630000	-1.780000	2.710000	-9.750000	9.020000	-1.210000	0.960000	0.360000	-0.000000	-0.000000	0.000000
1.780000	5.450000	3.190000	1.680000	40.180000	-6.010000	2.980000	-19.510000	-1.710000	-14.360000	-1.400000	2.480000	-11.440000	7.850000	-1.200000	0.960000	0.360000	-0.000000	-0.000000	0.000000
1.790000	5.160000	2.990000	1.590000	40.280000	-5.560000	3.130000	-20.920000	-2.160000	-13.950000	-1.090000	2.240000	-13.390000	6.320000	-1.180000	0.960000	0.370000	-0.000000	-0.000000	0.000000
1.800000	4.850000	2.840000	1.580000	40.300000	-5.170000	3.320000	-22.320000	-2.370000	-13.370000	-0.850000	2.040000	-15.600000	4.400000	-1.170000	0.970000	0.370000	-0.000000	-0.000000	0.000000
1.810000	4.520000	2.740000	1.640000	40.220000	-4.830000	3.530000	-23.690000	-2.380000	-12.600000	-0.650000	1.920000	-18.110000	2.100000	-1.150000	0.970000	0.370000	-0.000000	-0.000000	0.000000
1.820000	4.190000	2.650000	1.740000	40.050000	-4.520000	3.730000	-24.970000	-2.200000	-11.570000	-0.460000	1.890000	-20.940000	-0.510000	-1.140000	0.970000	0.370000	-0.000000	-0.000000	0.000000
1.830000	3.900000	2.540000	1.830000	39.790000	-4.200000	3.840000	-26.150000	-1.870000	-10.240000	-0.230000	1.940000	-24.110000	-3.300000	-1.120000	0.970000	0.380000	-0.000000	-0.000000	0.000000
1.840000	3.650000	2.410000	1.870000	39.460000	-3.850000	3.830000	-27.170000	-1.400000	-8.580000	0.080000	2.050000	-27.630000	-6.090000	-1.100000	0.980000	0.380000	-0.000000	-0.000000	0.000000
1.850000	3.470000	2.250000	1.830000	39.040000	-3.450000	3.690000	-28.010000	-0.830000	-6.590000	0.490000	2.170000	-31.460000	-8.720000	-1.090000	0.980000	0.380000	-0.000000	-0.000000	0.000000
1.860000	3.340000	2.070000	1.700000	38.520000	-2.990000	3.440000	-28.630000	-0.160000	-4.330000	1.000000	2.260000	-35.530000	-11.030000	-1.080000	0.980000	0.390000	-0.000000	-0.000000	0.000000
1.870000	3.240000	1.880000	1.500000	37.880000	-2.460000	3.120000	-29.010000	0.560000	-1.870000	1.580000	2.300000	-39.690000	-12.900000	-1.060000	0.980000	0.390000	-0.000000	-0.000000	0.000000
1.880000	3.140000	1.690000	1.250000	37.130000	-1.890000	2.760000	-29.140000	1.270000	0.710000	2.180000	2.290000	-43.800000	-14.250000	-1.050000	0.990000	0.390000	-0.000000	-0.000000	0.000000
1.890000	3.020000	1.510000	0.990000	36.270000	-1.310000	2.380000	-29.030000	1.940000	3.330000	2.740000	2.210000	-47.710000	-15.030000	-1.030000	0.990000	0.390000	-0.000000	-0.000000	0.000000
1.900000	2.880000	1.350000	0.750000	35.310000	-0.750000	2.030000	-28.710000	2.510000	5.930000	3.230000	2.090000	-51.300000	-15.280000	-1.020000	0.990000	0.390000	-0.000000	-0.000000	0.000000
1.910000	2.710000	1.190000	0.570000	34.290000	-0.260000	1.730000	-28.230000	2.960000	8.470000	3.620000	1.910000	-54.510000	-15.080000	-1.010000	1.000000	0.400000	-0.000000	-0.000000	0.000000
1.920000	2.520000	1.040000	0.460000	33.240000	0.140000	1.520000	-27.650000	3.290000	10.950000	3.890000	1.670000	-57.280000	-14.530000	-0.990000	1.000000	0.400000	-0.000000	-0.000000	0.000000
1.930000	2.330000	0.910000	0.440000	32.160000	0.410000	1.370000	-27.010000	3.540000	13.340000	4.020000	1.390000	-59.620000	-13.760000	-0.980000	1.000000	0.400000	-0.000000	-0.000000	0.000000
1.940000	2.120000	0.790000	0.520000	31.070000	0.540000	1.250000	-26.340000	3.750000	15.650000	4.000000	1.120000	-61.540000	-12.870000	-0.970000	1.010000	0.400000	-0.000000	-0.000000	0.000000
1.950000	1.930000	0.700000	0.700000	29.950000	0.490000	1.100000	-25.650000	3.960000	17.870000	3.820000	0.910000	-63.070000	-11.920000	-0.950000	1.010000	0.400000	-0.000000	-0.000000	0.000000
1.960000	1.760000	0.630000	0.980000	28.790000	0.290000	0.880000	-24.930000	4.210000	20.010000	3.510000	0.830000	-64.240000	-10.940000	-0.940000	1.010000	0.400000	-0.000000	-0.000000	0.000000
1.970000	1.620000	0.580000	1.320000	27.560000	-0.060000	0.550000	-24.170000	4.510000	22.050000	3.080000	0.910000	-65.070000	-9.930000	-0.930000	1.010000	0.400000	-0.000000	-0.000000	0.000000
1.980000	1.520000	0.570000	1.700000	26.270000	-0.510000	0.120000	-23.360000	4.850000	24.010000	2.590000	1.140000	-65.590000	-8.880000	-0.920000	1.020000	0.400000	-0.000000	-0.000000	0.000000
1.990000	1.450000	0.590000	2.080000	24.910000	-1.000000	-0.420000	-22.490000	5.180000	25.880000	2.100000	1.510000	-65.820000	-7.780000	-0.900000	1.020000	0.400000	-0.000000	-0.000000	0.000000
2.000000	1.400000	0.630000	2.420000	23.480000	-1.460000	-1.060000	-21.560000	5.460000	27.650000	1.650000	1.970000	-65.740000	-6.630000	-0.890000	1.020000	0.400000	-0.000000	-0.000000	0.000000
2.010000	1.340000	0.690000	2.670000	22.020000	-1.840000	-1.770000	-20.560000	5.650000	29.310000	1.310000	2.470000	-65.360000	-5.440000	-0.880000	1.030000	0.400000	-0.000000	-0.000000	0.000000
2.020000	1.250000	0.770000	2.810000	20.510000	-2.090000	-2.530000	-19.480000	5.750000	30.850000	1.100000	2.960000	-64.680000	-4.220000	-0.870000	1.030000	0.400000	-0.000000	-0.000000	0.000000
2.030000	1.120000	0.880000	2.850000	18.970000	-2.190000	-3.300000	-18.330000	5.750000	32.240000	1.050000	3.410000	-63.690000	-2.980000	-0.850000	1.030000	0.400000	-0.000000	-0.000000	0.000000
2.040000	0.940000	1.020000	2.790000	17.380000	-2.160000	-4.040000	-17.110000	5.690000	33.460000	1.130000	3.780000	-62.370000	-1.750000	-0.840000	1.030000	0.400000	-0.000000	-0.000000	0.000000
2.050000	0.700000	1.200000	2.660000	15.750000	-2.040000	-4.700000	-15.840000	5.630000	34.490000	1.300000	4.070000	-60.720000	-0.570000	-0.830000	1.030000	0.400000	-0.000000	-0.000000	0.000000
2.060000	0.400000	1.420000	2.500000	14.090000	-1.850000	-5.260000	-14.560000	5.620000	35.310000	1.550000	4.260000	-58.730000	0.530000	-0.820000	1.030000	0.400000	-0.000000	-0.000000	0.000000
2.070000	0.050000	1.670000	2.320000	12.400000	-1.630000	-5.690000	-13.330000	5.670000	35.950000	1.850000	4.330000	-56.420000	1.530000	-0.800000	1.030000	0.400000	-0.000000	-0.000000	0.000000
2.080000	-0.340000	1.950000	2.140000	10.720000	-1.370000	-5.990000	-12.170000	5.810000	36.390000	2.190000	4.290000	-53.820000	2.430000	-0.790000	1.030000	0.400000	-0.000000	-0.000000	0.000000
2.090000	-0.770000	2.240000	1.940000	9.040000	-1.090000	-6.170000	-11.100000	5.990000	36.670000	2.570000	4.130000	-50.950000	3.230000	-0.780000	1.030000	0.400000	-0.000000	-0.000000	0.000000
2.100000	-1.240000	2.560000	1.730000	7.380000	-0.790000	-6.250000	-10.110000	6.210000	36.810000	2.980000	3.880000	-47.870000	3.900000	-0.760000	1.030000	0.400000	-0.000000	-0.000000	0.000000
2.110000	-1.730000	2.900000	1.500000	5.710000	-0.480000	-6.260000	-9.190000	6.410000	36.830000	3.420000	3.560000	-44.610000	4.420000	-0.750000	1.030000	0.400000	-0.000000	-0.000000	0.000000
2.120000	-2.210000	3.270000	1.260000	4.030000	-0.160000	-6.200000	-8.280000	6.590000	36.750000	3.850000	3.160000	-41.220000	4.760000	-0.740000	1.030000	0.400000	-0.000000	-0.000000	0.000000
2.130000	-2.670000	3.660000	0.990000	2.310000	0.140000	-6.110000	-7.380000	6.710000	36.590000	4.260000	2.710000	-37.710000	4.900000	-0.720000	1.030000	0.390000	-0.000000	-0.000000	0.000000
2.140000	-3.080000	4.090000	0.720000	0.560000	0.430000	-6.020000	-6.450000	6.800000	36.360000	4.620000	2.190000	-34.110000	4.850000	-0.710000	1.020000	0.390000	-0.000000	-0.000000	0.000000
2.150000	-3.410000	4.520000	0.440000	-1.200000	0.690000	-5.930000	-5.520000	6.840000	36.100000	4.930000	1.600000	-30.450000	4.670000	-0.700000	1.020000	0.390000	-0.000000	-0.000000	0.000000
2.160000	-3.660000	4.940000	0.160000	-2.940000	0.930000	-5.870000	-4.580000	6.870000	35.820000	5.170000	0.970000	-26.750000	4.440000	-0.680000	1.020000	0.390000	-0.000000	-0.000000	0.000000
2.170000	-3.830000	5.320000	-0.120000	-4.640000	1.150000	-5.850000	-3.670000	6.900000	35.540000	5.370000	0.300000	-23.050000	4.220000	-0.670000	1.020000	0.390000	-0.000000	-0.000000	0.000000
2.180000	-3.930000	5.650000	-0.400000	-6.260000	1.360000	-5.860000	-2.810000	6.970000	35.310000	5.530000	-0.360000	-19.420000	4.070000	-0.650000	1.010000	0.390000	-0.000000	-0.000000	0.000000
2.190000	-3.980000	5.910000	-0.660000	-7.780000	1.540000	-5.880000	-2.030000	7.090000	35.120000	5.650000	-0.960000	-15.940000	3.980000	-0.640000	1.010000	0.390000	-2.250000	-11.470000	-0.910000
2.200000	-4.000000	6.100000	-0.910000	-9.160000	1.690000	-5.900000	-1.380000	7.300000	35.020000	5.760000	-1.460000	-12.730000	3.980000	-0.630000	1.010000	0.390000	-2.030000	-11.620000	-1.170000
2.210000	-4.010000	6.230000	-1.120000	-10.410000	1.800000	-5.880000	-0.880000	7.600000	35.030000	5.840000	-1.840000	-9.900000	4.030000	-0.610000	1.000000	0.390000	-1.950000	-11.390000	-1.370000
2.220000	-4.010000	6.290000	-1.310000	-11.520000	1.870000	-5.820000	-0.540000	7.970000	35.150000	5.900000	-2.090000	-7.570000	4.110000	-0.600000	1.000000	0.390000	-1.930000	-11.280000	-1.550000
2.230000	-4.000000	6.300000	-1.460000	-12.510000	1.900000	-5.690000	-0.390000	8.370000	35.390000	5.940000	-2.230000	-5.830000	4.210000	-0.580000	1.000000	0.390000	-1.940000	-11.160000	-1.680000
2.240000	-3.980000	6.260000	-1.580000	-13.370000	1.900000	-5.510000	-0.430000	8.760000	35.750000	5.970000	-2.280000	-4.740000	4.300000	-0.570000	0.990000	0.390000	-1.970000	-11.080000	-1.770000
2.250000	-3.970000	6.170000	-1.660000	-14.120000	1.850000	-5.280000	-0.640000	9.120000	36.220000	5.970000	-2.270000	-4.320000	4.410000	-0.550000	0.990000	0.390000	-2.020000	-11.050000	-1.790000
2.260000	-3.970000	6.030000	-1.700000	-14.750000	1.750000	-5.020000	-1.020000	9.410000	36.790000	5.950000	-2.210000	-4.530000	4.520000	-0.540000	0.990000	0.390000	-2.100000	-11.070000	-1.740000
2.270000	-4.000000	5.840000	-1.690000	-15.260000	1.580000	-4.770000	-1.550000	9.630000	37.430000	5.870000	-2.130000	-5.300000	4.590000	-0.520000	0.980000	0.390000	-2.220000	-11.140000	-1.620000
2.280000	-4.040000	5.590000	-1.630000	-15.660000	1.350000	-4.540000	-2.210000	9.730000	38.120000	5.730000	-2.050000	-6.520000	4.550000	-0.510000	0.980000	0.380000	-2.380000	-11.240000	-1.420000
2.290000	-4.080000	5.300000	-1.520000	-15.970000	1.060000	-4.360000	-2.960000	9.680000	38.810000	5.520000	-1.990000	-8.060000	4.300000	-0.490000	0.980000	0.380000	-2.510000	-11.380000	-1.070000
2.300000	-4.110000	4.990000	-1.370000	-16.210000	0.720000	-4.230000	-3.790000	9.420000	39.460000	5.220000	-1.960000	-9.780000	3.790000	-0.470000	0.980000	0.380000	-0.000000	-0.000000	0.000000
2.310000	-4.110000	4.680000	-1.200000	-16.400000	0.340000	-4.170000	-4.680000	8.900000	40.050000	4.850000	-1.970000	-11.550000	2.980000	-0.460000	0.970000	0.380000	-0.000000	-0.000000	0.000000
2.320000	-4.070000	4.370000	-1.010000	-16.550000	-0.070000	-4.180000	-5.630000	8.090000	40.540000	4.440000	-2.010000	-13.280000	1.910000	-0.440000	0.970000	0.380000	-0.000000	-0.000000	0.000000
2.330000	-4.000000	4.090000	-0.820000	-16.650000	-0.510000	-4.260000	-6.660000	6.980000	40.920000	3.990000	-2.050000	-14.900000	0.680000	-0.420000	0.970000	0.370000	-0.000000	-0.000000	0.000000
2.340000	-3.900000	3.820000	-0.640000	-16.680000	-0.980000	-4.410000	-7.820000	5.580000	41.190000	3.540000	-2.080000	-16.420000	-0.600000	-0.410000	0.970000	0.370000	-0.000000	-0.000000	0.000000
2.350000	-3.770000	3.590000	-0.460000	-16.590000	-1.470000	-4.610000	-9.170000	3.930000	41.370000	3.090000	-2.090000	-17.830000	-1.800000	-0.390000	0.970000	0.370000	-0.000000	-0.000000	0.000000
2.360000	-3.610000	3.370000	-0.280000	-16.350000	-1.980000	-4.850000	-10.780000	2.090000	41.460000	2.640000	-2.050000	-19.190000	-2.800000	-0.370000	0.970000	0.370000	-0.000000	-0.000000	0.000000
2.370000	-3.410000	3.170000	-0.080000	-15.910000	-2.520000	-5.100000	-12.720000	0.110000	41.490000	2.160000	-1.970000	-20.520000	-3.530000	-0.360000	0.970000	0.360000	-0.000000	-0.000000	0.000000
2.380000	-3.170000	3.000000	0.130000	-15.230000	-3.100000	-5.340000	-15.050000	-1.970000	41.440000	1.650000	-1.860000	-21.830000	-3.950000	-0.340000	0.970000	0.360000	-0.000000	-0.000000	0.000000
2.390000	-2.900000	2.850000	0.380000	-14.280000	-3.700000	-5.550000	-17.800000	-4.110000	41.330000	1.090000	-1.700000	-23.110000	-4.050000	-0.320000	0.970000	0.360000	-0.000000	-0.000000	0.000000
2.400000	-2.600000	2.720000	0.640000	-13.070000	-4.320000	-5.730000	-20.930000	-6.270000	41.130000	0.490000	-1.520000	-24.340000	-3.860000	-0.300000	0.980000	0.360000	-0.000000	-0.000000	0.000000
2.410000	-2.290000	2.620000	0.940000	-11.590000	-4.950000	-5.870000	-24.410000	-8.420000	40.830000	-0.160000	-1.310000	-25.460000	-3.420000	-0.290000	0.980000	0.350000	-0.000000	-0.000000	0.000000
2.420000	-1.970000	2.530000	1.250000	-9.890000	-5.580000	-5.960000	-28.130000	-10.520000	40.430000	-0.840000	-1.080000	-26.420000	-2.790000	-0.270000	0.980000	0.350000	-0.000000	-0.000000	0.000000
2.430000	-1.660000	2.460000	1.570000	-8.000000	-6.200000	-5.980000	-31.990000	-12.500000	39.900000	-1.540000	-0.870000	-27.200000	-2.030000	-0.260000	0.980000	0.350000	-0.000000	-0.000000	0.000000
2.440000	-1.360000	2.400000	1.890000	-5.980000	-6.780000	-5.930000	-35.870000	-14.290000	39.260000	-2.260000	-0.670000	-27.760000	-1.170000	-0.240000	0.980000	0.350000	-0.000000	-0.000000	0.000000
2.450000	-1.070000	2.350000	2.180000	-3.860000	-7.320000	-5.790000	-39.670000	-15.810000	38.500000	-2.960000	-0.500000	-28.120000	-0.280000	-0.230000	0.990000	0.340000	-0.000000	-0.000000	0.000000
2.460000	-0.790000	2.310000	2.410000	-1.700000	-7.760000	-5.560000	-43.330000	-16.930000	37.630000	-3.600000	-0.380000	-28.270000	0.620000	-0.210000	0.990000	0.340000	-0.000000	-0.000000	0.000000
2.470000	-0.520000	2.280000	2.560000	0.490000	-8.090000	-5.250000	-46.790000	-17.570000	36.670000	-4.140000	-0.290000	-28.240000	1.470000	-0.200000	0.990000	0.340000	-0.000000	-0.000000	0.000000
2.480000	-0.270000	2.260000	2.580000	2.710000	-8.280000	-4.900000	-50.050000	-17.670000	35.620000	-4.540000	-0.230000	-28.060000	2.250000	-0.190000	1.000000	0.340000	-0.000000	-0.000000	0.000000
2.490000	-0.050000	2.250000	2.480000	4.950000	-8.310000	-4.520000	-53.100000	-17.250000	34.510000	-4.760000	-0.190000	-27.740000	2.940000	-0.170000	1.000000	0.340000	-0.000000	-0.000000	0.000000
2.500000	0.150000	2.230000	2.270000	7.220000	-8.210000	-4.150000	-55.930000	-16.400000	33.360000	-4.820000	-0.170000	-27.300000	3.530000	-0.160000	1.000000	0.330000	-0.000000	-0.000000	0.000000
2.510000	0.330000	2.200000	1.960000	9.520000	-7.990000	-3.820000	-58.520000	-15.270000	32.200000	-4.730000	-0.150000	-26.760000	4.000000	-0.150000	1.010000	0.330000	-0.000000	-0.000000	0.000000
2.520000	0.490000	2.150000	1.620000	11.850000	-7.710000	-3.530000	-60.830000	-14.010000	31.040000	-4.530000	-0.100000	-26.130000	4.390000	-0.130000	1.010000	0.330000	-0.000000	-0.000000	0.000000
2.530000	0.650000	2.070000	1.280000	14.190000	-7.390000	-3.300000	-62.840000	-12.740000	29.900000	-4.270000	-0.030000	-25.420000	4.680000	-0.120000	1.010000	0.330000	-0.000000	-0.000000	0.000000
2.540000	0.790000	1.960000	0.970000	16.510000	-7.060000	-3.110000	-64.490000	-11.540000	28.770000	-3.990000	0.100000	-24.660000	4.910000	-0.110000	1.020000	0.330000	-0.000000	-0.000000	0.000000
2.550000	0.930000	1.840000	0.700000	18.780000	-6.750000	-2.930000	-65.770000	-10.460000	27.660000	-3.710000	0.280000	-23.840000	5.080000	-0.100000	1.020000	0.320000	-0.000000	-0.000000	0.000000
2.560000	1.040000	1.730000	0.470000	20.970000	-6.450000	-2.740000	-66.660000	-9.510000	26.550000	-3.440000	0.520000	-23.000000	5.210000	-0.090000	1.020000	0.320000	-7.840000	-2.840000	1.760000
2.570000	1.140000	1.620000	0.260000	23.070000	-6.150000	-2.550000	-67.180000	-8.680000	25.430000	-3.180000	0.810000	-22.150000	5.310000	-0.080000	1.030000	0.320000	-7.830000	-2.480000	1.550000
2.580000	1.220000	1.540000	0.090000	25.070000	-5.850000	-2.350000	-67.330000	-7.940000	24.300000	-2.940000	1.140000	-21.310000	5.370000	-0.070000	1.030000	0.320000	-7.630000	-1.890000	1.300000
2.590000	1.300000	1.480000	-0.060000	26.980000	-5.590000	-2.180000	-67.160000	-7.260000	23.150000	-2.750000	1.520000	-20.490000	5.420000	-0.050000	1.030000	0.320000	-7.560000	-1.600000	1.110000
2.600000	1.390000	1.460000	-0.160000	28.780000	-5.380000	-2.040000	-66.690000	-6.590000	21.980000	-2.610000	1.930000	-19.680000	5.450000	-0.040000	1.040000	0.320000	-7.440000	-1.260000	0.940000
2.610000	1.500000	1.480000	-0.210000	30.460000	-5.260000	-1.950000	-65.960000	-5.910000	20.770000	-2.550000	2.370000	-18.890000	5.470000	-0.030000	1.040000	0.320000	-7.280000	-0.880000	0.820000
2.620000	1.640000	1.530000	-0.200000	32.000000	-5.230000	-1.910000	-64.970000	-5.170000	19.510000	-2.570000	2.830000	-18.090000	5.490000	-0.020000	1.040000	0.320000	-7.080000	-0.460000	0.760000
2.630000	1.830000	1.620000	-0.140000	33.380000	-5.300000	-1.920000	-63.720000	-4.390000	18.200000	-2.670000	3.290000	-17.260000	5.520000	-0.010000	1.040000	0.320000	-6.850000	-0.020000	0.750000
2.640000	2.050000	1.760000	-0.040000	34.580000	-5.450000	-1.970000	-62.200000	-3.560000	16.820000	-2.820000	3.750000	-16.380000	5.590000	0.000000	1.040000	0.320000	-6.620000	0.450000	0.790000
2.650000	2.320000	1.940000	0.070000	35.580000	-5.660000	-2.030000	-60.410000	-2.740000	15.380000	-3.010000	4.170000	-15.450000	5.700000	0.020000	1.040000	0.320000	-6.380000	0.930000	0.870000
2.660000	2.620000	2.160000	0.200000	36.380000	-5.900000	-2.110000	-58.330000	-1.920000	13.880000	-3.240000	4.540000	-14.470000	5.880000	0.030000	1.040000	0.320000	-6.140000	1.420000	0.980000
2.670000	2.960000	2.410000	0.340000	36.980000	-6.170000	-2.190000	-55.950000	-1.110000	12.330000	-3.480000	4.840000	-13.460000	6.120000	0.040000	1.040000	0.320000	-5.890000	1.920000	1.130000
2.680000	3.330000	2.690000	0.510000	37.400000	-6.480000	-2.240000	-53.290000	-0.290000	10.740000	-3.770000	5.050000	-12.450000	6.420000	0.050000	1.040000	0.320000	-5.620000	2.440000	1.320000
2.690000	3.740000	3.010000	0.730000	37.630000	-6.810000	-2.220000	-50.320000	0.550000	9.100000	-4.110000	5.170000	-11.440000	6.750000	0.070000	1.040000	0.320000	-5.320000	2.960000	1.570000
2.700000	4.160000	3.350000	1.010000	37.680000	-7.190000	-2.070000	-47.060000	1.380000	7.420000	-4.510000	5.200000	-10.470000	7.090000	0.080000	1.040000	0.320000	-4.990000	3.490000	1.880000
2.710000	4.590000	3.710000	1.360000	37.570000	-7.630000	-1.760000	-43.520000	2.170000	5.710000	-4.990000	5.150000	-9.510000	7.430000	0.090000	1.040000	0.320000	-4.640000	4.010000	2.280000
2.720000	5.000000	4.090000	1.800000	37.320000	-8.110000	-1.290000	-39.700000	2.880000	3.980000	-5.530000	5.010000	-8.580000	7.760000	0.110000	1.030000	0.320000	-4.280000	4.510000	2.760000
2.730000	5.390000	4.460000	2.300000	36.960000	-8.630000	-0.640000	-35.670000	3.470000	2.240000	-6.120000	4.780000	-7.660000	8.080000	0.120000	1.030000	0.320000	-3.940000	4.970000	3.310000
2.740000	5.740000	4.820000	2.850000	36.540000	-9.180000	0.140000	-31.480000	3.910000	0.500000	-6.720000	4.500000	-6.750000	8.400000	0.130000	1.030000	0.320000	-3.650000	5.390000	3.900000
2.750000	6.060000	5.140000	3.420000	36.120000	-9.740000	1.010000	-27.210000	4.200000	-1.200000	-7.310000	4.190000	-5.860000	8.720000	0.150000	1.020000	0.320000	-3.430000	5.760000	4.520000
2.760000	6.340000	5.420000	3.990000	35.750000	-10.280000	1.930000	-22.980000	4.340000	-2.840000	-7.860000	3.890000	-4.990000	9.050000	0.160000	1.020000	0.330000	-3.300000	6.070000	5.120000
2.770000	6.590000	5.630000	4.530000	35.480000	-10.790000	2.840000	-18.900000	4.390000	-4.400000	-8.350000	3.630000	-4.180000	9.410000	0.180000	1.020000	0.330000	-3.260000	6.340000	5.680000
2.780000	6.800000	5.790000	5.010000	35.350000	-11.240000	3.680000	-15.090000	4.420000	-5.860000	-8.760000	3.430000	-3.440000	9.820000	0.190000	1.010000	0.330000	-3.270000	6.550000	6.190000
2.790000	6.970000	5.900000	5.430000	35.360000	-11.630000	4.420000	-11.710000	4.500000	-7.200000	-9.080000	3.280000	-2.830000	10.300000	0.210000	1.010000	0.330000	-3.330000	6.710000	6.610000
2.800000	7.090000	5.960000	5.780000	35.520000	-11.930000	5.030000	-8.880000	4.650000	-8.430000	-9.300000	3.170000	-2.360000	10.830000	0.220000	1.010000	0.330000	-3.400000	6.820000	6.950000
2.810000	7.170000	6.010000	6.040000	35.800000	-12.150000	5.500000	-6.700000	4.910000	-9.550000	-9.420000	3.050000	-2.070000	11.410000	0.240000	1.000000	0.330000	-3.440000	6.890000	7.200000
2.820000	7.220000	6.060000	6.210000	36.170000	-12.280000	5.830000	-5.260000	5.240000	-10.580000	-9.430000	2.910000	-1.970000	12.010000	0.250000	1.000000	0.330000	-3.460000	6.930000	7.370000
2.830000	7.270000	6.110000	6.310000	36.590000	-12.340000	6.020000	-4.570000	5.590000	-11.530000	-9.350000	2.740000	-2.040000	12.570000	0.260000	1.000000	0.330000	-3.430000	6.990000	7.460000
2.840000	7.340000	6.180000	6.340000	37.030000	-12.340000	6.090000	-4.580000	5.880000	-12.410000	-9.180000	2.520000	-2.290000	13.070000	0.280000	0.990000	0.330000	-3.360000	7.070000	7.490000
2.850000	7.430000	6.250000	6.300000	37.440000	-12.290000	6.040000	-5.180000	6.040000	-13.230000	-8.920000	2.270000	-2.670000	13.480000	0.290000	0.990000	0.330000	-3.270000	7.180000	7.460000
2.860000	7.560000	6.300000	6.190000	37.810000	-12.180000	5.890000	-6.230000	6.010000	-13.970000	-8.570000	2.000000	-3.170000	13.770000	0.310000	0.990000	0.330000	-3.200000	7.320000	7.380000
2.870000	7.720000	6.310000	6.020000	38.140000	-12.000000	5.680000	-7.580000	5.740000	-14.610000	-8.140000	1.750000	-3.770000	13.940000	0.320000	0.980000	0.330000	-3.150000	7.470000	7.240000
2.880000	7.880000	6.270000	5.780000	38.440000	-11.730000	5.420000	-9.080000	5.210000	-15.150000	-7.610000	1.510000	-4.460000	13.980000	0.340000	0.980000	0.340000	-3.160000	7.620000	7.010000
2.890000	8.040000	6.150000	5.450000	38.720000	-11.350000	5.120000	-10.660000	4.410000	-15.560000	-6.980000	1.290000	-5.240000	13.890000	0.360000	0.980000	0.340000	-3.250000	7.750000	6.680000
2.900000	8.180000	5.960000	5.030000	39.000000	-10.870000	4.810000	-12.240000	3.350000	-15.840000	-6.270000	1.100000	-6.110000	13.670000	0.370000	0.980000	0.340000	-3.420000	7.840000	6.250000
2.910000	8.270000	5.700000	4.540000	39.310000	-10.290000	4.510000	-13.810000	2.080000	-15.990000	-5.490000	0.930000	-7.090000	13.300000	0.390000	0.980000	0.340000	-3.670000	7.870000	5.720000
2.920000	8.320000	5.410000	4.000000	39.640000	-9.640000	4.260000	-15.380000	0.660000	-16.020000	-4.680000	0.790000	-8.190000	12.770000	0.410000	0.980000	0.340000	-3.980000	7.840000	5.110000
2.930000	8.310000	5.090000	3.430000	39.990000	-8.960000	4.090000	-16.950000	-0.790000	-15.940000	-3.850000	0.660000	-9.420000	12.010000	0.420000	0.980000	0.340000	-4.320000	7.750000	4.470000
2.940000	8.230000	4.790000	2.870000	40.320000	-8.280000	4.010000	-18.550000	-2.140000	-15.780000	-3.050000	0.560000	-10.800000	10.980000	0.440000	0.980000	0.340000	-4.670000	7.610000	3.830000
2.950000	8.100000	4.520000	2.340000	40.600000	-7.600000	3.990000	-20.160000	-3.260000	-15.510000	-2.280000	0.480000	-12.370000	9.650000	0.450000	0.980000	0.350000	-4.980000	7.420000	3.230000
2.960000	7.900000	4.300000	1.870000	40.790000	-6.950000	4.020000	-21.740000	-4.030000	-15.140000	-1.570000	0.440000	-14.170000	7.970000	0.470000	0.980000	0.350000	-5.260000	7.200000	2.710000
2.970000	7.650000	4.130000	1.470000	40.860000	-6.320000	4.040000	-23.260000	-4.410000	-14.630000	-0.910000	0.440000	-16.240000	5.970000	0.490000	0.980000	0.350000	-5.480000	6.950000	2.270000
2.980000	7.360000	4.010000	1.160000	40.790000	-5.710000	4.020000	-24.680000	-4.390000	-13.940000	-0.310000	0.470000	-18.620000	3.660000	0.500000	0.980000	0.350000	-5.660000	6.690000	1.920000
2.990000	7.040000	3.920000	0.910000	40.570000	-5.130000	3.940000	-25.950000	-4.020000	-13.040000	0.240000	0.560000	-21.310000	1.100000	0.520000	0.980000	0.350000	-5.810000	6.420000	1.650000
3.000000	6.720000	3.850000	0.720000	40.220000	-4.560000	3.790000	-27.040000	-3.390000	-11.890000	0.740000	0.710000	-24.320000	-1.630000	0.540000	0.990000	0.360000	-5.960000	6.150000	1.440000
3.010000	6.400000	3.770000	0.580000	39.750000	-4.000000	3.590000	-27.920000	-2.610000	-10.470000	1.210000	0.920000	-27.600000	-4.440000	0.550000	0.990000	0.360000	-6.120000	5.860000	1.280000
3.020000	6.110000	3.660000	0.460000	39.180000	-3.460000	3.370000	-28.560000	-1.760000	-8.790000	1.640000	1.190000	-31.110000	-7.210000	0.570000	0.990000	0.360000	-6.300000	5.570000	1.140000
3.030000	5.850000	3.540000	0.380000	38.510000	-2.950000	3.170000	-28.950000	-0.910000	-6.880000	2.030000	1.530000	-34.760000	-9.780000	0.580000	0.990000	0.360000	-6.500000	5.250000	1.030000
3.040000	5.620000	3.380000	0.320000	37.750000	-2.480000	2.990000	-29.090000	-0.120000	-4.770000	2.360000	1.900000	-38.480000	-12.020000	0.600000	1.000000	0.360000	-6.720000	4.930000	0.940000
3.050000	5.420000	3.200000	0.300000	36.920000	-2.080000	2.850000	-29.000000	0.600000	-2.500000	2.620000	2.280000	-42.190000	-13.780000	0.610000	1.000000	0.370000	-6.960000	4.620000	0.900000
3.060000	5.250000	3.000000	0.330000	36.030000	-1.760000	2.710000	-28.730000	1.250000	-0.100000	2.810000	2.630000	-45.820000	-14.960000	0.620000	1.000000	0.370000	-7.200000	4.320000	0.900000
3.070000	5.120000	2.790000	0.390000	35.090000	-1.510000	2.550000	-28.300000	1.830000	2.390000	2.920000	2.910000	-49.300000	-15.500000	0.640000	1.010000	0.370000	-7.440000	4.040000	0.950000
3.080000	5.040000	2.580000	0.480000	34.100000	-1.310000	2.360000	-27.780000	2.340000	4.920000	2.970000	3.100000	-52.580000	-15.450000	0.650000	1.010000	0.370000	-7.680000	3.790000	1.040000
3.090000	4.990000	2.380000	0.580000	33.080000	-1.160000	2.130000	-27.170000	2.790000	7.450000	2.980000	3.190000	-55.590000	-14.910000	0.660000	1.010000	0.370000	-7.900000	3.560000	1.160000
3.100000	4.960000	2.200000	0.680000	32.010000	-1.020000	1.860000	-26.500000	3.180000	9.960000	2.940000	3.190000	-58.290000	-14.000000	0.680000	1.020000	0.370000	-8.110000	3.320000	1.280000
3.110000	4.950000	2.040000	0.760000	30.910000	-0.900000	1.530000	-25.770000	3.510000	12.410000	2.880000	3.140000	-60.650000	-12.890000	0.690000	1.020000	0.370000	-8.310000	3.060000	1.410000
3.120000	4.940000	1.910000	0.840000	29.770000	-0.790000	1.150000	-24.990000	3.780000	14.790000	2.780000	3.050000	-62.660000	-11.690000	0.700000	1.020000	0.370000	-8.480000	2.780000	1.530000
3.130000	4.910000	1.780000	0.910000	28.600000	-0.700000	0.740000	-24.150000	3.990000	17.110000	2.650000	2.970000	-64.300000	-10.480000	0.710000	1.030000	0.380000	-8.640000	2.480000	1.650000
3.140000	4.860000	1.670000	1.000000	27.420000	-0.650000	0.280000	-23.280000	4.130000	19.380000	2.470000	2.910000	-65.580000	-9.310000	0.730000	1.030000	0.380000	-8.770000	2.160000	1.770000
3.150000	4.800000	1.560000	1.110000	26.240000	-0.640000	-0.210000	-22.390000	4.210000	21.590000	2.250000	2.900000	-66.510000	-8.190000	0.740000	1.030000	0.380000	-8.870000	1.850000	1.910000
3.160000	4.720000	1.440000	1.230000	25.070000	-0.680000	-0.740000	-21.500000	4.210000	23.740000	1.990000	2.920000	-67.080000	-7.130000	0.750000	1.040000	0.380000	-8.940000	1.550000	2.050000
3.170000	4.630000	1.330000	1.360000	23.910000	-0.750000	-1.290000	-20.620000	4.160000	25.800000	1.720000	2.970000	-67.280000	-6.150000	0.760000	1.040000	0.380000	-8.970000	1.270000	2.200000
3.180000	4.530000	1.230000	1.490000	22.760000	-0.820000	-1.860000	-19.760000	4.090000	27.730000	1.470000	3.030000	-67.090000	-5.280000	0.770000	1.040000	0.380000	-8.960000	0.990000	2.350000
3.190000	4.400000	1.160000	1.590000	21.580000	-0.860000	-2.420000	-18.900000	4.040000	29.490000	1.250000	3.070000	-66.490000	-4.540000	0.790000	1.040000	0.380000	-8.900000	0.700000	2.480000
3.200000	4.240000	1.130000	1.650000	20.380000	-0.850000	-2.960000	-18.030000	4.050000	31.070000	1.100000	3.080000	-65.500000	-3.910000	0.800000	1.050000	0.380000	-8.800000	0.380000	2.580000
3.210000	4.030000	1.150000	1.640000	19.110000	-0.760000	-3.480000	-17.150000	4.150000	32.440000	1.040000	3.030000	-64.130000	-3.340000	0.810000	1.050000	0.380000	-8.650000	0.010000	2.630000
3.220000	3.770000	1.230000	1.550000	17.770000	-0.560000	-3.970000	-16.240000	4.350000	33.590000	1.090000	2.940000	-62.460000	-2.740000	0.820000	1.050000	0.380000	-8.450000	-0.420000	2.600000
3.230000	3.440000	1.390000	1.380000	16.330000	-0.250000	-4.430000	-15.290000	4.610000	34.540000	1.250000	2.800000	-60.530000	-2.050000	0.830000	1.050000	0.380000	-8.180000	-0.910000	2.500000
3.240000	3.040000	1.620000	1.130000	14.810000	0.160000	-4.860000	-14.290000	4.910000	35.300000	1.530000	2.660000	-58.390000	-1.270000	0.840000	1.050000	0.380000	-7.840000	-1.460000	2.310000
3.250000	2.590000	1.910000	0.830000	13.200000	0.650000	-5.230000	-13.230000	5.200000	35.910000	1.900000	2.550000	-56.060000	-0.430000	0.860000	1.050000	0.380000	-7.470000	-2.050000	2.060000
3.260000	2.110000	2.220000	0.500000	11.540000	1.160000	-5.540000	-12.140000	5.470000	36.380000	2.320000	2.460000	-53.500000	0.360000	0.870000	1.050000	0.380000	-7.080000	-2.650000	1.760000
3.270000	1.620000	2.540000	0.170000	9.840000	1.660000	-5.800000	-11.020000	5.700000	36.700000	2.740000	2.390000	-50.670000	1.010000	0.880000	1.050000	0.370000	-6.700000	-3.250000	1.430000
3.280000	1.150000	2.870000	-0.130000	8.130000	2.110000	-6.010000	-9.910000	5.910000	36.880000	3.120000	2.290000	-47.520000	1.450000	0.900000	1.050000	0.370000	-6.330000	-3.820000	1.110000
3.290000	0.720000	3.210000	-0.420000	6.410000	2.510000	-6.190000	-8.830000	6.130000	36.890000	3.450000	2.110000	-44.040000	1.670000	0.910000	1.050000	0.370000	-5.970000	-4.340000	0.770000
3.300000	0.340000	3.570000	-0.710000	4.680000	2.890000	-6.330000	-7.810000	6.390000	36.750000	3.740000	1.810000	-40.260000	1.710000	0.920000	1.050000	0.370000	-5.620000	-4.810000	0.420000
3.310000	0.010000	3.940000	-1.030000	2.940000	3.270000	-6.430000	-6.860000	6.710000	36.470000	4.020000	1.370000	-36.240000	1.600000	0.940000	1.050000	0.370000	-5.280000	-5.240000	0.020000
3.320000	-0.270000	4.330000	-1.410000	1.200000	3.690000	-6.490000	-5.960000	7.080000	36.090000	4.330000	0.800000	-32.090000	1.430000	0.950000	1.040000	0.370000	-4.960000	-5.630000	-0.440000
3.330000	-0.510000	4.710000	-1.840000	-0.520000	4.170000	-6.510000	-5.120000	7.500000	35.660000	4.700000	0.110000	-27.870000	1.230000	0.960000	1.040000	0.370000	-4.670000	-6.010000	-0.950000
3.340000	-0.730000	5.080000	-2.330000	-2.210000	4.680000	-6.470000	-4.320000	7.920000	35.230000	5.140000	-0.660000	-23.680000	1.050000	0.980000	1.040000	0.370000	-4.420000	-6.370000	-1.500000
3.350000	-0.940000	5.420000	-2.850000	-3.870000	5.210000	-6.390000	-3.540000	8.330000	34.850000	5.650000	-1.480000	-19.630000	0.910000	0.990000	1.030000	0.370000	-4.210000	-6.730000	-2.080000
3.360000	-1.140000	5.710000	-3.370000	-5.480000	5.730000	-6.270000	-2.790000	8.710000	34.540000	6.180000	-2.280000	-15.800000	0.840000	1.010000	1.030000	0.370000	-4.050000	-7.060000	-2.650000
3.370000	-1.350000	5.970000	-3.860000	-7.020000	6.190000	-6.100000	-2.090000	9.060000	34.340000	6.720000	-3.000000	-12.330000	0.870000	1.020000	1.020000	0.370000	-3.940000	-7.370000	-3.180000
3.380000	-1.540000	6.180000	-4.310000	-8.490000	6.560000	-5.900000	-1.470000	9.390000	34.250000	7.210000	-3.550000	-9.330000	1.040000	1.030000	1.020000	0.370000	-3.860000	-7.650000	-3.650000
3.390000	-1.710000	6.360000	-4.680000	-9.860000	6.830000	-5.670000	-0.970000	9.730000	34.270000	7.630000	-3.910000	-6.910000	1.330000	1.050000	1.020000	0.370000	-3.800000	-7.900000	-4.040000
3.400000	-1.860000	6.520000	-4.980000	-11.130000	6.990000	-5.420000	-0.630000	10.090000	34.390000	7.950000	-4.050000	-5.140000	1.740000	1.060000	1.010000	0.360000	-3.750000	-8.110000	-4.330000
3.410000	-1.990000	6.660000	-5.180000	-12.290000	7.030000	-5.170000	-0.470000	10.490000	34.610000	8.160000	-4.000000	-4.070000	2.200000	1.080000	1.010000	0.360000	-3.710000	-8.300000	-4.520000
3.420000	-2.100000	6.770000	-5.290000	-13.330000	6.950000	-4.940000	-0.500000	10.910000	34.900000	8.270000	-3.830000	-3.690000	2.630000	1.090000	1.010000	0.360000	-3.670000	-8.480000	-4.610000
3.430000	-2.190000	6.860000	-5.290000	-14.230000	6.750000	-4.740000	-0.720000	11.350000	35.250000	8.260000	-3.610000	-3.930000	2.970000	1.110000	1.000000	0.360000	-3.640000	-8.660000	-4.580000
3.440000	-2.280000	6.890000	-5.190000	-15.000000	6.440000	-4.580000	-1.120000	11.770000	35.650000	8.110000	-3.390000	-4.700000	3.110000	1.120000	1.000000	0.360000	-3.630000	-8.830000	-4.440000
3.450000	-2.330000	6.870000	-4.980000	-15.610000	6.020000	-4.460000	-1.680000	12.140000	36.080000	7.820000	-3.210000	-5.880000	2.980000	1.140000	1.000000	0.360000	-3.660000	-8.970000	-4.180000
3.460000	-2.350000	6.770000	-4.670000	-16.070000	5.510000	-4.410000	-2.380000	12.450000	36.530000	7.370000	-3.060000	-7.310000	2.550000	1.150000	1.000000	0.360000	-3.750000	-9.070000	-3.810000
3.470000	-2.320000	6.600000	-4.270000	-16.410000	4.930000	-4.410000	-3.210000	12.650000	36.980000	6.790000	-2.930000	-8.870000	1.800000	1.170000	0.990000	0.360000	-3.880000	-9.110000	-3.340000
3.480000	-2.260000	6.390000	-3.800000	-16.640000	4.300000	-4.470000	-4.160000	12.700000	37.390000	6.100000	-2.770000	-10.470000	0.780000	1.180000	0.990000	0.350000	-4.060000	-9.100000	-2.800000
3.490000	-2.170000	6.160000	-3.290000	-16.790000	3.630000	-4.560000	-5.220000	12.550000	37.750000	5.370000	-2.590000	-12.020000	-0.450000	1.200000	0.990000	0.350000	-4.260000	-9.040000	-2.220000
3.500000	-2.080000	5.940000	-2.770000	-16.860000	2.960000	-4.670000	-6.400000	12.120000	38.030000	4.640000	-2.390000	-13.520000	-1.760000	1.210000	0.990000	0.350000	-4.480000	-8.960000	-1.630000
3.510000	-1.990000	5.730000	-2.260000	-16.850000	2.290000	-4.800000	-7.730000	11.330000	38.240000	3.960000	-2.180000	-14.960000	-3.040000	1.230000	0.990000	0.350000	-4.700000	-8.870000	-1.060000
3.520000	-1.900000	5.550000	-1.800000	-16.730000	1.640000	-4.930000	-9.230000	10.130000	38.390000	3.350000	-2.000000	-16.380000	-4.160000	1.250000	0.990000	0.350000	-4.920000	-8.780000	-0.530000
3.530000	-1.800000	5.370000	-1.390000	-16.470000	1.020000	-5.050000	-10.930000	8.520000	38.490000	2.820000	-1.860000	-17.790000	-5.010000	1.260000	0.990000	0.350000	-5.150000	-8.670000	-0.050000
3.540000	-1.670000	5.220000	-1.060000	-16.070000	0.430000	-5.140000	-12.850000	6.530000	38.530000	2.370000	-1.770000	-19.200000	-5.500000	1.280000	0.990000	0.340000	-5.380000	-8.560000	0.360000
3.550000	-1.500000	5.100000	-0.830000	-15.510000	-0.140000	-5.190000	-15.020000	4.230000	38.480000	1.980000	-1.740000	-20.590000	-5.610000	1.290000	0.990000	0.340000	-5.610000	-8.430000	0.670000
3.560000	-1.300000	5.000000	-0.710000	-14.800000	-0.670000	-5.190000	-17.460000	1.720000	38.340000	1.660000	-1.770000	-21.950000	-5.340000	1.310000	0.990000	0.340000	-5.830000	-8.270000	0.880000
3.570000	-1.080000	4.930000	-0.710000	-13.910000	-1.160000	-5.110000	-20.150000	-0.910000	38.100000	1.400000	-1.830000	-23.220000	-4.740000	1.330000	0.990000	0.340000	-6.040000	-8.080000	0.980000
3.580000	-0.860000	4.860000	-0.790000	-12.820000	-1.620000	-4.960000	-23.100000	-3.570000	37.750000	1.170000	-1.910000	-24.370000	-3.900000	1.340000	1.000000	0.330000	-6.260000	-7.870000	0.970000
3.590000	-0.660000	4.790000	-0.930000	-11.510000	-2.040000	-4.750000	-26.280000	-6.160000	37.300000	0.970000	-2.010000	-25.350000	-2.910000	1.360000	1.000000	0.330000	-6.470000	-7.640000	0.900000
3.600000	-0.500000	4.720000	-1.070000	-9.960000	-2.460000	-4.500000	-29.680000	-8.610000	36.740000	0.750000	-2.110000	-26.100000	-1.870000	1.370000	1.000000	0.330000	-6.670000	-7.400000	0.810000
3.610000	-0.400000	4.620000	-1.160000	-8.150000	-2.880000	-4.250000	-33.260000	-10.810000	36.080000	0.500000	-2.190000	-26.600000	-0.900000	1.380000	1.000000	0.330000	-6.870000	-7.170000	0.740000
3.620000	-0.340000	4.500000	-1.160000	-6.070000	-3.320000	-4.030000	-36.980000	-12.700000	35.350000	0.190000	-2.200000	-26.830000	-0.050000	1.400000	1.010000	0.320000	-7.070000	-6.960000	0.750000
3.630000	-0.340000	4.340000	-1.060000	-3.740000	-3.780000	-3.870000	-40.770000	-14.200000	34.550000	-0.180000	-2.130000	-26.810000	0.640000	1.410000	1.010000	0.320000	-7.300000	-6.760000	0.830000
3.640000	-0.360000	4.140000	-0.870000	-1.230000	-4.240000	-3.760000	-44.550000	-15.250000	33.700000	-0.600000	-1.970000	-26.540000	1.150000	1.420000	1.020000	0.320000	-7.550000	-6.570000	0.980000
3.650000	-0.390000	3.950000	-0.630000	1.390000	-4.670000	-3.680000	-48.240000	-15.810000	32.780000	-1.040000	-1.750000	-26.070000	1.520000	1.430000	1.020000	0.320000	-7.790000	-6.400000	1.150000
3.660000	-0.430000	3.780000	-0.380000	4.020000	-5.050000	-3.610000	-51.730000	-15.860000	31.760000	-1.470000	-1.490000	-25.420000	1.760000	1.450000	1.020000	0.310000	-8.000000	-6.220000	1.290000
3.670000	-0.470000	3.670000	-0.170000	6.570000	-5.330000	-3.540000	-54.960000	-15.460000	30.640000	-1.840000	-1.190000	-24.650000	1.940000	1.460000	1.030000	0.310000	-8.150000	-6.030000	1.380000
3.680000	-0.530000	3.620000	-0.030000	9.000000	-5.480000	-3.490000	-57.850000	-14.690000	29.450000	-2.100000	-0.880000	-23.820000	2.070000	1.470000	1.030000	0.310000	-8.230000	-5.840000	1.370000
3.690000	-0.600000	3.620000	-0.000000	11.290000	-5.480000	-3.480000	-60.350000	-13.660000	28.220000	-2.230000	-0.550000	-23.000000	2.200000	1.480000	1.030000	0.310000	-8.230000	-5.640000	1.230000
3.700000	-0.690000	3.650000	-0.090000	13.440000	-5.320000	-3.520000	-62.450000	-12.510000	27.010000	-2.210000	-0.190000	-22.250000	2.330000	1.490000	1.040000	0.310000	-8.180000	-5.440000	0.990000
3.710000	-0.760000	3.690000	-0.280000	15.500000	-5.000000	-3.590000	-64.160000	-11.340000	25.870000	-2.040000	0.190000	-21.620000	2.460000	1.500000	1.040000	0.310000	-8.110000	-5.260000	0.680000
3.720000	-0.820000	3.700000	-0.560000	17.500000	-4.580000	-3.640000	-65.500000	-10.220000	24.840000	-1.770000	0.590000	-21.100000	2.590000	1.510000	1.050000	0.310000	-8.070000	-5.130000	0.340000
3.730000	-0.830000	3.690000	-0.870000	19.460000	-4.100000	-3.640000	-66.500000	-9.190000	23.890000	-1.450000	1.020000	-20.690000	2.710000	1.520000	1.050000	0.300000	-8.060000	-5.030000	0.010000
3.740000	-0.790000	3.660000	-1.170000	21.380000	-3.640000	-3.540000	-67.190000	-8.270000	23.000000	-1.150000	1.490000	-20.310000	2.810000	1.530000	1.050000	0.300000	-8.030000	-4.830000	-0.280000
3.750000	-0.690000	3.620000	-1.420000	23.250000	-3.240000	-3.330000	-67.570000	-7.450000	22.100000	-0.900000	2.000000	-19.900000	2.890000	1.540000	1.050000	0.300000	-0.000000	-0.000000	0.000000
3.760000	-0.560000	3.590000	-1.600000	25.060000	-2.940000	-3.040000	-67.650000	-6.740000	21.160000	-0.770000	2.540000	-19.420000	2.930000	1.550000	1.060000	0.300000	-0.000000	-0.000000	0.000000
3.770000	-0.410000	3.580000	-1.690000	26.790000	-2.760000	-2.740000	-67.420000	-6.120000	20.130000	-0.750000	3.110000	-18.800000	2.940000	1.560000	1.060000	0.300000	-0.000000	-0.000000	0.000000
3.780000	-0.290000	3.580000	-1.680000	28.440000	-2.690000	-2.490000	-66.900000	-5.590000	19.030000	-0.850000	3.680000	-18.060000	2.920000	1.570000	1.060000	0.300000	-0.000000	-0.000000	0.000000
3.790000	-0.200000	3.590000	-1.600000	29.990000	-2.710000	-2.370000	-66.080000	-5.140000	17.840000	-1.050000	4.220000	-17.180000	2.890000	1.590000	1.060000	0.300000	-0.000000	-0.000000	0.000000
3.800000	-0.150000	3.620000	-1.470000	31.420000	-2.790000	-2.400000	-64.970000	-4.760000	16.600000	-1.300000	4.700000	-16.220000	2.890000	1.600000	1.060000	0.300000	-0.000000	-0.000000	0.000000
3.810000	-0.130000	3.680000	-1.330000	32.700000	-2.900000	-2.570000	-63.550000	-4.410000	15.320000	-1.570000	5.100000	-15.210000	2.940000	1.610000	1.070000	0.300000	-0.000000	-0.000000	0.000000
3.820000	-0.120000	3.780000	-1.190000	33.780000	-3.020000	-2.840000	-61.830000	-4.070000	14.000000	-1.820000	5.400000	-14.200000	3.050000	1.620000	1.070000	0.300000	-0.000000	-0.000000	0.000000
3.830000	-0.090000	3.920000	-1.090000	34.640000	-3.150000	-3.130000	-59.770000	-3.730000	12.650000	-2.030000	5.600000	-13.230000	3.240000	1.630000	1.070000	0.300000	-0.000000	-0.000000	0.000000
3.840000	-0.000000	4.120000	-1.010000	35.240000	-3.300000	-3.370000	-57.370000	-3.390000	11.280000	-2.210000	5.690000	-12.310000	3.500000	1.640000	1.070000	0.300000	-0.000000	-0.000000	0.000000
3.850000	0.160000	4.370000	-0.930000	35.570000	-3.500000	-3.530000	-54.610000	-3.080000	9.880000	-2.390000	5.680000	-11.450000	3.810000	1.650000	1.070000	0.300000	-0.000000	-0.000000	0.000000
3.860000	0.410000	4.660000	-0.830000	35.640000	-3.770000	-3.580000	-51.470000	-2.800000	8.440000	-2.600000	5.570000	-10.620000	4.170000	1.660000	1.070000	0.300000	-0.000000	-0.000000	0.000000
3.870000	0.750000	4.980000	-0.670000	35.460000	-4.120000	-3.550000	-47.950000	-2.560000	6.950000	-2.860000	5.390000	-9.790000	4.560000	1.670000	1.070000	0.300000	-0.000000	-0.000000	0.000000
3.880000	1.150000	5.350000	-0.430000	35.040000	-4.570000	-3.440000	-44.080000	-2.350000	5.400000	-3.220000	5.180000	-8.950000	4.950000	1.680000	1.060000	0.300000	-0.000000	-0.000000	0.000000
3.890000	1.590000	5.750000	-0.070000	34.440000	-5.120000	-3.290000	-39.900000	-2.120000	3.780000	-3.680000	4.940000	-8.070000	5.340000	1.700000	1.060000	0.300000	-0.000000	-0.000000	0.000000
3.900000	2.060000	6.160000	0.400000	33.690000	-5.750000	-3.100000	-35.480000	-1.880000	2.120000	-4.240000	4.710000	-7.170000	5.720000	1.710000	1.060000	0.300000	-0.000000	-0.000000	0.000000
3.910000	2.520000	6.590000	0.970000	32.880000	-6.450000	-2.900000	-30.910000	-1.610000	0.440000	-4.910000	4.460000	-6.270000	6.080000	1.720000	1.060000	0.300000	-0.000000	-0.000000	0.000000
3.920000	2.960000	7.010000	1.620000	32.050000	-7.180000	-2.680000	-26.280000	-1.360000	-1.210000	-5.640000	4.180000	-5.400000	6.440000	1.730000	1.050000	0.300000	-0.000000	-0.000000	0.000000
3.930000	3.350000	7.400000	2.310000	31.270000	-7.920000	-2.460000	-21.690000	-1.170000	-2.820000	-6.410000	3.860000	-4.580000	6.790000	1.740000	1.050000	0.300000	-0.000000	-0.000000	0.000000
3.940000	3.710000	7.750000	3.010000	30.570000	-8.630000	-2.220000	-17.210000	-1.090000	-4.350000	-7.180000	3.470000	-3.850000	7.140000	1.760000	1.050000	0.310000	-0.000000	-0.000000	0.000000
3.950000	4.030000	8.060000	3.690000	29.990000	-9.290000	-1.950000	-12.970000	-1.090000	-5.790000	-7.910000	3.020000	-3.240000	7.510000	1.770000	1.040000	0.310000	-0.000000	-0.000000	0.000000
3.960000	4.320000	8.310000	4.330000	29.550000	-9.880000	-1.660000	-9.090000	-1.180000	-7.130000	-8.570000	2.550000	-2.780000	7.920000	1.780000	1.040000	0.310000	-0.000000	-0.000000	0.000000
3.970000	4.590000	8.500000	4.910000	29.280000	-10.400000	-1.380000	-5.740000	-1.290000	-8.330000	-9.130000	2.090000	-2.490000	8.400000	1.800000	1.040000	0.310000	-0.000000	-0.000000	0.000000
3.980000	4.820000	8.640000	5.390000	29.210000	-10.820000	-1.130000	-3.070000	-1.380000	-9.380000	-9.550000	1.710000	-2.410000	8.980000	1.810000	1.030000	0.310000	-0.000000	-0.000000	0.000000
3.990000	5.020000	8.730000	5.770000	29.340000	-11.120000	-0.920000	-1.200000	-1.420000	-10.280000	-9.830000	1.450000	-2.550000	9.660000	1.820000	1.030000	0.310000	-0.000000	-0.000000	0.000000
4.000000	5.150000	8.780000	6.020000	29.650000	-11.280000	-0.770000	-0.180000	-1.380000	-11.040000	-9.940000	1.340000	-2.910000	10.440000	1.840000	1.030000	0.310000	-0.000000	-0.000000	0.000000
4.010000	5.230000	8.800000	6.140000	30.110000	-11.270000	-0.700000	0.010000	-1.290000	-11.660000	-9.890000	1.360000	-3.490000	11.310000	1.850000	1.020000	0.310000	-0.000000	-0.000000	0.000000
4.020000	5.270000	8.790000	6.110000	30.660000	-11.120000	-0.710000	-0.500000	-1.200000	-12.170000	-9.680000	1.490000	-4.270000	12.240000	1.860000	1.020000	0.310000	-0.000000	-0.000000	0.000000
4.030000	5.270000	8.770000	5.970000	31.250000	-10.820000	-0.800000	-1.570000	-1.170000	-12.590000	-9.340000	1.650000	-5.230000	13.190000	1.880000	1.020000	0.310000	-0.000000	-0.000000	0.000000
4.040000	5.260000	8.730000	5.730000	31.800000	-10.400000	-0.970000	-2.980000	-1.260000	-12.940000	-8.900000	1.800000	-6.310000	14.100000	1.890000	1.010000	0.320000	-0.000000	-0.000000	0.000000
4.050000	5.230000	8.670000	5.400000	32.290000	-9.870000	-1.180000	-4.550000	-1.510000	-13.240000	-8.370000	1.920000	-7.450000	14.930000	1.900000	1.010000	0.320000	-0.000000	-0.000000	0.000000
4.060000	5.180000	8.600000	5.010000	32.670000	-9.250000	-1.380000	-6.140000	-1.940000	-13.520000	-7.760000	2.010000	-8.620000	15.610000	1.920000	1.010000	0.320000	-0.000000	-0.000000	0.000000
4.070000	5.100000	8.520000	4.570000	32.950000	-8.530000	-1.540000	-7.660000	-2.530000	-13.760000	-7.090000	2.120000	-9.780000	16.080000	1.930000	1.010000	0.320000	-0.000000	-0.000000	0.000000
4.080000	4.970000	8.430000	4.100000	33.130000	-7.750000	-1.600000	-9.070000	-3.280000	-13.970000	-6.370000	2.270000	-10.910000	16.280000	1.950000	1.010000	0.320000	-0.000000	-0.000000	0.000000
4.090000	4.790000	8.340000	3.610000	33.240000	-6.910000	-1.520000	-10.390000	-4.130000	-14.140000	-5.590000	2.500000	-12.020000	16.150000	1.960000	1.010000	0.320000	-0.000000	-0.000000	0.000000
4.100000	4.560000	8.240000	3.110000	33.300000	-6.040000	-1.300000	-11.660000	-5.030000	-14.250000	-4.790000	2.790000	-13.130000	15.610000	1.970000	1.010000	0.320000	-0.000000	-0.000000	0.000000
4.110000	4.290000	8.140000	2.640000	33.350000	-5.180000	-0.960000	-12.920000	-5.900000	-14.290000	-3.980000	3.120000	-14.230000	14.620000	1.990000	1.010000	0.330000	-0.000000	-0.000000	0.000000
4.120000	4.000000	8.060000	2.200000	33.380000	-4.340000	-0.530000	-14.190000	-6.690000	-14.260000	-3.190000	3.450000	-15.390000	13.170000	2.000000	1.010000	0.330000	-0.000000	-0.000000	0.000000
4.130000	3.690000	7.980000	1.810000	33.410000	-3.560000	-0.070000	-15.450000	-7.380000	-14.110000	-2.440000	3.770000	-16.640000	11.320000	2.020000	1.010000	0.330000	-0.000000	-0.000000	0.000000
4.140000	3.390000	7.900000	1.470000	33.400000	-2.840000	0.370000	-16.670000	-7.970000	-13.810000	-1.720000	4.030000	-18.060000	9.160000	2.030000	1.010000	0.330000	-0.000000	-0.000000	0.000000
4.150000	3.120000	7.820000	1.190000	33.360000	-2.190000	0.750000	-17.770000	-8.470000	-13.290000	-1.020000	4.240000	-19.730000	6.840000	2.050000	1.010000	0.340000	-0.000000	-0.000000	0.000000
4.160000	2.870000	7.690000	0.980000	33.260000	-1.630000	1.030000	-18.720000	-8.860000	-12.490000	-0.360000	4.410000	-21.720000	4.480000	2.060000	1.010000	0.340000	-0.000000	-0.000000	0.000000
4.170000	2.670000	7.500000	0.850000	33.130000	-1.160000	1.200000	-19.460000	-9.100000	-11.360000	0.270000	4.550000	-24.080000	2.180000	2.080000	1.010000	0.340000	-0.000000	-0.000000	0.000000
4.180000	2.500000	7.240000	0.810000	32.940000	-0.800000	1.270000	-20.000000	-9.150000	-9.900000	0.840000	4.680000	-26.820000	-0.030000	2.090000	1.010000	0.340000	-0.000000	-0.000000	0.000000
4.190000	2.380000	6.950000	0.880000	32.660000	-0.560000	1.250000	-20.330000	-8.970000	-8.150000	1.360000	4.780000	-29.930000	-2.140000	2.110000	1.010000	0.350000	-0.000000	-0.000000	0.000000
4.200000	2.310000	6.680000	1.030000	32.230000	-0.440000	1.180000	-20.440000	-8.570000	-6.210000	1.810000	4.810000	-33.340000	-4.160000	2.120000	1.020000	0.350000	-0.000000	-0.000000	0.000000
4.210000	2.320000	6.510000	1.270000	31.580000	-0.420000	1.100000	-20.350000	-7.990000	-4.180000	2.200000	4.670000	-36.970000	-6.070000	2.140000	1.020000	0.350000	-0.000000	-0.000000	0.000000
4.220000	2.410000	6.500000	1.550000	30.670000	-0.490000	1.040000	-20.070000	-7.290000	-2.170000	2.520000	4.270000	-40.680000	-7.790000	2.150000	1.020000	0.350000	-0.000000	-0.000000	0.000000
4.230000	2.590000	6.670000	1.830000	29.510000	-0.630000	1.010000	-19.640000	-6.550000	-0.250000	2.760000	3.540000	-44.290000	-9.230000	2.160000	1.020000	0.360000	-0.000000	-0.000000	0.000000
4.240000	2.830000	6.950000	2.100000	28.240000	-0.790000	1.000000	-19.150000	-5.840000	1.530000	2.910000	2.520000	-47.610000	-10.290000	2.180000	1.030000	0.360000	-0.000000	-0.000000	0.000000
4.250000	3.100000	7.250000	2.340000	27.050000	-0.970000	1.020000	-18.720000	-5.220000	3.140000	2.970000	1.380000	-50.400000	-10.940000	2.190000	1.030000	0.360000	-0.000000	-0.000000	0.000000
4.260000	3.320000	7.360000	2.530000	26.290000	-1.120000	1.090000	-18.520000	-4.790000	4.510000	2.930000	0.500000	-52.430000	-11.250000	2.190000	1.030000	0.360000	-0.000000	-0.000000	0.000000
4.270000	3.460000	7.150000	2.750000	26.020000	-1.270000	1.270000	-18.610000	-4.490000	5.980000	2.800000	-0.010000	-54.090000	-11.380000	2.200000	1.030000	0.360000	-0.000000	-0.000000	0.000000
4.280000	3.660000	6.560000	3.130000	25.890000	-1.540000	1.660000	-18.970000	-4.060000	8.660000	2.480000	-0.620000	-56.810000	-11.430000	2.210000	1.040000	0.370000	-0.000000	-0.000000	0.000000
4.290000	-0.000000	0.000000	-0.000000	-0.000000	0.000000	-0.000000	-0.000000	-0.000000	-0.000000	0.000000	-0.000000	-0.000000	-0.000000	0.970000	0.000000	0.290000	-0.000000	-0.000000	0.000000
4.300000	-0.000000	0.000000	-0.000000	-0.000000	0.000000	-0.000000	-0.000000	-0.000000	-0.000000	0.000000	-0.000000	-0.000000	-0.000000	0.970000	0.000000	0.290000	-0.000000	-0.000000	0.000000
4.310000	-0.000000	0.000000	-0.000000	-0.000000	0.000000	-0.000000	-0.000000	-0.000000	-0.000000	0.000000	-0.000000	-0.000000	-0.000000	0.970000	0.000000	0.290000	-0.000000	-0.000000	0.000000
4.320000	-0.000000	0.000000	-0.000000	-0.000000	0.000000	-0.000000	-0.000000	-0.000000	-0.000000	0.000000	-0.000000	-0.000000	-0.000000	0.970000	0.000000	0.290000	-0.000000	-0.000000	0.000000
4.330000	-0.000000	0.000000	-0.000000	-0.000000	0.000000	-0.000000	-0.000000	-0.000000	-0.000000	0.000000	-0.000000	-0.000000	-0.000000	0.970000	0.000000	0.290000	-0.000000	-0.000000	0.000000
4.340000	-0.000000	0.000000	-0.000000	-0.000000	0.000000	-0.000000	-0.000000	-0.000000	-0.000000	0.000000	-0.000000	-0.000000	-0.000000	0.970000	0.000000	0.290000	-0.000000	-0.000000	0.000000
4.350000	-0.000000	0.000000	-0.000000	-0.000000	0.000000	-0.000000	-0.000000	-0.000000	-0.000000	0.000000	-0.000000	-0.000000	-0.000000	0.970000	0.000000	0.290000	-0.000000	-0.000000	0.000000
4.360000	-0.000000	0.000000	-0.000000	-0.000000	0.000000	-0.000000	-0.000000	-0.000000	-0.000000	0.000000	-0.000000	-0.000000	-0.000000	0.970000	0.000000	0.290000	-0.000000	-0.000000	0.000000
4.370000	-0.000000	0.000000	-0.000000	-0.000000	0.000000	-0.000000	-0.000000	-0.000000	-0.000000	0.000000	-0.000000	-0.000000	-0.000000	0.970000	0.000000	0.290000	-0.000000	-0.000000	0.000000
4.380000	-0.000000	0.000000	-0.000000	-0.000000	0.000000	-0.000000	-0.000000	-0.000000	-0.000000	0.000000	-0.000000	-0.000000	-0.000000	0.970000	0.000000	0.290000	-0.000000	-0.000000	0.000000
4.390000	-0.000000	0.000000	-0.000000	-0.000000	0.000000	-0.000000	-0.000000	-0.000000	-0.000000	0.000000	-0.000000	-0.000000	-0.000000	0.970000	0.000000	0.290000	-0.000000	-0.000000	0.000000
4.400000	-0.000000	0.000000	-0.000000	-0.000000	0.000000	-0.000000	-0.000000	-0.000000	-0.000000	0.000000	-0.000000	-0.000000	-0.000000	0.970000	0.000000	0.290000	-0.000000	-0.000000	0.000000
4.410000	-0.000000	0.000000	-0.000000	-0.000000	0.000000	-0.000000	-0.000000	-0.000000	-0.000000	0.000000	-0.000000	-0.000000	-0.000000	0.970000	0.000000	0.290000	-0.000000	-0.000000	0.000000
4.420000	-0.000000	0.000000	-0.000000	-0.000000	0.000000	-0.000000	-0.000000	-0.000000	-0.000000	0.000000	-0.000000	-0.000000	-0.000000	0.970000	0.000000	0.290000	-0.000000	-0.000000	0.000000
4.430000	-0.000000	0.000000	-0.000000	-0.000000	0.000000	-0.000000	-0.000000	-0.000000	-0.000000	0.000000	-0.000000	-0.000000	-0.000000	0.970000	0.000000	0.290000	-0.000000	-0.000000	0.000000
4.440000	-0.000000	0.000000	-0.000000	-0.000000	0.000000	-0.000000	-0.000000	-0.000000	-0.000000	0.000000	-0.000000	-0.000000	-0.000000	0.970000	0.000000	0.290000	-0.000000	-0.000000	0.000000
4.450000	-0.000000	0.000000	-0.000000	-0.000000	0.000000	-0.000000	-0.000000	-0.000000	-0.000000	0.000000	-0.000000	-0.000000	-0.000000	0.970000	0.000000	0.290000	-0.000000	-0.000000	0.000000
4.460000	-0.000000	0.000000	-0.000000	-0.000000	0.000000	-0.000000	-0.000000	-0.000000	-0.000000	0.000000	-0.000000	-0.000000	-0.000000	0.970000	0.000000	0.290000	-0.000000	-0.000000	0.000000
4.470000	-0.000000	0.000000	-0.000000	-0.000000	0.000000	-0.000000	-0.000000	-0.000000	-0.000000	0.000000	-0.000000	-0.000000	-0.000000	0.970000	0.000000	0.290000	-0.000000	-0.000000	0.000000
4.480000	-0.000000	0.000000	-0.000000	-0.000000	0.000000	-0.000000	-0.000000	-0.000000	-0.000000	0.000000	-0.000000	-0.000000	-0.000000	0.970000	0.000000	0.290000	-0.000000	-0.000000	0.000000
4.490000	-0.000000	0.000000	-0.000000	-0.000000	0.000000	-0.000000	-0.000000	-0.000000	-0.000000	0.000000	-0.000000	-0.000000	-0.000000	0.970000	0.000000	0.290000	-0.000000	-0.000000	0.000000
4.500000	-0.000000	0.000000	-0.000000	-0.000000	0.000000	-0.000000	-0.000000	-0.000000	-0.000000	0.000000	-0.000000	-0.000000	-0.000000	0.970000	0.000000	0.290000	-0.000000	-0.000000	0.000000
4.510000	-0.000000	0.000000	-0.000000	-0.000000	0.000000	-0.000000	-0.000000	-0.000000	-0.000000	0.000000	-0.000000	-0.000000	-0.000000	0.970000	0.000000	0.290000	-0.000000	-0.000000	0.000000
4.520000	-0.000000	0.000000	-0.000000	-0.000000	0.000000	-0.000000	-0.000000	-0.000000	-0.000000	0.000000	-0.000000	-0.000000	-0.000000	0.970000	0.000000	0.290000	-0.000000	-0.000000	0.000000
4.530000	-0.000000	0.000000	-0.000000	-0.000000	0.000000	-0.000000	-0.000000	-0.000000	-0.000000	0.000000	-0.000000	-0.000000	-0.000000	0.970000	0.000000	0.290000	-0.000000	-0.000000	0.000000
4.540000	-0.000000	0.000000	-0.000000	-0.000000	0.000000	-0.000000	-0.000000	-0.000000	-0.000000	0.000000	-0.000000	-0.000000	-0.000000	0.970000	0.000000	0.290000	-0.000000	-0.000000	0.000000
4.550000	-0.000000	0.000000	-0.000000	-0.000000	0.000000	-0.000000	-0.000000	-0.000000	-0.000000	0.000000	-0.000000	-0.000000	-0.000000	0.970000	0.000000	0.290000	-0.000000	-0.000000	0.000000
4.560000	-0.000000	0.000000	-0.000000	-0.000000	0.000000	-0.000000	-0.000000	-0.000000	-0.000000	0.000000	-0.000000	-0.000000	-0.000000	0.970000	0.000000	0.290000	-0.000000	-0.000000	0.000000
4.570000	-0.000000	0.000000	-0.000000	-0.000000	0.000000	-0.000000	-0.000000	-0.000000	-0.000000	0.000000	-0.000000	-0.000000	-0.000000	0.970000	0.000000	0.290000	-0.000000	-0.000000	0.000000
4.580000	-0.000000	0.000000	-0.000000	-0.000000	0.000000	-0.000000	-0.000000	-0.000000	-0.000000	0.000000	-0.000000	-0.000000	-0.000000	0.970000	0.000000	0.290000	-0.000000	-0.000000	0.000000
4.590000	-0.000000	0.000000	-0.000000	-0.000000	0.000000	-0.000000	-0.000000	-0.000000	-0.000000	0.000000	-0.000000	-0.000000	-0.000000	0.970000	0.000000	0.290000	-0.000000	-0.000000	0.000000
4.600000	-0.000000	0.000000	-0.000000	-0.000000	0.000000	-0.000000	-0.000000	-0.000000	-0.000000	0.000000	-0.000000	-0.000000	-0.000000	0.970000	0.000000	0.290000	-0.000000	-0.000000	0.000000
4.610000	-0.000000	0.000000	-0.000000	-0.000000	0.000000	-0.000000	-0.000000	-0.000000	-0.000000	0.000000	-0.000000	-0.000000	-0.000000	0.970000	0.000000	0.290000	-0.000000	-0.000000	0.000000
4.620000	-0.000000	0.000000	-0.000000	-0.000000	0.000000	-0.000000	-0.000000	-0.000000	-0.000000	0.000000	-0.000000	-0.000000	-0.000000	0.970000	0.000000	0.290000	-0.000000	-0.000000	0.000000
4.630000	-0.000000	0.000000	-0.000000	-0.000000	0.000000	-0.000000	-0.000000	-0.000000	-0.000000	0.000000	-0.000000	-0.000000	-0.000000	0.970000	0.000000	0.290000	-0.000000	-0.000000	0.000000
4.640000	-0.000000	0.000000	-0.000000	-0.000000	0.000000	-0.000000	-0.000000	-0.000000	-0.000000	0.000000	-0.000000	-0.000000	-0.000000	0.970000	0.000000	0.290000	-0.000000	-0.000000	0.000000
4.650000	-0.000000	0.000000	-0.000000	-0.000000	0.000000	-0.000000	-0.000000	-0.000000	-0.000000	0.000000	-0.000000	-0.000000	-0.000000	0.970000	0.000000	0.290000	-0.000000	-0.000000	0.000000
4.660000	-0.000000	0.000000	-0.000000	-0.000000	0.000000	-0.000000	-0.000000	-0.000000	-0.000000	0.000000	-0.000000	-0.000000	-0.000000	0.970000	0.000000	0.290000	-0.000000	-0.000000	0.000000
4.670000	-0.000000	0.000000	-0.000000	-0.000000	0.000000	-0.000000	-0.000000	-0.000000	-0.000000	0.000000	-0.000000	-0.000000	-0.000000	0.970000	0.000000	0.290000	-0.000000	-0.000000	0.000000
4.680000	-0.000000	0.000000	-0.000000	-0.000000	0.000000	-0.000000	-0.000000	-0.000000	-0.000000	0.000000	-0.000000	-0.000000	-0.000000	0.970000	0.000000	0.290000	-0.000000	-0.000000	0.000000
4.690000	-0.000000	0.000000	-0.000000	-0.000000	0.000000	-0.000000	-0.000000	-0.000000	-0.000000	0.000000	-0.000000	-0.000000	-0.000000	0.970000	0.000000	0.290000	-0.000000	-0.000000	0.000000
4.700000	-0.000000	0.000000	-0.000000	-0.000000	0.000000	-0.000000	-0.000000	-0.000000	-0.000000	0.000000	-0.000000	-0.000000	-0.000000	0.970000	0.000000	0.290000	-0.000000	-0.000000	0.000000
4.710000	-0.000000	0.000000	-0.000000	-0.000000	0.000000	-0.000000	-0.000000	-0.000000	-0.000000	0.000000	-0.000000	-0.000000	-0.000000	0.970000	0.000000	0.290000	-0.000000	-0.000000	0.000000
4.720000	-0.000000	0.000000	-0.000000	-0.000000	0.000000	-0.000000	-0.000000	-0.000000	-0.000000	0.000000	-0.000000	-0.000000	-0.000000	0.970000	0.000000	0.290000	-0.000000	-0.000000	0.000000
4.730000	-0.000000	0.000000	-0.000000	-0.000000	0.000000	-0.000000	-0.000000	-0.000000	-0.000000	0.000000	-0.000000	-0.000000	-0.000000	0.970000	0.000000	0.290000	-0.000000	-0.000000	0.000000
4.740000	-0.000000	0.000000	-0.000000	-0.000000	0.000000	-0.000000	-0.000000	-0.000000	-0.000000	0.000000	-0.000000	-0.000000	-0.000000	0.970000	0.000000	0.290000	-0.000000	-0.000000	0.000000
4.750000	-0.000000	0.000000	-0.000000	-0.000000	0.000000	-0.000000	-0.000000	-0.000000	-0.000000	0.000000	-0.000000	-0.000000	-0.000000	0.970000	0.000000	0.290000	-0.000000	-0.000000	0.000000
4.760000	-0.000000	0.000000	-0.000000	-0.000000	0.000000	-0.000000	-0.000000	-0.000000	-0.000000	0.000000	-0.000000	-0.000000	-0.000000	0.970000	0.000000	0.290000	-0.000000	-0.000000	0.000000
4.770000	-0.000000	0.000000	-0.000000	-0.000000	0.000000	-0.000000	-0.000000	-0.000000	-0.000000	0.000000	-0.000000	-0.000000	-0.000000	0.970000	0.000000	0.290000	-0.000000	-0.000000	0.000000
4.780000	-0.000000	0.000000	-0.000000	-0.000000	0.000000	-0.000000	-0.000000	-0.000000	-0.000000	0.000000	-0.000000	-0.000000	-0.000000	0.970000	0.000000	0.290000	-0.000000	-0.000000	0.000000
4.790000	-0.000000	0.000000	-0.000000	-0.000000	0.000000	-0.000000	-0.000000	-0.000000	-0.000000	0.000000	-0.000000	-0.000000	-0.000000	0.970000	0.000000	0.290000	-0.000000	-0.000000	0.000000
4.800000	-0.000000	0.000000	-0.000000	-0.000000	0.000000	-0.000000	-0.000000	-0.000000	-0.000000	0.000000	-0.000000	-0.000000	-0.000000	0.970000	0.000000	0.290000	-0.000000	-0.000000	0.000000
4.810000	-0.000000	0.000000	-0.000000	-0.000000	0.000000	-0.000000	-0.000000	-0.000000	-0.000000	0.000000	-0.000000	-0.000000	-0.000000	0.970000	0.000000	0.290000	-0.000000	-0.000000	0.000000
4.820000	-0.000000	0.000000	-0.000000	-0.000000	0.000000	-0.000000	-0.000000	-0.000000	-0.000000	0.000000	-0.000000	-0.000000	-0.000000	0.970000	0.000000	0.290000	-0.000000	-0.000000	0.000000
4.830000	-0.000000	0.000000	-0.000000	-0.000000	0.000000	-0.000000	-0.000000	-0.000000	-0.000000	0.000000	-0.000000	-0.000000	-0.000000	0.970000	0.000000	0.290000	-0.000000	-0.000000	0.000000
4.840000	-0.000000	0.000000	-0.000000	-0.000000	0.000000	-0.000000	-0.000000	-0.000000	-0.000000	0.000000	-0.000000	-0.000000	-0.000000	0.970000	0.000000	0.290000	-0.000000	-0.000000	0.000000
4.850000	-0.000000	0.000000	-0.000000	-0.000000	0.000000	-0.000000	-0.000000	-0.000000	-0.000000	0.000000	-0.000000	-0.000000	-0.000000	0.970000	0.000000	0.290000	-0.000000	-0.000000	0.000000
4.860000	-0.000000	0.000000	-0.000000	-0.000000	0.000000	-0.000000	-0.000000	-0.000000	-0.000000	0.000000	-0.000000	-0.000000	-0.000000	0.970000	0.000000	0.290000	-0.000000	-0.000000	0.000000
4.870000	-0.000000	0.000000	-0.000000	-0.000000	0.000000	-0.000000	-0.000000	-0.000000	-0.000000	0.000000	-0.000000	-0.000000	-0.000000	0.970000	0.000000	0.290000	-0.000000	-0.000000	0.000000
4.880000	-0.000000	0.000000	-0.000000	-0.000000	0.000000	-0.000000	-0.000000	-0.000000	-0.000000	0.000000	-0.000000	-0.000000	-0.000000	0.970000	0.000000	0.290000	-0.000000	-0.000000	0.000000
4.890000	-0.000000	0.000000	-0.000000	-0.000000	0.000000	-0.000000	-0.000000	-0.000000	-0.000000	0.000000	-0.000000	-0.000000	-0.000000	0.970000	0.000000	0.290000	-0.000000	-0.000000	0.000000
4.900000	-0.000000	0.000000	-0.000000	-0.000000	0.000000	-0.000000	-0.000000	-0.000000	-0.000000	0.000000	-0.000000	-0.000000	-0.000000	0.970000	0.000000	0.290000	-0.000000	-0.000000	0.000000
4.910000	-0.000000	0.000000	-0.000000	-0.000000	0.000000	-0.000000	-0.000000	-0.000000	-0.000000	0.000000	-0.000000	-0.000000	-0.000000	0.970000	0.000000	0.290000	-0.000000	-0.000000	0.000000
4.920000	-0.000000	0.000000	-0.000000	-0.000000	0.000000	-0.000000	-0.000000	-0.000000	-0.000000	0.000000	-0.000000	-0.000000	-0.000000	0.970000	0.000000	0.290000	-0.000000	-0.000000	0.000000
4.930000	-0.000000	0.000000	-0.000000	-0.000000	0.000000	-0.000000	-0.000000	-0.000000	-0.000000	0.000000	-0.000000	-0.000000	-0.000000	0.970000	0.000000	0.290000	-0.000000	-0.000000	0.000000
4.940000	-0.000000	0.000000	-0.000000	-0.000000	0.000000	-0.000000	-0.000000	-0.000000	-0.000000	0.000000	-0.000000	-0.000000	-0.000000	0.970000	0.000000	0.290000	-0.000000	-0.000000	0.000000
4.950000	-0.000000	0.000000	-0.000000	-0.000000	0.000000	-0.000000	-0.000000	-0.000000	-0.000000	0.000000	-0.000000	-0.000000	-0.000000	0.970000	0.000000	0.290000	-0.000000	-0.000000	0.000000
