RWalking1.mot
version=1
datacolumns 20
datarows 456
range 0.00000 4.55000
inDegrees=yes
endheader
time	pelvis_tilt	pelvis_list	pelvis_rotation	hip_flexion_r	hip_adduction_r	hip_rotation_r	knee_angle_r	ankle_angle_r	hip_flexion_l	hip_adduction_l	hip_rotation_l	knee_angle_l	ankle_angle_l	pelvis_tx	pelvis_ty	pelvis_tz	lumbar_bending	lumbar_rotation	lumbar_extension
0.000000	-12.310000	2.970000	1.510000	6.150000	-2.840000	-4.880000	-5.220000	6.310000	8.400000	-4.330000	1.850000	-9.090000	6.310000	-1.390000	1.000000	-0.050000	-0.000000	-0.000000	0.000000
0.010000	-10.980000	2.950000	1.400000	4.640000	-2.710000	-5.490000	-5.100000	6.070000	6.640000	-4.250000	2.320000	-8.340000	5.880000	-1.390000	1.000000	-0.050000	-0.000000	-0.000000	0.000000
0.020000	-10.980000	3.130000	1.360000	4.450000	-2.890000	-5.850000	-5.050000	6.450000	6.080000	-4.390000	2.300000	-7.490000	5.760000	-1.390000	1.000000	-0.050000	-0.000000	-0.000000	0.000000
0.030000	-11.360000	3.220000	1.410000	4.780000	-3.020000	-5.810000	-5.090000	6.760000	6.310000	-4.480000	2.160000	-7.320000	5.880000	-1.380000	1.000000	-0.050000	-0.000000	-0.000000	0.000000
0.040000	-11.780000	3.310000	1.500000	5.140000	-3.170000	-5.740000	-5.160000	7.110000	6.570000	-4.580000	2.000000	-7.170000	6.040000	-1.380000	1.000000	-0.050000	-0.000000	-0.000000	0.000000
0.050000	-12.200000	3.380000	1.600000	5.490000	-3.300000	-5.640000	-5.270000	7.500000	6.820000	-4.670000	1.870000	-7.040000	6.210000	-1.380000	1.000000	-0.050000	-0.000000	-0.000000	0.000000
0.060000	-12.560000	3.430000	1.720000	5.810000	-3.410000	-5.520000	-5.430000	7.900000	7.020000	-4.740000	1.780000	-6.920000	6.410000	-1.380000	1.000000	-0.050000	-0.000000	-0.000000	0.000000
0.070000	-12.850000	3.440000	1.840000	6.090000	-3.480000	-5.370000	-5.650000	8.290000	7.160000	-4.770000	1.730000	-6.830000	6.600000	-1.380000	0.990000	-0.050000	-0.000000	-0.000000	0.000000
0.080000	-13.070000	3.420000	1.960000	6.330000	-3.500000	-5.210000	-5.970000	8.680000	7.230000	-4.780000	1.710000	-6.740000	6.790000	-1.380000	0.990000	-0.060000	-0.000000	-0.000000	0.000000
0.090000	-13.230000	3.370000	2.080000	6.560000	-3.500000	-5.050000	-6.370000	9.090000	7.250000	-4.770000	1.690000	-6.650000	6.960000	-1.380000	0.990000	-0.060000	-0.000000	-0.000000	0.000000
0.100000	-13.370000	3.300000	2.200000	6.820000	-3.480000	-4.900000	-6.870000	9.510000	7.230000	-4.750000	1.660000	-6.560000	7.120000	-1.370000	0.990000	-0.060000	-0.000000	-0.000000	0.000000
0.110000	-13.510000	3.230000	2.340000	7.120000	-3.460000	-4.790000	-7.470000	9.960000	7.220000	-4.720000	1.610000	-6.470000	7.260000	-1.370000	0.990000	-0.060000	-0.000000	-0.000000	0.000000
0.120000	-13.670000	3.160000	2.490000	7.480000	-3.450000	-4.720000	-8.150000	10.420000	7.230000	-4.710000	1.540000	-6.400000	7.390000	-1.370000	0.990000	-0.060000	-0.000000	-0.000000	0.000000
0.130000	-13.840000	3.110000	2.640000	7.910000	-3.460000	-4.700000	-8.930000	10.880000	7.280000	-4.700000	1.480000	-6.360000	7.510000	-1.370000	0.990000	-0.060000	-0.000000	-0.000000	0.000000
0.140000	-14.030000	3.070000	2.780000	8.420000	-3.490000	-4.710000	-9.810000	11.320000	7.350000	-4.710000	1.460000	-6.350000	7.640000	-1.370000	0.990000	-0.060000	-0.000000	-0.000000	0.000000
0.150000	-14.210000	3.050000	2.900000	8.980000	-3.530000	-4.750000	-10.810000	11.680000	7.430000	-4.720000	1.520000	-6.380000	7.760000	-1.360000	0.990000	-0.060000	-0.000000	-0.000000	0.000000
0.160000	-14.360000	3.050000	3.000000	9.600000	-3.590000	-4.790000	-11.940000	11.930000	7.490000	-4.730000	1.680000	-6.440000	7.880000	-1.360000	0.990000	-0.060000	-0.000000	-0.000000	0.000000
0.170000	-14.470000	3.040000	3.070000	10.260000	-3.650000	-4.820000	-13.200000	12.030000	7.530000	-4.710000	1.950000	-6.500000	7.970000	-1.360000	0.990000	-0.060000	-0.000000	-0.000000	0.000000
0.180000	-14.540000	3.000000	3.130000	10.970000	-3.690000	-4.830000	-14.610000	11.920000	7.520000	-4.660000	2.330000	-6.540000	8.030000	-1.360000	0.990000	-0.060000	-0.000000	-0.000000	0.000000
0.190000	-14.590000	2.920000	3.170000	11.730000	-3.680000	-4.840000	-16.140000	11.600000	7.490000	-4.550000	2.800000	-6.570000	8.030000	-1.360000	0.990000	-0.060000	-0.000000	-0.000000	0.000000
0.200000	-14.630000	2.760000	3.200000	12.560000	-3.620000	-4.840000	-17.790000	11.060000	7.440000	-4.370000	3.340000	-6.570000	7.970000	-1.350000	0.990000	-0.060000	-0.000000	-0.000000	0.000000
0.210000	-14.680000	2.520000	3.220000	13.470000	-3.490000	-4.850000	-19.550000	10.350000	7.390000	-4.110000	3.890000	-6.560000	7.860000	-1.350000	0.990000	-0.060000	-0.000000	-0.000000	0.000000
0.220000	-14.750000	2.210000	3.230000	14.480000	-3.300000	-4.860000	-21.410000	9.520000	7.370000	-3.780000	4.410000	-6.550000	7.720000	-1.350000	0.990000	-0.060000	-0.000000	-0.000000	0.000000
0.230000	-14.860000	1.820000	3.240000	15.590000	-3.050000	-4.890000	-23.350000	8.650000	7.380000	-3.380000	4.870000	-6.550000	7.570000	-1.350000	0.990000	-0.060000	-0.000000	-0.000000	0.000000
0.240000	-14.970000	1.390000	3.260000	16.760000	-2.770000	-4.930000	-25.370000	7.850000	7.410000	-2.940000	5.260000	-6.570000	7.470000	-1.350000	0.990000	-0.060000	-0.000000	-0.000000	0.000000
0.250000	-15.080000	0.920000	3.270000	17.980000	-2.460000	-4.990000	-27.460000	7.180000	7.440000	-2.460000	5.560000	-6.610000	7.460000	-1.350000	0.990000	-0.070000	-0.000000	-0.000000	0.000000
0.260000	-15.180000	0.430000	3.280000	19.220000	-2.130000	-5.070000	-29.590000	6.690000	7.450000	-1.960000	5.800000	-6.670000	7.560000	-1.340000	0.990000	-0.070000	-0.000000	-0.000000	0.000000
0.270000	-15.240000	-0.050000	3.270000	20.480000	-1.790000	-5.160000	-31.750000	6.350000	7.440000	-1.440000	6.020000	-6.730000	7.770000	-1.340000	0.990000	-0.070000	-0.000000	-0.000000	0.000000
0.280000	-15.290000	-0.520000	3.240000	21.740000	-1.460000	-5.290000	-33.870000	6.120000	7.390000	-0.940000	6.240000	-6.790000	8.050000	-1.340000	0.990000	-0.070000	-0.000000	-0.000000	0.000000
0.290000	-15.330000	-0.940000	3.190000	22.990000	-1.150000	-5.440000	-35.910000	5.970000	7.320000	-0.470000	6.480000	-6.840000	8.360000	-1.340000	0.990000	-0.070000	-0.000000	-0.000000	0.000000
0.300000	-15.360000	-1.300000	3.110000	24.240000	-0.880000	-5.650000	-37.780000	5.860000	7.230000	-0.070000	6.750000	-6.870000	8.660000	-1.340000	0.990000	-0.070000	-0.000000	-0.000000	0.000000
0.310000	-15.410000	-1.600000	3.040000	25.450000	-0.680000	-5.950000	-39.400000	5.700000	7.130000	0.260000	7.040000	-6.900000	8.950000	-1.330000	0.990000	-0.070000	-0.000000	-0.000000	0.000000
0.320000	-15.470000	-1.840000	2.980000	26.590000	-0.570000	-6.340000	-40.710000	5.440000	7.020000	0.500000	7.330000	-6.920000	9.200000	-1.330000	0.990000	-0.070000	-0.000000	-0.000000	0.000000
0.330000	-15.530000	-2.010000	2.940000	27.670000	-0.530000	-6.770000	-41.680000	5.080000	6.880000	0.660000	7.600000	-6.940000	9.410000	-1.330000	0.990000	-0.070000	-0.000000	-0.000000	0.000000
0.340000	-15.590000	-2.130000	2.910000	28.660000	-0.560000	-7.210000	-42.300000	4.640000	6.710000	0.760000	7.820000	-6.950000	9.600000	-1.320000	0.990000	-0.070000	-0.000000	-0.000000	0.000000
0.350000	-15.650000	-2.230000	2.890000	29.580000	-0.630000	-7.590000	-42.590000	4.130000	6.520000	0.840000	7.970000	-6.950000	9.750000	-1.320000	0.990000	-0.070000	-0.000000	-0.000000	0.000000
0.360000	-15.710000	-2.320000	2.870000	30.440000	-0.710000	-7.920000	-42.570000	3.590000	6.310000	0.900000	8.040000	-6.930000	9.870000	-1.320000	0.990000	-0.070000	-0.000000	-0.000000	0.000000
0.370000	-15.770000	-2.420000	2.840000	31.260000	-0.780000	-8.150000	-42.290000	3.090000	6.100000	0.970000	8.010000	-6.910000	9.940000	-1.320000	0.990000	-0.070000	-0.000000	-0.000000	0.000000
0.380000	-15.820000	-2.510000	2.780000	32.030000	-0.840000	-8.270000	-41.750000	2.690000	5.880000	1.050000	7.890000	-6.870000	9.960000	-1.310000	0.990000	-0.070000	-0.000000	-0.000000	0.000000
0.390000	-15.850000	-2.590000	2.710000	32.700000	-0.890000	-8.240000	-40.960000	2.470000	5.630000	1.130000	7.670000	-6.820000	9.920000	-1.310000	0.990000	-0.070000	-0.000000	-0.000000	0.000000
0.400000	-15.830000	-2.650000	2.630000	33.270000	-0.940000	-8.080000	-39.920000	2.480000	5.340000	1.180000	7.390000	-6.760000	9.820000	-1.300000	0.990000	-0.070000	-0.000000	-0.000000	0.000000
0.410000	-15.770000	-2.670000	2.560000	33.720000	-1.000000	-7.780000	-38.650000	2.710000	5.010000	1.200000	7.070000	-6.670000	9.690000	-1.300000	0.990000	-0.070000	-0.000000	-0.000000	0.000000
0.420000	-15.680000	-2.670000	2.500000	34.080000	-1.060000	-7.380000	-37.160000	3.150000	4.630000	1.200000	6.750000	-6.550000	9.550000	-1.300000	0.990000	-0.070000	-0.000000	-0.000000	0.000000
0.430000	-15.560000	-2.620000	2.470000	34.360000	-1.150000	-6.940000	-35.480000	3.680000	4.200000	1.170000	6.440000	-6.390000	9.400000	-1.290000	0.990000	-0.070000	-0.000000	-0.000000	0.000000
0.440000	-15.430000	-2.560000	2.480000	34.600000	-1.240000	-6.490000	-33.650000	4.210000	3.720000	1.120000	6.160000	-6.210000	9.270000	-1.290000	0.980000	-0.070000	-0.000000	-0.000000	0.000000
0.450000	-15.270000	-2.470000	2.510000	34.810000	-1.350000	-6.050000	-31.700000	4.640000	3.200000	1.070000	5.910000	-5.990000	9.170000	-1.280000	0.980000	-0.070000	-0.000000	-0.000000	0.000000
0.460000	-15.100000	-2.380000	2.560000	35.020000	-1.470000	-5.610000	-29.690000	4.910000	2.630000	1.030000	5.690000	-5.770000	9.130000	-1.280000	0.980000	-0.070000	-0.000000	-0.000000	0.000000
0.470000	-14.900000	-2.280000	2.640000	35.210000	-1.590000	-5.150000	-27.640000	5.000000	2.000000	1.000000	5.510000	-5.550000	9.180000	-1.270000	0.980000	-0.070000	-0.000000	-0.000000	0.000000
0.480000	-14.670000	-2.180000	2.750000	35.400000	-1.720000	-4.680000	-25.580000	4.920000	1.330000	0.980000	5.360000	-5.340000	9.310000	-1.270000	0.980000	-0.060000	-0.000000	-0.000000	0.000000
0.490000	-14.430000	-2.090000	2.870000	35.600000	-1.830000	-4.230000	-23.550000	4.730000	0.640000	0.980000	5.270000	-5.130000	9.510000	-1.270000	0.980000	-0.060000	-0.000000	-0.000000	0.000000
0.500000	-14.200000	-2.000000	2.990000	35.810000	-1.920000	-3.780000	-21.560000	4.480000	-0.060000	0.990000	5.210000	-4.910000	9.780000	-1.260000	0.980000	-0.060000	-0.000000	-0.000000	0.000000
0.510000	-13.970000	-1.920000	3.110000	36.040000	-1.990000	-3.340000	-19.640000	4.230000	-0.780000	1.030000	5.210000	-4.690000	10.090000	-1.250000	0.970000	-0.060000	-0.000000	-0.000000	0.000000
0.520000	-13.760000	-1.860000	3.220000	36.270000	-2.020000	-2.930000	-17.780000	4.010000	-1.500000	1.080000	5.260000	-4.450000	10.400000	-1.250000	0.970000	-0.060000	-0.000000	-0.000000	0.000000
0.530000	-13.570000	-1.800000	3.340000	36.500000	-2.030000	-2.570000	-15.990000	3.870000	-2.210000	1.160000	5.350000	-4.180000	10.670000	-1.240000	0.970000	-0.060000	-0.000000	-0.000000	0.000000
0.540000	-13.430000	-1.760000	3.480000	36.730000	-2.050000	-2.300000	-14.290000	3.790000	-2.880000	1.240000	5.490000	-3.900000	10.880000	-1.240000	0.970000	-0.060000	-0.000000	-0.000000	0.000000
0.550000	-13.340000	-1.710000	3.640000	36.970000	-2.110000	-2.110000	-12.670000	3.780000	-3.510000	1.330000	5.650000	-3.620000	11.040000	-1.230000	0.960000	-0.060000	-0.000000	-0.000000	0.000000
0.560000	-13.300000	-1.640000	3.840000	37.210000	-2.220000	-1.990000	-11.170000	3.820000	-4.100000	1.390000	5.810000	-3.340000	11.190000	-1.220000	0.960000	-0.060000	-0.000000	-0.000000	0.000000
0.570000	-13.310000	-1.560000	4.060000	37.440000	-2.380000	-1.880000	-9.810000	3.880000	-4.640000	1.440000	5.940000	-3.090000	11.340000	-1.220000	0.960000	-0.060000	-0.000000	-0.000000	0.000000
0.580000	-13.350000	-1.470000	4.280000	37.660000	-2.570000	-1.750000	-8.620000	3.940000	-5.160000	1.470000	6.030000	-2.860000	11.510000	-1.210000	0.960000	-0.060000	-0.000000	-0.000000	0.000000
0.590000	-13.410000	-1.380000	4.460000	37.890000	-2.750000	-1.560000	-7.640000	4.000000	-5.670000	1.500000	6.080000	-2.670000	11.690000	-1.200000	0.950000	-0.050000	-0.000000	-0.000000	0.000000
0.600000	-13.490000	-1.310000	4.580000	38.110000	-2.860000	-1.320000	-6.880000	4.020000	-6.150000	1.550000	6.110000	-2.530000	11.860000	-1.200000	0.950000	-0.050000	-0.000000	-0.000000	0.000000
0.610000	-13.580000	-1.260000	4.620000	38.340000	-2.880000	-1.050000	-6.390000	4.000000	-6.630000	1.620000	6.120000	-2.450000	12.010000	-1.190000	0.950000	-0.050000	-0.000000	-0.000000	0.000000
0.620000	-13.660000	-1.260000	4.590000	38.560000	-2.800000	-0.790000	-6.160000	3.890000	-7.090000	1.730000	6.120000	-2.440000	12.150000	-1.180000	0.950000	-0.050000	-0.000000	-0.000000	0.000000
0.630000	-13.740000	-1.300000	4.490000	38.780000	-2.600000	-0.580000	-6.200000	3.660000	-7.540000	1.880000	6.090000	-2.510000	12.280000	-1.170000	0.950000	-0.050000	-0.000000	-0.000000	0.000000
0.640000	-13.810000	-1.390000	4.360000	38.990000	-2.310000	-0.440000	-6.510000	3.290000	-7.960000	2.080000	6.030000	-2.670000	12.400000	-1.160000	0.950000	-0.050000	-0.000000	-0.000000	0.000000
0.650000	-13.880000	-1.510000	4.210000	39.180000	-1.930000	-0.360000	-7.050000	2.770000	-8.360000	2.330000	5.930000	-2.920000	12.530000	-1.160000	0.940000	-0.050000	-0.000000	-0.000000	0.000000
0.660000	-13.950000	-1.670000	4.070000	39.370000	-1.510000	-0.320000	-7.790000	2.120000	-8.720000	2.600000	5.770000	-3.270000	12.650000	-1.150000	0.940000	-0.040000	-0.000000	-0.000000	0.000000
0.670000	-14.030000	-1.850000	3.940000	39.540000	-1.050000	-0.290000	-8.660000	1.370000	-9.000000	2.910000	5.590000	-3.760000	12.720000	-1.140000	0.940000	-0.040000	-0.000000	-0.000000	0.000000
0.680000	-14.140000	-2.050000	3.810000	39.700000	-0.580000	-0.280000	-9.590000	0.570000	-9.190000	3.220000	5.400000	-4.390000	12.660000	-1.130000	0.940000	-0.040000	-0.000000	-0.000000	0.000000
0.690000	-14.290000	-2.250000	3.680000	39.860000	-0.120000	-0.300000	-10.530000	-0.230000	-9.260000	3.530000	5.220000	-5.180000	12.410000	-1.120000	0.940000	-0.040000	-0.000000	-0.000000	0.000000
0.700000	-14.490000	-2.460000	3.530000	40.000000	0.330000	-0.380000	-11.440000	-0.970000	-9.200000	3.840000	5.060000	-6.140000	11.890000	-1.110000	0.940000	-0.040000	-0.000000	-0.000000	0.000000
0.710000	-14.710000	-2.660000	3.370000	40.120000	0.760000	-0.520000	-12.310000	-1.580000	-9.020000	4.130000	4.900000	-7.260000	11.080000	-1.100000	0.940000	-0.030000	-0.000000	-0.000000	0.000000
0.720000	-14.940000	-2.880000	3.200000	40.190000	1.170000	-0.730000	-13.140000	-2.020000	-8.740000	4.420000	4.720000	-8.540000	10.010000	-1.090000	0.940000	-0.030000	-0.000000	-0.000000	0.000000
0.730000	-15.140000	-3.110000	3.020000	40.190000	1.580000	-0.990000	-13.950000	-2.240000	-8.400000	4.740000	4.500000	-9.960000	8.750000	-1.070000	0.940000	-0.030000	-0.000000	-0.000000	0.000000
0.740000	-15.310000	-3.370000	2.840000	40.120000	2.010000	-1.270000	-14.740000	-2.240000	-8.010000	5.090000	4.220000	-11.520000	7.360000	-1.060000	0.940000	-0.030000	-0.000000	-0.000000	0.000000
0.750000	-15.420000	-3.670000	2.670000	39.930000	2.480000	-1.550000	-15.520000	-2.030000	-7.610000	5.510000	3.870000	-13.190000	5.890000	-1.050000	0.940000	-0.030000	-0.000000	-0.000000	0.000000
0.760000	-15.450000	-4.030000	2.520000	39.620000	3.010000	-1.820000	-16.260000	-1.630000	-7.190000	6.000000	3.470000	-14.980000	4.300000	-1.040000	0.940000	-0.020000	-0.000000	-0.000000	0.000000
0.770000	-15.420000	-4.450000	2.380000	39.180000	3.610000	-2.100000	-16.930000	-1.100000	-6.740000	6.570000	3.030000	-16.900000	2.570000	-1.030000	0.940000	-0.020000	-0.000000	-0.000000	0.000000
0.780000	-15.350000	-4.920000	2.250000	38.630000	4.280000	-2.370000	-17.520000	-0.500000	-6.210000	7.210000	2.570000	-18.950000	0.680000	-1.010000	0.940000	-0.020000	-0.000000	-0.000000	0.000000
0.790000	-15.260000	-5.420000	2.120000	37.960000	5.000000	-2.620000	-18.000000	0.110000	-5.570000	7.890000	2.100000	-21.170000	-1.370000	-1.000000	0.950000	-0.020000	-0.000000	-0.000000	0.000000
0.800000	-15.140000	-5.910000	1.990000	37.190000	5.740000	-2.810000	-18.350000	0.710000	-4.800000	8.550000	1.630000	-23.560000	-3.550000	-0.990000	0.950000	-0.020000	-10.860000	3.510000	-7.960000
0.810000	-14.990000	-6.330000	1.870000	36.290000	6.440000	-2.920000	-18.550000	1.280000	-3.910000	9.160000	1.180000	-26.120000	-5.800000	-0.980000	0.950000	-0.010000	-10.930000	3.360000	-8.570000
0.820000	-14.800000	-6.660000	1.780000	35.250000	7.070000	-2.910000	-18.610000	1.840000	-2.900000	9.650000	0.770000	-28.840000	-8.060000	-0.960000	0.950000	-0.010000	-11.310000	3.310000	-9.180000
0.830000	-14.590000	-6.880000	1.730000	34.100000	7.580000	-2.810000	-18.530000	2.390000	-1.750000	10.020000	0.410000	-31.690000	-10.210000	-0.950000	0.950000	-0.010000	-11.300000	3.240000	-9.410000
0.840000	-14.370000	-6.970000	1.740000	32.870000	7.950000	-2.640000	-18.320000	2.940000	-0.440000	10.260000	0.120000	-34.650000	-12.160000	-0.940000	0.950000	-0.010000	-11.290000	3.190000	-9.500000
0.850000	-14.150000	-6.960000	1.800000	31.620000	8.180000	-2.460000	-18.020000	3.490000	1.020000	10.380000	-0.110000	-37.680000	-13.790000	-0.930000	0.950000	-0.010000	-11.270000	3.150000	-9.450000
0.860000	-13.960000	-6.870000	1.900000	30.370000	8.300000	-2.310000	-17.670000	4.000000	2.630000	10.400000	-0.270000	-40.740000	-15.020000	-0.910000	0.960000	-0.010000	-11.240000	3.120000	-9.310000
0.870000	-13.800000	-6.720000	2.030000	29.170000	8.320000	-2.220000	-17.310000	4.470000	4.380000	10.340000	-0.350000	-43.770000	-15.780000	-0.900000	0.960000	-0.000000	-11.200000	3.090000	-9.100000
0.880000	-13.670000	-6.510000	2.150000	28.010000	8.240000	-2.210000	-16.940000	4.860000	6.220000	10.200000	-0.350000	-46.730000	-16.070000	-0.890000	0.960000	-0.000000	-11.140000	3.040000	-8.840000
0.890000	-13.550000	-6.240000	2.250000	26.900000	8.080000	-2.260000	-16.580000	5.170000	8.110000	9.960000	-0.240000	-49.550000	-15.930000	-0.880000	0.960000	-0.000000	-11.060000	2.960000	-8.550000
0.900000	-13.440000	-5.920000	2.320000	25.820000	7.840000	-2.360000	-16.220000	5.390000	10.040000	9.640000	-0.050000	-52.160000	-15.440000	-0.870000	0.970000	-0.000000	-10.950000	2.830000	-8.220000
0.910000	-13.360000	-5.550000	2.330000	24.780000	7.530000	-2.480000	-15.840000	5.540000	11.980000	9.230000	0.200000	-54.510000	-14.700000	-0.860000	0.970000	-0.000000	-10.860000	2.660000	-7.840000
0.920000	-13.300000	-5.120000	2.310000	23.770000	7.150000	-2.620000	-15.440000	5.620000	13.920000	8.740000	0.470000	-56.560000	-13.790000	-0.850000	0.970000	0.000000	-10.770000	2.430000	-7.430000
0.930000	-13.270000	-4.650000	2.250000	22.800000	6.720000	-2.770000	-15.020000	5.640000	15.840000	8.200000	0.730000	-58.270000	-12.810000	-0.840000	0.970000	0.000000	-10.710000	2.150000	-6.970000
0.940000	-13.260000	-4.140000	2.160000	21.860000	6.230000	-2.950000	-14.570000	5.630000	17.730000	7.620000	0.970000	-59.620000	-11.820000	-0.830000	0.970000	0.000000	-10.670000	1.840000	-6.470000
0.950000	-13.280000	-3.610000	2.060000	20.950000	5.720000	-3.160000	-14.120000	5.580000	19.590000	7.020000	1.180000	-60.620000	-10.850000	-0.820000	0.980000	0.000000	-10.620000	1.500000	-5.950000
0.960000	-13.300000	-3.090000	1.950000	20.060000	5.200000	-3.440000	-13.670000	5.480000	21.400000	6.440000	1.390000	-61.260000	-9.890000	-0.810000	0.980000	0.000000	-10.550000	1.140000	-5.420000
0.970000	-13.310000	-2.570000	1.840000	19.180000	4.690000	-3.800000	-13.210000	5.320000	23.150000	5.890000	1.620000	-61.580000	-8.920000	-0.800000	0.980000	0.000000	-10.430000	0.770000	-4.890000
0.980000	-13.300000	-2.070000	1.740000	18.270000	4.210000	-4.220000	-12.730000	5.070000	24.830000	5.380000	1.910000	-61.580000	-7.900000	-0.790000	0.980000	0.010000	-10.270000	0.380000	-4.350000
0.990000	-13.250000	-1.600000	1.650000	17.330000	3.780000	-4.680000	-12.230000	4.780000	26.430000	4.900000	2.280000	-61.300000	-6.800000	-0.780000	0.980000	0.010000	-10.040000	-0.010000	-3.820000
1.000000	-13.190000	-1.160000	1.560000	16.340000	3.390000	-5.130000	-11.680000	4.520000	27.940000	4.460000	2.740000	-60.750000	-5.610000	-0.770000	0.980000	0.010000	-9.780000	-0.400000	-3.290000
1.010000	-13.100000	-0.740000	1.480000	15.310000	3.040000	-5.540000	-11.080000	4.370000	29.370000	4.050000	3.280000	-59.930000	-4.370000	-0.760000	0.980000	0.010000	-9.510000	-0.780000	-2.760000
1.020000	-13.020000	-0.350000	1.410000	14.260000	2.720000	-5.870000	-10.430000	4.430000	30.710000	3.660000	3.880000	-58.850000	-3.100000	-0.750000	0.990000	0.010000	-9.240000	-1.150000	-2.270000
1.030000	-12.940000	-0.010000	1.350000	13.200000	2.440000	-6.140000	-9.750000	4.710000	31.950000	3.320000	4.460000	-57.480000	-1.890000	-0.740000	0.990000	0.010000	-9.010000	-1.490000	-1.830000
1.040000	-12.880000	0.260000	1.310000	12.150000	2.210000	-6.350000	-9.050000	5.190000	33.090000	3.020000	4.980000	-55.830000	-0.820000	-0.740000	0.990000	0.010000	-8.820000	-1.790000	-1.480000
1.050000	-12.820000	0.450000	1.290000	11.100000	2.030000	-6.540000	-8.350000	5.800000	34.110000	2.780000	5.380000	-53.860000	0.060000	-0.730000	0.990000	0.010000	-8.650000	-2.060000	-1.240000
1.060000	-12.770000	0.570000	1.270000	10.060000	1.900000	-6.700000	-7.670000	6.460000	35.010000	2.590000	5.650000	-51.580000	0.710000	-0.720000	0.990000	0.010000	-8.490000	-2.300000	-1.090000
1.070000	-12.720000	0.620000	1.260000	9.010000	1.810000	-6.830000	-7.000000	7.080000	35.780000	2.420000	5.790000	-48.990000	1.160000	-0.710000	0.990000	0.010000	-8.340000	-2.540000	-1.010000
1.080000	-12.650000	0.650000	1.250000	7.940000	1.740000	-6.920000	-6.350000	7.610000	36.420000	2.260000	5.820000	-46.110000	1.440000	-0.700000	0.980000	0.010000	-8.170000	-2.790000	-0.990000
1.090000	-12.560000	0.680000	1.250000	6.820000	1.680000	-6.950000	-5.710000	8.040000	36.940000	2.080000	5.760000	-42.980000	1.600000	-0.690000	0.980000	0.010000	-7.970000	-3.060000	-0.960000
1.100000	-12.440000	0.740000	1.240000	5.640000	1.600000	-6.920000	-5.050000	8.360000	37.330000	1.850000	5.610000	-39.620000	1.700000	-0.670000	0.980000	0.010000	-7.750000	-3.360000	-0.920000
1.110000	-12.260000	0.820000	1.240000	4.370000	1.520000	-6.820000	-4.350000	8.610000	37.590000	1.590000	5.410000	-36.090000	1.770000	-0.660000	0.980000	0.010000	-7.480000	-3.670000	-0.850000
1.120000	-12.040000	0.910000	1.240000	3.010000	1.450000	-6.660000	-3.630000	8.800000	37.710000	1.320000	5.160000	-32.450000	1.810000	-0.650000	0.980000	0.010000	-7.170000	-4.010000	-0.750000
1.130000	-11.760000	0.990000	1.230000	1.570000	1.410000	-6.470000	-2.890000	8.970000	37.730000	1.080000	4.880000	-28.770000	1.800000	-0.640000	0.970000	0.010000	-6.810000	-4.350000	-0.650000
1.140000	-11.440000	1.030000	1.210000	0.080000	1.450000	-6.270000	-2.150000	9.120000	37.690000	0.900000	4.580000	-25.150000	1.720000	-0.630000	0.970000	0.010000	-6.420000	-4.700000	-0.590000
1.150000	-11.100000	0.990000	1.160000	-1.420000	1.560000	-6.100000	-1.440000	9.250000	37.630000	0.810000	4.240000	-21.700000	1.560000	-0.620000	0.970000	0.000000	-6.030000	-5.040000	-0.600000
1.160000	-10.770000	0.880000	1.090000	-2.890000	1.760000	-6.010000	-0.780000	9.360000	37.620000	0.830000	3.870000	-18.500000	1.320000	-0.610000	0.960000	0.000000	-5.670000	-5.370000	-0.680000
1.170000	-10.470000	0.720000	0.970000	-4.290000	2.000000	-6.020000	-0.210000	9.490000	37.670000	0.930000	3.470000	-15.610000	1.040000	-0.600000	0.960000	0.000000	-5.370000	-5.690000	-0.820000
1.180000	-10.220000	0.550000	0.810000	-5.590000	2.230000	-6.150000	0.260000	9.640000	37.790000	1.090000	3.030000	-13.090000	0.760000	-0.580000	0.960000	0.000000	-5.150000	-5.990000	-0.970000
1.190000	-10.050000	0.430000	0.620000	-6.750000	2.410000	-6.380000	0.610000	9.860000	37.990000	1.260000	2.580000	-10.960000	0.530000	-0.570000	0.950000	0.000000	-5.030000	-6.260000	-1.090000
1.200000	-9.960000	0.380000	0.400000	-7.780000	2.500000	-6.670000	0.820000	10.160000	38.240000	1.400000	2.130000	-9.240000	0.400000	-0.560000	0.950000	-0.000000	-5.020000	-6.520000	-1.140000
1.210000	-9.960000	0.420000	0.190000	-8.650000	2.470000	-6.960000	0.910000	10.550000	38.520000	1.470000	1.690000	-7.920000	0.390000	-0.550000	0.950000	-0.000000	-5.100000	-6.740000	-1.080000
1.220000	-10.030000	0.570000	-0.010000	-9.390000	2.320000	-7.200000	0.860000	10.980000	38.790000	1.460000	1.270000	-6.990000	0.510000	-0.530000	0.950000	-0.000000	-5.250000	-6.920000	-0.910000
1.230000	-10.140000	0.820000	-0.170000	-10.020000	2.050000	-7.340000	0.660000	11.410000	39.020000	1.340000	0.870000	-6.440000	0.700000	-0.520000	0.940000	-0.000000	-5.450000	-7.050000	-0.630000
1.240000	-10.280000	1.140000	-0.290000	-10.550000	1.700000	-7.350000	0.310000	11.800000	39.170000	1.120000	0.520000	-6.210000	0.890000	-0.510000	0.940000	-0.010000	-5.680000	-7.140000	-0.270000
1.250000	-10.420000	1.510000	-0.380000	-11.010000	1.280000	-7.200000	-0.210000	12.070000	39.220000	0.820000	0.210000	-6.260000	0.980000	-0.490000	0.940000	-0.010000	-5.900000	-7.170000	0.170000
1.260000	-10.550000	1.900000	-0.430000	-11.380000	0.820000	-6.920000	-0.910000	12.190000	39.190000	0.440000	-0.030000	-6.530000	0.900000	-0.480000	0.940000	-0.010000	-6.120000	-7.160000	0.630000
1.270000	-10.670000	2.300000	-0.460000	-11.670000	0.330000	-6.530000	-1.800000	12.120000	39.070000	0.030000	-0.200000	-6.960000	0.590000	-0.470000	0.940000	-0.010000	-6.330000	-7.110000	1.100000
1.280000	-10.770000	2.690000	-0.480000	-11.870000	-0.150000	-6.050000	-2.900000	11.850000	38.880000	-0.400000	-0.290000	-7.500000	0.090000	-0.450000	0.930000	-0.010000	-6.540000	-7.030000	1.540000
1.290000	-10.860000	3.040000	-0.490000	-11.960000	-0.620000	-5.520000	-4.220000	11.390000	38.640000	-0.830000	-0.300000	-8.110000	-0.570000	-0.440000	0.930000	-0.010000	-6.750000	-6.940000	1.940000
1.300000	-10.930000	3.370000	-0.500000	-11.960000	-1.080000	-4.950000	-5.750000	10.710000	38.350000	-1.250000	-0.250000	-8.780000	-1.340000	-0.420000	0.930000	-0.010000	-6.960000	-6.850000	2.300000
1.310000	-10.980000	3.670000	-0.520000	-11.840000	-1.550000	-4.390000	-7.490000	9.760000	38.030000	-1.650000	-0.160000	-9.490000	-2.130000	-0.410000	0.930000	-0.010000	-7.160000	-6.760000	2.620000
1.320000	-11.030000	3.950000	-0.540000	-11.580000	-2.040000	-3.860000	-9.460000	8.470000	37.700000	-2.020000	-0.030000	-10.270000	-2.860000	-0.390000	0.940000	-0.020000	-7.370000	-6.670000	2.890000
1.330000	-11.070000	4.210000	-0.560000	-11.160000	-2.560000	-3.390000	-11.630000	6.820000	37.380000	-2.380000	0.110000	-11.130000	-3.410000	-0.380000	0.940000	-0.020000	-7.610000	-6.580000	3.130000
1.340000	-11.130000	4.460000	-0.580000	-10.560000	-3.120000	-2.990000	-14.020000	4.820000	37.080000	-2.720000	0.260000	-12.080000	-3.720000	-0.360000	0.940000	-0.020000	-7.860000	-6.480000	3.360000
1.350000	-11.210000	4.710000	-0.580000	-9.750000	-3.700000	-2.660000	-16.630000	2.530000	36.810000	-3.050000	0.430000	-13.120000	-3.740000	-0.350000	0.940000	-0.020000	-8.130000	-6.350000	3.570000
1.360000	-11.290000	4.960000	-0.560000	-8.710000	-4.310000	-2.410000	-19.490000	0.050000	36.550000	-3.380000	0.630000	-14.230000	-3.500000	-0.330000	0.940000	-0.030000	-8.410000	-6.180000	3.780000
1.370000	-11.380000	5.220000	-0.530000	-7.450000	-4.920000	-2.230000	-22.600000	-2.500000	36.280000	-3.720000	0.880000	-15.380000	-3.050000	-0.320000	0.940000	-0.030000	-8.680000	-5.990000	4.010000
1.380000	-11.470000	5.500000	-0.480000	-5.970000	-5.520000	-2.090000	-25.930000	-5.000000	35.980000	-4.080000	1.180000	-16.500000	-2.480000	-0.300000	0.940000	-0.030000	-8.930000	-5.760000	4.260000
1.390000	-11.540000	5.810000	-0.430000	-4.300000	-6.120000	-1.960000	-29.460000	-7.340000	35.620000	-4.480000	1.520000	-17.550000	-1.870000	-0.290000	0.950000	-0.030000	-9.140000	-5.510000	4.550000
1.400000	-11.590000	6.160000	-0.380000	-2.480000	-6.700000	-1.830000	-33.120000	-9.410000	35.160000	-4.900000	1.840000	-18.460000	-1.290000	-0.280000	0.950000	-0.030000	-9.300000	-5.230000	4.870000
1.410000	-11.590000	6.540000	-0.350000	-0.570000	-7.250000	-1.670000	-36.830000	-11.100000	34.570000	-5.370000	2.130000	-19.190000	-0.770000	-0.260000	0.950000	-0.030000	-9.430000	-4.910000	5.210000
1.420000	-11.560000	6.930000	-0.340000	1.410000	-7.770000	-1.470000	-40.490000	-12.310000	33.860000	-5.850000	2.340000	-19.730000	-0.310000	-0.250000	0.950000	-0.030000	-9.510000	-4.570000	5.540000
1.430000	-11.490000	7.280000	-0.370000	3.400000	-8.210000	-1.230000	-44.020000	-12.990000	33.010000	-6.300000	2.470000	-20.050000	0.110000	-0.240000	0.950000	-0.040000	-9.560000	-4.220000	5.820000
1.440000	-11.390000	7.540000	-0.440000	5.390000	-8.530000	-0.970000	-47.340000	-13.120000	32.050000	-6.660000	2.540000	-20.170000	0.530000	-0.220000	0.960000	-0.040000	-9.590000	-3.870000	6.000000
1.450000	-11.280000	7.670000	-0.550000	7.370000	-8.710000	-0.730000	-50.380000	-12.760000	30.980000	-6.880000	2.570000	-20.080000	0.950000	-0.210000	0.960000	-0.040000	-9.610000	-3.530000	6.040000
1.460000	-11.160000	7.640000	-0.690000	9.340000	-8.720000	-0.570000	-53.100000	-12.010000	29.820000	-6.940000	2.590000	-19.800000	1.380000	-0.200000	0.960000	-0.040000	-9.620000	-3.200000	5.910000
1.470000	-11.040000	7.460000	-0.850000	11.290000	-8.570000	-0.510000	-55.470000	-11.020000	28.590000	-6.830000	2.660000	-19.350000	1.810000	-0.180000	0.960000	-0.040000	-9.630000	-2.880000	5.620000
1.480000	-10.950000	7.150000	-1.000000	13.250000	-8.280000	-0.590000	-57.490000	-9.910000	27.320000	-6.580000	2.800000	-18.750000	2.220000	-0.170000	0.970000	-0.040000	-9.640000	-2.570000	5.210000
1.490000	-10.890000	6.750000	-1.150000	15.220000	-7.910000	-0.790000	-59.170000	-8.800000	26.050000	-6.230000	3.040000	-18.050000	2.610000	-0.160000	0.970000	-0.040000	-9.650000	-2.260000	4.710000
1.500000	-10.880000	6.310000	-1.280000	17.230000	-7.480000	-1.070000	-60.530000	-7.760000	24.810000	-5.840000	3.380000	-17.290000	2.970000	-0.150000	0.970000	-0.040000	-9.680000	-1.940000	4.180000
1.510000	-10.910000	5.870000	-1.380000	19.270000	-7.050000	-1.410000	-61.590000	-6.830000	23.620000	-5.440000	3.800000	-16.520000	3.270000	-0.140000	0.970000	-0.050000	-9.730000	-1.590000	3.650000
1.520000	-10.970000	5.450000	-1.420000	21.310000	-6.650000	-1.750000	-62.340000	-6.000000	22.490000	-5.090000	4.270000	-15.780000	3.520000	-0.120000	0.980000	-0.050000	-9.780000	-1.210000	3.140000
1.530000	-11.030000	5.070000	-1.400000	23.290000	-6.290000	-2.070000	-62.760000	-5.250000	21.390000	-4.800000	4.750000	-15.080000	3.710000	-0.110000	0.980000	-0.050000	-9.810000	-0.770000	2.670000
1.540000	-11.060000	4.720000	-1.300000	25.130000	-5.990000	-2.340000	-62.810000	-4.540000	20.280000	-4.580000	5.180000	-14.440000	3.850000	-0.100000	0.980000	-0.050000	-9.790000	-0.300000	2.250000
1.550000	-11.040000	4.390000	-1.140000	26.770000	-5.730000	-2.570000	-62.440000	-3.850000	19.150000	-4.400000	5.550000	-13.840000	3.920000	-0.090000	0.980000	-0.050000	-9.690000	0.210000	1.870000
1.560000	-10.960000	4.100000	-0.940000	28.190000	-5.500000	-2.750000	-61.610000	-3.190000	17.980000	-4.260000	5.830000	-13.280000	3.950000	-0.080000	0.980000	-0.050000	-9.540000	0.720000	1.540000
1.570000	-10.830000	3.840000	-0.700000	29.390000	-5.290000	-2.890000	-60.320000	-2.550000	16.790000	-4.140000	6.040000	-12.740000	3.950000	-0.070000	0.980000	-0.050000	-9.340000	1.230000	1.280000
1.580000	-10.680000	3.620000	-0.440000	30.370000	-5.110000	-3.020000	-58.590000	-1.930000	15.570000	-4.050000	6.210000	-12.200000	3.950000	-0.060000	0.980000	-0.050000	-9.120000	1.720000	1.070000
1.590000	-10.510000	3.450000	-0.160000	31.160000	-4.940000	-3.140000	-56.460000	-1.330000	14.330000	-3.990000	6.360000	-11.640000	4.000000	-0.050000	0.980000	-0.050000	-8.900000	2.190000	0.930000
1.600000	-10.320000	3.330000	0.140000	31.770000	-4.790000	-3.240000	-54.000000	-0.750000	13.060000	-3.950000	6.520000	-11.050000	4.150000	-0.030000	0.980000	-0.050000	-8.680000	2.670000	0.830000
1.610000	-10.130000	3.230000	0.450000	32.240000	-4.640000	-3.320000	-51.240000	-0.190000	11.780000	-3.920000	6.670000	-10.410000	4.440000	-0.020000	0.990000	-0.050000	-8.470000	3.140000	0.760000
1.620000	-9.930000	3.140000	0.780000	32.590000	-4.480000	-3.380000	-48.220000	0.310000	10.460000	-3.880000	6.780000	-9.710000	4.840000	-0.010000	0.980000	-0.050000	-8.270000	3.620000	0.690000
1.630000	-9.720000	3.030000	1.090000	32.820000	-4.290000	-3.410000	-44.950000	0.720000	9.120000	-3.810000	6.820000	-8.970000	5.320000	0.000000	0.980000	-0.050000	-8.090000	4.090000	0.590000
1.640000	-9.500000	2.920000	1.370000	32.950000	-4.070000	-3.410000	-41.480000	1.020000	7.730000	-3.730000	6.780000	-8.180000	5.830000	0.010000	0.980000	-0.050000	-7.890000	4.530000	0.470000
1.650000	-9.250000	2.820000	1.610000	32.990000	-3.850000	-3.340000	-37.830000	1.230000	6.310000	-3.660000	6.650000	-7.380000	6.330000	0.020000	0.980000	-0.050000	-7.690000	4.920000	0.360000
1.660000	-8.990000	2.770000	1.790000	32.950000	-3.660000	-3.200000	-34.050000	1.380000	4.850000	-3.640000	6.470000	-6.560000	6.780000	0.040000	0.980000	-0.050000	-7.480000	5.240000	0.310000
1.670000	-8.720000	2.800000	1.920000	32.850000	-3.530000	-2.960000	-30.190000	1.550000	3.370000	-3.690000	6.260000	-5.770000	7.200000	0.050000	0.980000	-0.040000	-7.260000	5.490000	0.330000
1.680000	-8.460000	2.930000	2.000000	32.730000	-3.470000	-2.620000	-26.320000	1.770000	1.900000	-3.840000	6.060000	-5.020000	7.630000	0.060000	0.980000	-0.040000	-7.050000	5.680000	0.450000
1.690000	-8.220000	3.130000	2.050000	32.590000	-3.480000	-2.180000	-22.480000	2.070000	0.470000	-4.070000	5.920000	-4.350000	8.120000	0.070000	0.970000	-0.040000	-6.880000	5.810000	0.650000
1.700000	-8.020000	3.370000	2.090000	32.480000	-3.560000	-1.690000	-18.750000	2.460000	-0.900000	-4.330000	5.830000	-3.770000	8.690000	0.080000	0.970000	-0.040000	-6.760000	5.920000	0.910000
1.710000	-7.850000	3.630000	2.120000	32.390000	-3.680000	-1.170000	-15.180000	2.890000	-2.180000	-4.600000	5.790000	-3.330000	9.360000	0.100000	0.970000	-0.040000	-6.700000	6.010000	1.180000
1.720000	-7.720000	3.870000	2.160000	32.330000	-3.820000	-0.650000	-11.840000	3.330000	-3.360000	-4.810000	5.760000	-3.020000	10.080000	0.110000	0.960000	-0.040000	-6.680000	6.110000	1.440000
1.730000	-7.610000	4.040000	2.210000	32.290000	-3.930000	-0.140000	-8.790000	3.740000	-4.430000	-4.930000	5.740000	-2.870000	10.820000	0.120000	0.960000	-0.040000	-6.710000	6.210000	1.640000
1.740000	-7.530000	4.140000	2.290000	32.280000	-4.010000	0.370000	-6.110000	4.100000	-5.400000	-4.950000	5.690000	-2.870000	11.530000	0.130000	0.960000	-0.040000	-6.760000	6.310000	1.770000
1.750000	-7.470000	4.160000	2.380000	32.300000	-4.050000	0.870000	-3.880000	4.420000	-6.280000	-4.880000	5.620000	-3.000000	12.190000	0.150000	0.950000	-0.040000	-6.820000	6.390000	1.820000
1.760000	-7.440000	4.110000	2.500000	32.360000	-4.050000	1.360000	-2.150000	4.690000	-7.060000	-4.720000	5.510000	-3.260000	12.790000	0.160000	0.950000	-0.040000	-6.890000	6.460000	1.810000
1.770000	-7.450000	4.010000	2.640000	32.460000	-4.010000	1.790000	-0.970000	4.950000	-7.740000	-4.490000	5.370000	-3.630000	13.350000	0.170000	0.950000	-0.040000	-6.980000	6.530000	1.720000
1.780000	-7.500000	3.850000	2.800000	32.620000	-3.930000	2.130000	-0.370000	5.160000	-8.310000	-4.220000	5.200000	-4.120000	13.880000	0.180000	0.950000	-0.040000	-7.100000	6.590000	1.580000
1.790000	-7.600000	3.640000	2.980000	32.840000	-3.790000	2.330000	-0.310000	5.290000	-8.780000	-3.890000	5.030000	-4.710000	14.380000	0.200000	0.940000	-0.040000	-7.250000	6.650000	1.380000
1.800000	-7.750000	3.360000	3.160000	33.100000	-3.580000	2.390000	-0.750000	5.270000	-9.140000	-3.490000	4.860000	-5.400000	14.780000	0.210000	0.940000	-0.030000	-7.440000	6.710000	1.120000
1.810000	-7.940000	3.020000	3.340000	33.390000	-3.290000	2.320000	-1.570000	5.010000	-9.390000	-3.040000	4.720000	-6.210000	15.050000	0.220000	0.940000	-0.030000	-7.680000	6.760000	0.800000
1.820000	-8.180000	2.630000	3.510000	33.680000	-2.940000	2.160000	-2.650000	4.490000	-9.520000	-2.520000	4.600000	-7.160000	15.130000	0.240000	0.940000	-0.030000	-7.970000	6.800000	0.420000
1.830000	-8.440000	2.190000	3.680000	33.960000	-2.530000	1.950000	-3.870000	3.690000	-9.540000	-1.950000	4.480000	-8.260000	15.020000	0.250000	0.940000	-0.030000	-8.290000	6.820000	0.020000
1.840000	-8.740000	1.720000	3.840000	34.190000	-2.080000	1.730000	-5.120000	2.640000	-9.440000	-1.340000	4.330000	-9.530000	14.670000	0.270000	0.940000	-0.030000	-8.650000	6.830000	-0.410000
1.850000	-9.040000	1.250000	3.980000	34.370000	-1.630000	1.540000	-6.330000	1.420000	-9.230000	-0.690000	4.150000	-10.980000	14.070000	0.280000	0.930000	-0.030000	-9.030000	6.810000	-0.830000
1.860000	-9.330000	0.790000	4.130000	34.480000	-1.170000	1.390000	-7.480000	0.090000	-8.930000	-0.010000	3.930000	-12.600000	13.140000	0.300000	0.930000	-0.020000	-9.400000	6.770000	-1.240000
1.870000	-9.590000	0.350000	4.260000	34.520000	-0.730000	1.280000	-8.580000	-1.210000	-8.540000	0.700000	3.670000	-14.390000	11.860000	0.310000	0.930000	-0.020000	-9.760000	6.710000	-1.630000
1.880000	-9.810000	-0.090000	4.380000	34.490000	-0.280000	1.190000	-9.660000	-2.390000	-8.050000	1.470000	3.380000	-16.360000	10.170000	0.330000	0.930000	-0.020000	-10.080000	6.630000	-2.000000
1.890000	-9.980000	-0.530000	4.490000	34.390000	0.180000	1.090000	-10.730000	-3.320000	-7.450000	2.310000	3.070000	-18.530000	8.080000	0.340000	0.930000	-0.020000	-10.370000	6.530000	-2.380000
1.900000	-10.110000	-0.980000	4.600000	34.220000	0.660000	0.980000	-11.810000	-3.930000	-6.700000	3.220000	2.720000	-20.910000	5.590000	0.360000	0.940000	-0.020000	-10.630000	6.420000	-2.770000
1.910000	-10.220000	-1.460000	4.710000	34.000000	1.170000	0.820000	-12.890000	-4.190000	-5.780000	4.180000	2.320000	-23.520000	2.780000	0.370000	0.940000	-0.010000	-10.860000	6.310000	-3.180000
1.920000	-10.290000	-1.950000	4.840000	33.710000	1.690000	0.610000	-13.940000	-4.120000	-4.660000	5.170000	1.890000	-26.350000	-0.220000	0.390000	0.940000	-0.010000	-11.070000	6.210000	-3.610000
1.930000	-10.350000	-2.460000	4.970000	33.340000	2.230000	0.350000	-14.920000	-3.760000	-3.370000	6.140000	1.430000	-29.370000	-3.230000	0.410000	0.940000	-0.010000	-11.250000	6.130000	-4.060000
1.940000	-10.370000	-2.950000	5.100000	32.870000	2.770000	0.030000	-15.770000	-3.180000	-1.940000	7.040000	0.990000	-32.540000	-6.060000	0.420000	0.940000	-0.010000	-11.400000	6.040000	-4.490000
1.950000	-10.350000	-3.410000	5.190000	32.270000	3.320000	-0.320000	-16.450000	-2.460000	-0.420000	7.840000	0.630000	-35.790000	-8.500000	0.430000	0.940000	-0.010000	-11.500000	5.920000	-4.900000
1.960000	-10.270000	-3.840000	5.220000	31.510000	3.880000	-0.690000	-16.940000	-1.670000	1.130000	8.530000	0.370000	-39.060000	-10.420000	0.450000	0.940000	-0.000000	-11.540000	5.750000	-5.280000
1.970000	-10.150000	-4.210000	5.180000	30.600000	4.460000	-1.030000	-17.190000	-0.870000	2.690000	9.100000	0.190000	-42.280000	-11.750000	0.460000	0.950000	-0.000000	-11.510000	5.510000	-5.610000
1.980000	-10.000000	-4.510000	5.090000	29.530000	5.030000	-1.330000	-17.220000	-0.110000	4.250000	9.560000	0.050000	-45.420000	-12.480000	0.480000	0.950000	-0.000000	-11.440000	5.210000	-5.880000
1.990000	-9.840000	-4.730000	4.950000	28.350000	5.570000	-1.550000	-17.030000	0.560000	5.840000	9.890000	-0.120000	-48.440000	-12.680000	0.490000	0.950000	0.000000	-11.350000	4.860000	-6.080000
2.000000	-9.700000	-4.860000	4.780000	27.090000	6.030000	-1.700000	-16.630000	1.110000	7.490000	10.090000	-0.340000	-51.300000	-12.430000	0.500000	0.950000	0.000000	-11.240000	4.480000	-6.180000
2.010000	-9.590000	-4.880000	4.600000	25.770000	6.390000	-1.790000	-16.070000	1.540000	9.210000	10.150000	-0.610000	-53.970000	-11.860000	0.520000	0.950000	0.000000	-11.140000	4.060000	-6.150000
2.020000	-9.500000	-4.770000	4.430000	24.420000	6.620000	-1.850000	-15.400000	1.850000	11.000000	10.070000	-0.860000	-56.400000	-11.110000	0.530000	0.950000	0.000000	-11.050000	3.630000	-5.990000
2.030000	-9.450000	-4.550000	4.250000	23.080000	6.690000	-1.920000	-14.650000	2.070000	12.820000	9.850000	-1.030000	-58.560000	-10.290000	0.540000	0.960000	0.010000	-10.970000	3.170000	-5.720000
2.040000	-9.420000	-4.210000	4.090000	21.750000	6.620000	-2.040000	-13.850000	2.210000	14.670000	9.490000	-1.070000	-60.400000	-9.480000	0.560000	0.960000	0.010000	-10.890000	2.690000	-5.320000
2.050000	-9.420000	-3.780000	3.940000	20.460000	6.400000	-2.260000	-13.050000	2.290000	16.520000	9.010000	-0.950000	-61.880000	-8.720000	0.570000	0.960000	0.010000	-10.810000	2.200000	-4.830000
2.060000	-9.450000	-3.260000	3.820000	19.230000	6.040000	-2.590000	-12.250000	2.330000	18.360000	8.420000	-0.680000	-62.980000	-8.050000	0.580000	0.960000	0.010000	-10.750000	1.700000	-4.260000
2.070000	-9.520000	-2.690000	3.750000	18.070000	5.570000	-3.020000	-11.450000	2.330000	20.190000	7.740000	-0.290000	-63.690000	-7.450000	0.590000	0.970000	0.010000	-10.700000	1.230000	-3.620000
2.080000	-9.640000	-2.080000	3.720000	16.990000	5.020000	-3.530000	-10.680000	2.300000	22.000000	7.010000	0.180000	-64.010000	-6.920000	0.610000	0.970000	0.010000	-10.650000	0.790000	-2.940000
2.090000	-9.780000	-1.470000	3.740000	15.980000	4.440000	-4.080000	-9.960000	2.260000	23.780000	6.260000	0.690000	-63.950000	-6.440000	0.620000	0.970000	0.010000	-10.620000	0.380000	-2.240000
2.100000	-9.950000	-0.890000	3.790000	15.030000	3.870000	-4.650000	-9.280000	2.230000	25.520000	5.530000	1.220000	-63.550000	-5.940000	0.630000	0.970000	0.010000	-10.590000	0.020000	-1.560000
2.110000	-10.110000	-0.380000	3.870000	14.120000	3.350000	-5.210000	-8.670000	2.240000	27.200000	4.830000	1.760000	-62.840000	-5.350000	0.640000	0.980000	0.010000	-10.550000	-0.320000	-0.940000
2.120000	-10.250000	0.050000	3.940000	13.210000	2.920000	-5.760000	-8.110000	2.300000	28.780000	4.200000	2.310000	-61.850000	-4.630000	0.650000	0.980000	0.010000	-10.470000	-0.640000	-0.390000
2.130000	-10.320000	0.390000	4.010000	12.270000	2.580000	-6.300000	-7.600000	2.440000	30.220000	3.640000	2.860000	-60.580000	-3.740000	0.660000	0.980000	0.010000	-10.340000	-0.960000	0.060000
2.140000	-10.320000	0.660000	4.060000	11.240000	2.340000	-6.820000	-7.090000	2.650000	31.500000	3.160000	3.380000	-59.050000	-2.720000	0.670000	0.980000	0.010000	-10.150000	-1.280000	0.420000
2.150000	-10.250000	0.860000	4.080000	10.120000	2.190000	-7.300000	-6.540000	2.910000	32.590000	2.750000	3.850000	-57.240000	-1.660000	0.680000	0.980000	0.010000	-9.890000	-1.630000	0.680000
2.160000	-10.110000	1.020000	4.060000	8.890000	2.120000	-7.720000	-5.910000	3.210000	33.490000	2.390000	4.240000	-55.160000	-0.660000	0.700000	0.980000	0.010000	-9.580000	-2.020000	0.860000
2.170000	-9.920000	1.160000	4.010000	7.570000	2.110000	-8.060000	-5.190000	3.540000	34.200000	2.080000	4.520000	-52.770000	0.150000	0.710000	0.980000	0.010000	-9.250000	-2.450000	0.980000
2.180000	-9.710000	1.260000	3.900000	6.170000	2.140000	-8.310000	-4.360000	3.890000	34.730000	1.820000	4.690000	-50.080000	0.720000	0.720000	0.980000	0.010000	-8.920000	-2.910000	1.040000
2.190000	-9.490000	1.330000	3.760000	4.730000	2.220000	-8.460000	-3.480000	4.260000	35.100000	1.620000	4.750000	-47.080000	1.020000	0.730000	0.980000	0.010000	-8.630000	-3.420000	1.040000
2.200000	-9.270000	1.350000	3.570000	3.280000	2.350000	-8.540000	-2.570000	4.610000	35.320000	1.470000	4.700000	-43.790000	1.080000	0.740000	0.980000	0.010000	-8.390000	-3.960000	0.990000
2.210000	-9.070000	1.310000	3.340000	1.850000	2.530000	-8.560000	-1.700000	4.960000	35.420000	1.400000	4.570000	-40.230000	0.960000	0.750000	0.970000	0.010000	-8.210000	-4.530000	0.890000
2.220000	-8.880000	1.210000	3.080000	0.450000	2.750000	-8.550000	-0.890000	5.290000	35.410000	1.390000	4.370000	-36.460000	0.740000	0.770000	0.970000	0.010000	-8.070000	-5.100000	0.740000
2.230000	-8.700000	1.050000	2.800000	-0.910000	3.020000	-8.550000	-0.180000	5.610000	35.330000	1.440000	4.090000	-32.560000	0.530000	0.780000	0.970000	0.010000	-7.960000	-5.660000	0.550000
2.240000	-8.510000	0.850000	2.520000	-2.240000	3.330000	-8.570000	0.430000	5.950000	35.190000	1.540000	3.720000	-28.610000	0.370000	0.790000	0.970000	0.010000	-7.840000	-6.180000	0.330000
2.250000	-8.310000	0.620000	2.250000	-3.560000	3.660000	-8.610000	0.940000	6.310000	35.020000	1.670000	3.260000	-24.720000	0.310000	0.800000	0.960000	0.010000	-7.700000	-6.640000	0.090000
2.260000	-8.100000	0.360000	2.010000	-4.850000	4.000000	-8.660000	1.360000	6.730000	34.840000	1.830000	2.730000	-20.960000	0.370000	0.820000	0.960000	0.010000	-7.540000	-7.030000	-0.170000
2.270000	-7.900000	0.100000	1.800000	-6.110000	4.330000	-8.690000	1.690000	7.190000	34.680000	2.010000	2.140000	-17.420000	0.530000	0.830000	0.960000	0.010000	-7.380000	-7.340000	-0.420000
2.280000	-7.710000	-0.160000	1.610000	-7.320000	4.640000	-8.670000	1.930000	7.670000	34.530000	2.210000	1.560000	-14.160000	0.790000	0.840000	0.950000	0.010000	-7.240000	-7.600000	-0.660000
2.290000	-7.540000	-0.390000	1.440000	-8.470000	4.900000	-8.590000	2.070000	8.160000	34.390000	2.430000	1.010000	-11.240000	1.130000	0.860000	0.950000	0.000000	-7.120000	-7.820000	-0.880000
2.300000	-7.400000	-0.590000	1.240000	-9.540000	5.080000	-8.450000	2.100000	8.640000	34.260000	2.660000	0.540000	-8.710000	1.520000	0.870000	0.950000	0.000000	-7.040000	-8.050000	-1.070000
2.310000	-7.290000	-0.740000	1.020000	-10.520000	5.170000	-8.260000	1.990000	9.070000	34.110000	2.880000	0.160000	-6.620000	1.940000	0.880000	0.950000	0.000000	-6.990000	-8.300000	-1.220000
2.320000	-7.220000	-0.820000	0.770000	-11.390000	5.150000	-8.040000	1.750000	9.440000	33.960000	3.080000	-0.140000	-5.000000	2.330000	0.900000	0.940000	0.000000	-6.970000	-8.580000	-1.310000
2.330000	-7.180000	-0.820000	0.480000	-12.130000	5.010000	-7.830000	1.350000	9.740000	33.810000	3.220000	-0.370000	-3.900000	2.660000	0.910000	0.940000	0.000000	-6.950000	-8.880000	-1.340000
2.340000	-7.180000	-0.740000	0.170000	-12.750000	4.760000	-7.640000	0.790000	9.940000	33.650000	3.260000	-0.550000	-3.320000	2.850000	0.920000	0.940000	0.000000	-6.930000	-9.170000	-1.290000
2.350000	-7.200000	-0.570000	-0.140000	-13.230000	4.390000	-7.500000	0.070000	10.030000	33.500000	3.180000	-0.680000	-3.220000	2.850000	0.940000	0.940000	-0.000000	-6.920000	-9.420000	-1.140000
2.360000	-7.270000	-0.300000	-0.440000	-13.590000	3.930000	-7.400000	-0.800000	9.990000	33.340000	2.980000	-0.740000	-3.550000	2.590000	0.950000	0.930000	-0.000000	-6.920000	-9.620000	-0.900000
2.370000	-7.350000	0.040000	-0.710000	-13.830000	3.380000	-7.340000	-1.830000	9.830000	33.200000	2.650000	-0.740000	-4.220000	2.030000	0.960000	0.930000	-0.000000	-6.940000	-9.740000	-0.560000
2.380000	-7.470000	0.440000	-0.930000	-13.960000	2.770000	-7.270000	-3.030000	9.530000	33.050000	2.220000	-0.670000	-5.120000	1.180000	0.980000	0.930000	-0.000000	-7.000000	-9.790000	-0.150000
2.390000	-7.600000	0.880000	-1.100000	-13.980000	2.120000	-7.180000	-4.400000	9.080000	32.910000	1.710000	-0.560000	-6.140000	0.070000	0.990000	0.930000	-0.010000	-7.110000	-9.760000	0.330000
2.400000	-7.740000	1.360000	-1.210000	-13.880000	1.450000	-7.050000	-5.970000	8.410000	32.760000	1.140000	-0.460000	-7.220000	-1.260000	1.010000	0.930000	-0.010000	-7.270000	-9.680000	0.850000
2.410000	-7.880000	1.840000	-1.270000	-13.670000	0.780000	-6.860000	-7.730000	7.470000	32.600000	0.550000	-0.390000	-8.280000	-2.690000	1.020000	0.930000	-0.010000	-7.480000	-9.560000	1.380000
2.420000	-8.030000	2.310000	-1.270000	-13.330000	0.100000	-6.620000	-9.680000	6.170000	32.430000	-0.040000	-0.400000	-9.320000	-4.100000	1.040000	0.930000	-0.010000	-7.720000	-9.400000	1.910000
2.430000	-8.160000	2.760000	-1.250000	-12.850000	-0.550000	-6.370000	-11.810000	4.500000	32.250000	-0.620000	-0.480000	-10.320000	-5.330000	1.050000	0.930000	-0.010000	-8.010000	-9.220000	2.400000
2.440000	-8.290000	3.170000	-1.200000	-12.230000	-1.190000	-6.130000	-14.140000	2.480000	32.040000	-1.180000	-0.610000	-11.320000	-6.270000	1.070000	0.930000	-0.010000	-8.310000	-9.010000	2.850000
2.450000	-8.400000	3.530000	-1.140000	-11.450000	-1.810000	-5.930000	-16.670000	0.160000	31.800000	-1.690000	-0.780000	-12.300000	-6.850000	1.080000	0.930000	-0.010000	-8.610000	-8.780000	3.230000
2.460000	-8.490000	3.860000	-1.090000	-10.500000	-2.430000	-5.770000	-19.390000	-2.350000	31.500000	-2.180000	-0.960000	-13.280000	-7.050000	1.100000	0.940000	-0.020000	-8.910000	-8.520000	3.550000
2.470000	-8.560000	4.160000	-1.050000	-9.370000	-3.050000	-5.650000	-22.330000	-4.920000	31.150000	-2.640000	-1.120000	-14.220000	-6.910000	1.110000	0.940000	-0.020000	-9.180000	-8.250000	3.820000
2.480000	-8.640000	4.460000	-1.030000	-8.040000	-3.680000	-5.510000	-25.500000	-7.390000	30.720000	-3.070000	-1.240000	-15.070000	-6.480000	1.130000	0.940000	-0.020000	-9.420000	-7.980000	4.070000
2.490000	-8.720000	4.760000	-1.060000	-6.480000	-4.340000	-5.320000	-28.870000	-9.610000	30.230000	-3.490000	-1.260000	-15.790000	-5.850000	1.140000	0.940000	-0.020000	-9.650000	-7.720000	4.310000
2.500000	-8.830000	5.080000	-1.140000	-4.710000	-5.010000	-5.060000	-32.410000	-11.460000	29.670000	-3.890000	-1.190000	-16.320000	-5.080000	1.160000	0.940000	-0.020000	-9.860000	-7.470000	4.560000
2.510000	-8.940000	5.400000	-1.260000	-2.770000	-5.650000	-4.700000	-36.040000	-12.850000	29.010000	-4.270000	-1.030000	-16.660000	-4.240000	1.170000	0.940000	-0.030000	-10.050000	-7.220000	4.820000
2.520000	-9.030000	5.720000	-1.410000	-0.730000	-6.250000	-4.280000	-39.650000	-13.740000	28.250000	-4.630000	-0.820000	-16.810000	-3.370000	1.190000	0.950000	-0.030000	-10.200000	-6.960000	5.080000
2.530000	-9.090000	5.990000	-1.570000	1.360000	-6.760000	-3.830000	-43.150000	-14.100000	27.400000	-4.970000	-0.580000	-16.800000	-2.530000	1.200000	0.950000	-0.030000	-10.300000	-6.660000	5.310000
2.540000	-9.130000	6.200000	-1.700000	3.450000	-7.140000	-3.400000	-46.440000	-13.970000	26.490000	-5.280000	-0.330000	-16.670000	-1.740000	1.210000	0.950000	-0.030000	-10.370000	-6.300000	5.480000
2.550000	-9.150000	6.290000	-1.800000	5.520000	-7.380000	-3.040000	-49.450000	-13.390000	25.540000	-5.520000	-0.100000	-16.470000	-1.050000	1.230000	0.950000	-0.030000	-10.410000	-5.890000	5.550000
2.560000	-9.170000	6.250000	-1.850000	7.550000	-7.460000	-2.780000	-52.130000	-12.500000	24.580000	-5.680000	0.120000	-16.230000	-0.470000	1.240000	0.950000	-0.030000	-10.440000	-5.420000	5.490000
2.570000	-9.210000	6.080000	-1.830000	9.570000	-7.380000	-2.650000	-54.450000	-11.420000	23.650000	-5.720000	0.360000	-15.950000	-0.010000	1.250000	0.960000	-0.030000	-10.470000	-4.900000	5.290000
2.580000	-9.290000	5.780000	-1.760000	11.570000	-7.180000	-2.650000	-56.410000	-10.260000	22.750000	-5.650000	0.610000	-15.640000	0.360000	1.260000	0.960000	-0.030000	-10.500000	-4.340000	4.980000
2.590000	-9.380000	5.390000	-1.640000	13.550000	-6.890000	-2.750000	-58.010000	-9.100000	21.880000	-5.460000	0.920000	-15.300000	0.650000	1.280000	0.960000	-0.030000	-10.530000	-3.760000	4.560000
2.600000	-9.490000	4.950000	-1.500000	15.490000	-6.550000	-2.930000	-59.250000	-7.980000	21.010000	-5.180000	1.280000	-14.930000	0.890000	1.290000	0.960000	-0.030000	-10.540000	-3.160000	4.090000
2.610000	-9.580000	4.500000	-1.370000	17.380000	-6.200000	-3.160000	-60.130000	-6.890000	20.120000	-4.840000	1.700000	-14.540000	1.090000	1.300000	0.960000	-0.040000	-10.510000	-2.550000	3.590000
2.620000	-9.650000	4.060000	-1.270000	19.180000	-5.850000	-3.370000	-60.640000	-5.860000	19.200000	-4.440000	2.160000	-14.140000	1.260000	1.310000	0.970000	-0.040000	-10.430000	-1.970000	3.090000
2.630000	-9.680000	3.660000	-1.230000	20.880000	-5.510000	-3.560000	-60.780000	-4.900000	18.240000	-4.020000	2.640000	-13.740000	1.400000	1.320000	0.970000	-0.040000	-10.310000	-1.430000	2.590000
2.640000	-9.680000	3.280000	-1.250000	22.470000	-5.160000	-3.700000	-60.540000	-4.030000	17.240000	-3.590000	3.130000	-13.360000	1.520000	1.330000	0.970000	-0.040000	-10.180000	-0.940000	2.100000
2.650000	-9.660000	2.950000	-1.310000	23.920000	-4.810000	-3.810000	-59.910000	-3.230000	16.200000	-3.180000	3.610000	-12.990000	1.630000	1.350000	0.970000	-0.040000	-10.050000	-0.500000	1.620000
2.660000	-9.620000	2.660000	-1.400000	25.250000	-4.480000	-3.910000	-58.930000	-2.490000	15.130000	-2.820000	4.090000	-12.620000	1.740000	1.360000	0.970000	-0.040000	-9.960000	-0.080000	1.170000
2.670000	-9.560000	2.430000	-1.480000	26.430000	-4.180000	-4.030000	-57.600000	-1.760000	14.040000	-2.540000	4.560000	-12.240000	1.850000	1.370000	0.970000	-0.040000	-9.900000	0.320000	0.740000
2.680000	-9.470000	2.240000	-1.530000	27.470000	-3.920000	-4.180000	-55.950000	-1.040000	12.900000	-2.360000	5.030000	-11.810000	1.990000	1.380000	0.970000	-0.040000	-9.880000	0.730000	0.360000
2.690000	-9.350000	2.110000	-1.530000	28.360000	-3.680000	-4.340000	-53.990000	-0.330000	11.720000	-2.260000	5.480000	-11.330000	2.190000	1.390000	0.970000	-0.040000	-9.880000	1.150000	0.030000
2.700000	-9.190000	2.000000	-1.490000	29.070000	-3.480000	-4.500000	-51.720000	0.350000	10.490000	-2.230000	5.870000	-10.770000	2.470000	1.400000	0.970000	-0.040000	-9.870000	1.590000	-0.250000
2.710000	-8.980000	1.930000	-1.390000	29.590000	-3.290000	-4.610000	-49.130000	0.970000	9.200000	-2.270000	6.170000	-10.160000	2.850000	1.420000	0.970000	-0.040000	-9.830000	2.050000	-0.460000
2.720000	-8.730000	1.890000	-1.240000	29.930000	-3.130000	-4.650000	-46.210000	1.490000	7.860000	-2.340000	6.330000	-9.520000	3.340000	1.430000	0.970000	-0.040000	-9.740000	2.500000	-0.590000
2.730000	-8.460000	1.880000	-1.050000	30.100000	-3.000000	-4.580000	-42.980000	1.890000	6.510000	-2.460000	6.350000	-8.880000	3.940000	1.440000	0.970000	-0.040000	-9.620000	2.950000	-0.640000
2.740000	-8.190000	1.920000	-0.840000	30.140000	-2.930000	-4.390000	-39.470000	2.190000	5.150000	-2.620000	6.220000	-8.250000	4.610000	1.450000	0.970000	-0.040000	-9.470000	3.360000	-0.610000
2.750000	-7.950000	2.040000	-0.630000	30.080000	-2.920000	-4.110000	-35.710000	2.410000	3.780000	-2.840000	5.980000	-7.640000	5.310000	1.460000	0.970000	-0.040000	-9.320000	3.770000	-0.480000
2.760000	-7.720000	2.260000	-0.440000	29.950000	-2.990000	-3.740000	-31.780000	2.610000	2.420000	-3.140000	5.650000	-7.040000	6.000000	1.480000	0.970000	-0.040000	-9.250000	4.300000	-0.260000
2.770000	-7.520000	2.560000	-0.270000	29.780000	-3.160000	-3.300000	-27.760000	2.810000	1.040000	-3.510000	5.280000	-6.440000	6.630000	1.490000	0.970000	-0.030000	-0.000000	-0.000000	0.000000
2.780000	-7.340000	2.960000	-0.100000	29.610000	-3.440000	-2.820000	-23.730000	3.020000	-0.340000	-3.970000	4.900000	-5.830000	7.170000	1.500000	0.960000	-0.030000	-0.000000	-0.000000	0.000000
2.790000	-7.170000	3.420000	0.060000	29.440000	-3.800000	-2.310000	-19.790000	3.250000	-1.730000	-4.470000	4.550000	-5.230000	7.640000	1.510000	0.960000	-0.030000	-0.000000	-0.000000	0.000000
2.800000	-7.010000	3.920000	0.240000	29.280000	-4.230000	-1.790000	-16.030000	3.500000	-3.130000	-4.990000	4.250000	-4.640000	8.030000	1.530000	0.960000	-0.030000	-0.000000	-0.000000	0.000000
2.810000	-6.850000	4.420000	0.410000	29.160000	-4.710000	-1.280000	-12.500000	3.760000	-4.490000	-5.490000	4.000000	-4.110000	8.400000	1.540000	0.960000	-0.030000	-0.000000	-0.000000	0.000000
2.820000	-6.720000	4.880000	0.580000	29.060000	-5.180000	-0.810000	-9.250000	4.010000	-5.800000	-5.930000	3.810000	-3.660000	8.770000	1.550000	0.950000	-0.030000	-0.000000	-0.000000	0.000000
2.830000	-6.610000	5.260000	0.750000	29.000000	-5.610000	-0.380000	-6.340000	4.250000	-7.000000	-6.280000	3.650000	-3.320000	9.150000	1.570000	0.950000	-0.030000	-0.000000	-0.000000	0.000000
2.840000	-6.550000	5.540000	0.910000	28.980000	-5.980000	-0.040000	-3.780000	4.480000	-8.080000	-6.510000	3.490000	-3.140000	9.570000	1.580000	0.950000	-0.030000	-0.000000	-0.000000	0.000000
2.850000	-6.540000	5.700000	1.100000	29.000000	-6.270000	0.210000	-1.640000	4.700000	-9.000000	-6.590000	3.300000	-3.140000	10.010000	1.590000	0.940000	-0.030000	-0.000000	-0.000000	0.000000
2.860000	-6.570000	5.740000	1.340000	29.060000	-6.460000	0.340000	0.030000	4.900000	-9.750000	-6.520000	3.050000	-3.340000	10.450000	1.610000	0.940000	-0.030000	-0.000000	-0.000000	0.000000
2.870000	-6.650000	5.650000	1.630000	29.150000	-6.550000	0.380000	1.210000	5.030000	-10.330000	-6.300000	2.760000	-3.750000	10.880000	1.620000	0.940000	-0.020000	-0.000000	-0.000000	0.000000
2.880000	-6.770000	5.440000	1.980000	29.280000	-6.540000	0.340000	1.850000	5.010000	-10.750000	-5.930000	2.430000	-4.370000	11.280000	1.630000	0.940000	-0.020000	-0.000000	-0.000000	0.000000
2.890000	-6.920000	5.120000	2.380000	29.430000	-6.410000	0.230000	1.980000	4.730000	-11.030000	-5.430000	2.110000	-5.180000	11.610000	1.640000	0.930000	-0.020000	-0.000000	-0.000000	0.000000
2.900000	-7.070000	4.710000	2.800000	29.580000	-6.170000	0.080000	1.670000	4.120000	-11.200000	-4.810000	1.810000	-6.150000	11.850000	1.660000	0.930000	-0.020000	-0.000000	-0.000000	0.000000
2.910000	-7.210000	4.230000	3.220000	29.700000	-5.830000	-0.080000	1.000000	3.100000	-11.300000	-4.120000	1.570000	-7.250000	11.950000	1.670000	0.930000	-0.020000	-0.000000	-0.000000	0.000000
2.920000	-7.330000	3.710000	3.630000	29.780000	-5.410000	-0.230000	0.080000	1.730000	-11.350000	-3.370000	1.380000	-8.460000	11.870000	1.680000	0.930000	-0.020000	-0.000000	-0.000000	0.000000
2.930000	-7.430000	3.190000	4.030000	29.790000	-4.950000	-0.340000	-0.990000	0.100000	-11.350000	-2.610000	1.230000	-9.780000	11.550000	1.700000	0.930000	-0.020000	-0.000000	-0.000000	0.000000
2.940000	-7.490000	2.700000	4.410000	29.730000	-4.470000	-0.410000	-2.120000	-1.610000	-11.320000	-1.860000	1.090000	-11.210000	10.910000	1.710000	0.930000	-0.010000	-0.000000	-0.000000	0.000000
2.950000	-7.530000	2.260000	4.770000	29.610000	-3.970000	-0.420000	-3.290000	-3.240000	-11.200000	-1.130000	0.960000	-12.810000	9.910000	1.730000	0.920000	-0.010000	-0.000000	-0.000000	0.000000
2.960000	-7.560000	1.830000	5.080000	29.450000	-3.450000	-0.400000	-4.480000	-4.610000	-10.950000	-0.410000	0.820000	-14.640000	8.510000	1.740000	0.920000	-0.010000	-0.000000	-0.000000	0.000000
2.970000	-7.590000	1.390000	5.330000	29.290000	-2.870000	-0.370000	-5.680000	-5.610000	-10.500000	0.360000	0.700000	-16.750000	6.720000	1.760000	0.920000	-0.010000	-0.000000	-0.000000	0.000000
2.980000	-7.640000	0.860000	5.510000	29.150000	-2.170000	-0.380000	-6.910000	-6.180000	-9.810000	1.210000	0.590000	-19.200000	4.560000	1.770000	0.920000	-0.010000	-0.000000	-0.000000	0.000000
2.990000	-7.700000	0.230000	5.600000	29.030000	-1.340000	-0.500000	-8.170000	-6.330000	-8.850000	2.200000	0.510000	-21.990000	2.100000	1.790000	0.920000	-0.010000	-0.000000	-0.000000	0.000000
3.000000	-7.770000	-0.530000	5.610000	28.920000	-0.370000	-0.730000	-9.450000	-6.110000	-7.640000	3.340000	0.470000	-25.110000	-0.540000	1.810000	0.920000	-0.000000	-0.000000	-0.000000	0.000000
3.010000	-7.820000	-1.400000	5.590000	28.810000	0.700000	-1.070000	-10.730000	-5.590000	-6.210000	4.590000	0.470000	-28.480000	-3.220000	1.820000	0.920000	-0.000000	-0.000000	-0.000000	0.000000
3.020000	-7.840000	-2.320000	5.550000	28.650000	1.820000	-1.490000	-11.980000	-4.840000	-4.610000	5.920000	0.520000	-32.030000	-5.790000	1.830000	0.920000	-0.000000	-0.000000	-0.000000	0.000000
3.030000	-7.840000	-3.260000	5.540000	28.410000	2.940000	-1.930000	-13.160000	-3.930000	-2.890000	7.250000	0.620000	-35.660000	-8.110000	1.850000	0.920000	0.000000	-0.000000	-0.000000	0.000000
3.040000	-7.800000	-4.150000	5.550000	28.090000	4.010000	-2.360000	-14.220000	-2.920000	-1.090000	8.520000	0.720000	-39.300000	-10.090000	1.860000	0.920000	0.000000	-0.000000	-0.000000	0.000000
3.050000	-7.740000	-4.960000	5.580000	27.680000	4.990000	-2.770000	-15.130000	-1.850000	0.760000	9.690000	0.780000	-42.870000	-11.660000	1.880000	0.930000	0.000000	-0.000000	-0.000000	0.000000
3.060000	-7.690000	-5.650000	5.620000	27.170000	5.860000	-3.140000	-15.860000	-0.760000	2.650000	10.690000	0.750000	-46.290000	-12.780000	1.890000	0.930000	0.000000	-0.000000	-0.000000	0.000000
3.070000	-7.640000	-6.190000	5.640000	26.570000	6.600000	-3.480000	-16.400000	0.300000	4.540000	11.480000	0.650000	-49.480000	-13.410000	1.900000	0.930000	0.010000	-0.000000	-0.000000	0.000000
3.080000	-7.600000	-6.540000	5.590000	25.860000	7.180000	-3.750000	-16.740000	1.280000	6.370000	12.030000	0.540000	-52.380000	-13.580000	1.920000	0.930000	0.010000	-0.000000	-0.000000	0.000000
3.090000	-7.550000	-6.680000	5.470000	25.040000	7.600000	-3.930000	-16.890000	2.150000	8.090000	12.320000	0.510000	-54.920000	-13.330000	1.930000	0.930000	0.010000	-0.000000	-0.000000	0.000000
3.100000	-7.510000	-6.610000	5.250000	24.100000	7.830000	-4.020000	-16.860000	2.870000	9.700000	12.370000	0.620000	-57.070000	-12.730000	1.940000	0.930000	0.010000	-0.000000	-0.000000	0.000000
3.110000	-7.460000	-6.330000	4.960000	23.070000	7.890000	-4.040000	-16.680000	3.430000	11.170000	12.200000	0.910000	-58.810000	-11.890000	1.950000	0.930000	0.010000	-0.000000	-0.000000	0.000000
3.120000	-7.400000	-5.900000	4.580000	21.950000	7.790000	-4.030000	-16.340000	3.840000	12.540000	11.880000	1.380000	-60.160000	-10.940000	1.970000	0.940000	0.010000	-0.000000	-0.000000	0.000000
3.130000	-7.310000	-5.360000	4.150000	20.740000	7.570000	-4.020000	-15.870000	4.090000	13.810000	11.460000	1.990000	-61.150000	-10.000000	1.980000	0.940000	0.010000	-0.000000	-0.000000	0.000000
3.140000	-7.200000	-4.760000	3.680000	19.470000	7.280000	-4.080000	-15.280000	4.200000	15.030000	11.000000	2.650000	-61.820000	-9.160000	1.990000	0.940000	0.010000	-0.000000	-0.000000	0.000000
3.150000	-7.070000	-4.170000	3.200000	18.170000	6.940000	-4.250000	-14.590000	4.200000	16.250000	10.560000	3.240000	-62.200000	-8.450000	2.000000	0.940000	0.020000	-0.000000	-0.000000	0.000000
3.160000	-6.960000	-3.600000	2.750000	16.900000	6.580000	-4.540000	-13.830000	4.110000	17.540000	10.150000	3.660000	-62.320000	-7.880000	2.010000	0.950000	0.020000	-0.000000	-0.000000	0.000000
3.170000	-6.900000	-3.080000	2.350000	15.710000	6.220000	-4.940000	-13.030000	3.960000	18.910000	9.770000	3.870000	-62.200000	-7.390000	2.020000	0.950000	0.020000	-0.000000	-0.000000	0.000000
3.180000	-6.900000	-2.600000	2.020000	14.600000	5.860000	-5.430000	-12.230000	3.780000	20.370000	9.400000	3.880000	-61.820000	-6.940000	2.030000	0.950000	0.020000	-0.000000	-0.000000	0.000000
3.190000	-6.920000	-2.160000	1.750000	13.550000	5.520000	-5.960000	-11.440000	3.600000	21.860000	9.030000	3.800000	-61.190000	-6.460000	2.040000	0.950000	0.020000	-0.000000	-0.000000	0.000000
3.200000	-6.980000	-1.730000	1.560000	12.540000	5.190000	-6.530000	-10.670000	3.450000	23.330000	8.620000	3.740000	-60.290000	-5.880000	2.060000	0.950000	0.020000	-0.000000	-0.000000	0.000000
3.210000	-7.060000	-1.320000	1.450000	11.560000	4.880000	-7.120000	-9.910000	3.380000	24.750000	8.160000	3.770000	-59.130000	-5.160000	2.070000	0.960000	0.020000	-0.000000	-0.000000	0.000000
3.220000	-7.170000	-0.920000	1.410000	10.600000	4.590000	-7.730000	-9.170000	3.400000	26.100000	7.650000	3.930000	-57.700000	-4.310000	2.080000	0.960000	0.020000	-0.000000	-0.000000	0.000000
3.230000	-7.300000	-0.540000	1.440000	9.620000	4.320000	-8.340000	-8.430000	3.510000	27.350000	7.110000	4.200000	-55.980000	-3.340000	2.090000	0.960000	0.020000	-0.000000	-0.000000	0.000000
3.240000	-7.420000	-0.190000	1.500000	8.630000	4.060000	-8.920000	-7.690000	3.700000	28.460000	6.560000	4.520000	-53.950000	-2.310000	2.100000	0.960000	0.020000	-0.000000	-0.000000	0.000000
3.250000	-7.540000	0.130000	1.570000	7.610000	3.810000	-9.410000	-6.960000	3.950000	29.430000	6.010000	4.820000	-51.600000	-1.250000	2.110000	0.960000	0.020000	-0.000000	-0.000000	0.000000
3.260000	-7.650000	0.420000	1.620000	6.570000	3.590000	-9.780000	-6.230000	4.250000	30.260000	5.480000	5.060000	-48.940000	-0.190000	2.120000	0.960000	0.020000	-0.000000	-0.000000	0.000000
3.270000	-7.720000	0.680000	1.640000	5.490000	3.380000	-10.020000	-5.520000	4.590000	30.960000	4.960000	5.230000	-46.000000	0.830000	2.130000	0.960000	0.020000	-0.000000	-0.000000	0.000000
3.280000	-7.750000	0.920000	1.610000	4.380000	3.180000	-10.100000	-4.830000	4.960000	31.540000	4.460000	5.310000	-42.840000	1.730000	2.140000	0.960000	0.020000	-0.000000	-0.000000	0.000000
3.290000	-7.730000	1.160000	1.540000	3.220000	2.980000	-10.060000	-4.150000	5.380000	32.010000	3.960000	5.300000	-39.530000	2.420000	2.150000	0.960000	0.020000	-0.000000	-0.000000	0.000000
3.300000	-7.640000	1.400000	1.430000	1.980000	2.790000	-9.910000	-3.450000	5.830000	32.390000	3.480000	5.220000	-36.150000	2.790000	2.170000	0.960000	0.020000	-0.000000	-0.000000	0.000000
3.310000	-7.480000	1.610000	1.260000	0.680000	2.630000	-9.680000	-2.740000	6.310000	32.670000	3.070000	5.070000	-32.750000	2.790000	2.180000	0.960000	0.020000	-0.000000	-0.000000	0.000000
3.320000	-7.290000	1.760000	1.040000	-0.700000	2.530000	-9.390000	-2.010000	6.800000	32.840000	2.770000	4.850000	-29.360000	2.430000	2.190000	0.960000	0.020000	-0.000000	-0.000000	0.000000
3.330000	-7.060000	1.790000	0.740000	-2.120000	2.530000	-9.060000	-1.260000	7.280000	32.890000	2.650000	4.580000	-25.990000	1.810000	2.200000	0.950000	0.020000	-0.000000	-0.000000	0.000000
3.340000	-6.830000	1.670000	0.370000	-3.550000	2.680000	-8.710000	-0.530000	7.730000	32.830000	2.780000	4.260000	-22.650000	1.100000	2.210000	0.950000	0.020000	-0.000000	-0.000000	0.000000
3.350000	-6.630000	1.370000	-0.080000	-4.940000	2.990000	-8.340000	0.130000	8.170000	32.690000	3.170000	3.930000	-19.390000	0.460000	2.220000	0.950000	0.020000	-0.000000	-0.000000	0.000000
3.360000	-6.460000	0.890000	-0.570000	-6.250000	3.430000	-8.000000	0.690000	8.600000	32.490000	3.790000	3.610000	-16.260000	0.030000	2.240000	0.940000	0.010000	-0.000000	-0.000000	0.000000
3.370000	-6.360000	0.290000	-1.070000	-7.450000	3.970000	-7.720000	1.080000	9.040000	32.280000	4.560000	3.330000	-13.330000	-0.110000	2.250000	0.940000	0.010000	-0.000000	-0.000000	0.000000
3.380000	-6.320000	-0.360000	-1.530000	-8.480000	4.540000	-7.540000	1.280000	9.490000	32.090000	5.380000	3.100000	-10.690000	0.030000	2.260000	0.940000	0.010000	-0.000000	-0.000000	0.000000
3.390000	-6.360000	-0.970000	-1.940000	-9.330000	5.040000	-7.470000	1.270000	9.960000	31.960000	6.120000	2.900000	-8.390000	0.380000	2.280000	0.930000	0.010000	-0.000000	-0.000000	0.000000
3.400000	-6.490000	-1.450000	-2.270000	-9.970000	5.400000	-7.500000	1.030000	10.430000	31.920000	6.710000	2.670000	-6.480000	0.790000	2.290000	0.930000	0.010000	-0.000000	-0.000000	0.000000
3.410000	-6.700000	-1.760000	-2.490000	-10.380000	5.590000	-7.600000	0.560000	10.910000	31.980000	7.070000	2.380000	-4.990000	1.090000	2.300000	0.930000	0.000000	-0.000000	-0.000000	0.000000
3.420000	-7.010000	-1.900000	-2.580000	-10.580000	5.600000	-7.730000	-0.110000	11.370000	32.160000	7.170000	1.980000	-3.940000	1.150000	2.310000	0.930000	0.000000	-0.000000	-0.000000	0.000000
3.430000	-7.390000	-1.870000	-2.540000	-10.590000	5.450000	-7.850000	-0.980000	11.800000	32.440000	7.040000	1.480000	-3.350000	0.860000	2.330000	0.920000	-0.000000	-0.000000	-0.000000	0.000000
3.440000	-7.840000	-1.740000	-2.360000	-10.430000	5.200000	-7.950000	-2.040000	12.200000	32.840000	6.700000	0.880000	-3.200000	0.180000	2.340000	0.920000	-0.000000	-0.000000	-0.000000	0.000000
3.450000	-8.330000	-1.530000	-2.050000	-10.150000	4.880000	-8.000000	-3.280000	12.540000	33.310000	6.200000	0.230000	-3.480000	-0.860000	2.350000	0.920000	-0.010000	-0.000000	-0.000000	0.000000
3.460000	-8.840000	-1.280000	-1.650000	-9.780000	4.500000	-7.980000	-4.710000	12.740000	33.850000	5.580000	-0.410000	-4.130000	-2.170000	2.370000	0.920000	-0.010000	-0.000000	-0.000000	0.000000
3.470000	-9.340000	-1.000000	-1.200000	-9.320000	4.080000	-7.820000	-6.350000	12.720000	34.390000	4.890000	-0.980000	-5.100000	-3.610000	2.380000	0.920000	-0.010000	-0.000000	-0.000000	0.000000
3.480000	-9.790000	-0.680000	-0.760000	-8.800000	3.590000	-7.460000	-8.230000	12.360000	34.880000	4.160000	-1.430000	-6.290000	-5.010000	2.400000	0.920000	-0.010000	-0.000000	-0.000000	0.000000
3.490000	-10.170000	-0.330000	-0.370000	-8.200000	3.030000	-6.840000	-10.390000	11.520000	35.270000	3.440000	-1.730000	-7.640000	-6.190000	2.410000	0.920000	-0.010000	-0.000000	-0.000000	0.000000
3.500000	-10.450000	0.030000	-0.060000	-7.490000	2.410000	-5.950000	-12.880000	10.100000	35.530000	2.750000	-1.850000	-9.080000	-7.000000	2.430000	0.920000	-0.020000	-0.000000	-0.000000	0.000000
3.510000	-10.620000	0.420000	0.180000	-6.660000	1.730000	-4.830000	-15.710000	8.110000	35.620000	2.120000	-1.790000	-10.580000	-7.340000	2.440000	0.920000	-0.020000	-0.000000	-0.000000	0.000000
3.520000	-10.630000	0.840000	0.320000	-5.740000	0.990000	-3.610000	-18.830000	5.620000	35.530000	1.530000	-1.550000	-12.070000	-7.230000	2.460000	0.920000	-0.020000	-0.000000	-0.000000	0.000000
3.530000	-10.490000	1.310000	0.390000	-4.770000	0.170000	-2.460000	-22.100000	2.880000	35.240000	0.970000	-1.140000	-13.480000	-6.760000	2.470000	0.920000	-0.030000	-0.000000	-0.000000	0.000000
3.540000	-10.230000	1.840000	0.370000	-3.840000	-0.700000	-1.590000	-25.240000	0.280000	34.790000	0.410000	-0.620000	-14.670000	-6.150000	2.480000	0.920000	-0.030000	-0.000000	-0.000000	0.000000
3.550000	-9.940000	2.420000	0.310000	-3.050000	-1.590000	-1.280000	-27.830000	-1.650000	34.290000	-0.180000	-0.200000	-15.440000	-5.670000	2.490000	0.920000	-0.030000	-0.000000	-0.000000	0.000000
3.560000	-9.630000	3.160000	0.250000	-2.280000	-2.680000	-1.700000	-30.220000	-3.020000	33.690000	-0.980000	0.060000	-15.840000	-5.430000	2.500000	0.920000	-0.030000	-0.000000	-0.000000	0.000000
3.570000	-9.090000	4.570000	0.130000	-0.970000	-4.770000	-2.890000	-34.300000	-5.020000	32.610000	-2.530000	0.360000	-16.290000	-5.190000	2.510000	0.930000	-0.040000	-0.000000	-0.000000	0.000000
3.580000	-0.000000	0.000000	-0.000000	-0.000000	0.000000	-0.000000	-0.000000	-0.000000	-0.000000	0.000000	-0.000000	-0.000000	-0.000000	0.000000	0.000000	0.000000	-0.000000	-0.000000	0.000000
3.590000	-0.000000	0.000000	-0.000000	-0.000000	0.000000	-0.000000	-0.000000	-0.000000	-0.000000	0.000000	-0.000000	-0.000000	-0.000000	0.000000	0.000000	0.000000	-0.000000	-0.000000	0.000000
3.600000	-0.000000	0.000000	-0.000000	-0.000000	0.000000	-0.000000	-0.000000	-0.000000	-0.000000	0.000000	-0.000000	-0.000000	-0.000000	0.000000	0.000000	0.000000	-0.000000	-0.000000	0.000000
3.610000	-0.000000	0.000000	-0.000000	-0.000000	0.000000	-0.000000	-0.000000	-0.000000	-0.000000	0.000000	-0.000000	-0.000000	-0.000000	0.000000	0.000000	0.000000	-0.000000	-0.000000	0.000000
3.620000	-0.000000	0.000000	-0.000000	-0.000000	0.000000	-0.000000	-0.000000	-0.000000	-0.000000	0.000000	-0.000000	-0.000000	-0.000000	0.000000	0.000000	0.000000	-0.000000	-0.000000	0.000000
3.630000	-0.000000	0.000000	-0.000000	-0.000000	0.000000	-0.000000	-0.000000	-0.000000	-0.000000	0.000000	-0.000000	-0.000000	-0.000000	0.000000	0.000000	0.000000	-0.000000	-0.000000	0.000000
3.640000	-0.000000	0.000000	-0.000000	-0.000000	0.000000	-0.000000	-0.000000	-0.000000	-0.000000	0.000000	-0.000000	-0.000000	-0.000000	0.000000	0.000000	0.000000	-0.000000	-0.000000	0.000000
3.650000	-0.000000	0.000000	-0.000000	-0.000000	0.000000	-0.000000	-0.000000	-0.000000	-0.000000	0.000000	-0.000000	-0.000000	-0.000000	0.000000	0.000000	0.000000	-0.000000	-0.000000	0.000000
3.660000	-0.000000	0.000000	-0.000000	-0.000000	0.000000	-0.000000	-0.000000	-0.000000	-0.000000	0.000000	-0.000000	-0.000000	-0.000000	0.000000	0.000000	0.000000	-0.000000	-0.000000	0.000000
3.670000	-0.000000	0.000000	-0.000000	-0.000000	0.000000	-0.000000	-0.000000	-0.000000	-0.000000	0.000000	-0.000000	-0.000000	-0.000000	0.000000	0.000000	0.000000	-0.000000	-0.000000	0.000000
3.680000	-0.000000	0.000000	-0.000000	-0.000000	0.000000	-0.000000	-0.000000	-0.000000	-0.000000	0.000000	-0.000000	-0.000000	-0.000000	0.000000	0.000000	0.000000	-0.000000	-0.000000	0.000000
3.690000	-0.000000	0.000000	-0.000000	-0.000000	0.000000	-0.000000	-0.000000	-0.000000	-0.000000	0.000000	-0.000000	-0.000000	-0.000000	0.000000	0.000000	0.000000	-0.000000	-0.000000	0.000000
3.700000	-0.000000	0.000000	-0.000000	-0.000000	0.000000	-0.000000	-0.000000	-0.000000	-0.000000	0.000000	-0.000000	-0.000000	-0.000000	0.000000	0.000000	0.000000	-0.000000	-0.000000	0.000000
3.710000	-0.000000	0.000000	-0.000000	-0.000000	0.000000	-0.000000	-0.000000	-0.000000	-0.000000	0.000000	-0.000000	-0.000000	-0.000000	0.000000	0.000000	0.000000	-0.000000	-0.000000	0.000000
3.720000	-0.000000	0.000000	-0.000000	-0.000000	0.000000	-0.000000	-0.000000	-0.000000	-0.000000	0.000000	-0.000000	-0.000000	-0.000000	0.000000	0.000000	0.000000	-0.000000	-0.000000	0.000000
3.730000	-0.000000	0.000000	-0.000000	-0.000000	0.000000	-0.000000	-0.000000	-0.000000	-0.000000	0.000000	-0.000000	-0.000000	-0.000000	0.000000	0.000000	0.000000	-0.000000	-0.000000	0.000000
3.740000	-0.000000	0.000000	-0.000000	-0.000000	0.000000	-0.000000	-0.000000	-0.000000	-0.000000	0.000000	-0.000000	-0.000000	-0.000000	0.000000	0.000000	0.000000	-0.000000	-0.000000	0.000000
3.750000	-0.000000	0.000000	-0.000000	-0.000000	0.000000	-0.000000	-0.000000	-0.000000	-0.000000	0.000000	-0.000000	-0.000000	-0.000000	0.000000	0.000000	0.000000	-0.000000	-0.000000	0.000000
3.760000	-0.000000	0.000000	-0.000000	-0.000000	0.000000	-0.000000	-0.000000	-0.000000	-0.000000	0.000000	-0.000000	-0.000000	-0.000000	0.000000	0.000000	0.000000	-0.000000	-0.000000	0.000000
3.770000	-0.000000	0.000000	-0.000000	-0.000000	0.000000	-0.000000	-0.000000	-0.000000	-0.000000	0.000000	-0.000000	-0.000000	-0.000000	0.000000	0.000000	0.000000	-0.000000	-0.000000	0.000000
3.780000	-0.000000	0.000000	-0.000000	-0.000000	0.000000	-0.000000	-0.000000	-0.000000	-0.000000	0.000000	-0.000000	-0.000000	-0.000000	0.000000	0.000000	0.000000	-0.000000	-0.000000	0.000000
3.790000	-0.000000	0.000000	-0.000000	-0.000000	0.000000	-0.000000	-0.000000	-0.000000	-0.000000	0.000000	-0.000000	-0.000000	-0.000000	0.000000	0.000000	0.000000	-0.000000	-0.000000	0.000000
3.800000	-0.000000	0.000000	-0.000000	-0.000000	0.000000	-0.000000	-0.000000	-0.000000	-0.000000	0.000000	-0.000000	-0.000000	-0.000000	0.000000	0.000000	0.000000	-0.000000	-0.000000	0.000000
3.810000	-0.000000	0.000000	-0.000000	-0.000000	0.000000	-0.000000	-0.000000	-0.000000	-0.000000	0.000000	-0.000000	-0.000000	-0.000000	0.000000	0.000000	0.000000	-0.000000	-0.000000	0.000000
3.820000	-0.000000	0.000000	-0.000000	-0.000000	0.000000	-0.000000	-0.000000	-0.000000	-0.000000	0.000000	-0.000000	-0.000000	-0.000000	0.000000	0.000000	0.000000	-0.000000	-0.000000	0.000000
3.830000	-0.000000	0.000000	-0.000000	-0.000000	0.000000	-0.000000	-0.000000	-0.000000	-0.000000	0.000000	-0.000000	-0.000000	-0.000000	0.000000	0.000000	0.000000	-0.000000	-0.000000	0.000000
3.840000	-0.000000	0.000000	-0.000000	-0.000000	0.000000	-0.000000	-0.000000	-0.000000	-0.000000	0.000000	-0.000000	-0.000000	-0.000000	0.000000	0.000000	0.000000	-0.000000	-0.000000	0.000000
3.850000	-0.000000	0.000000	-0.000000	-0.000000	0.000000	-0.000000	-0.000000	-0.000000	-0.000000	0.000000	-0.000000	-0.000000	-0.000000	0.000000	0.000000	0.000000	-0.000000	-0.000000	0.000000
3.860000	-0.000000	0.000000	-0.000000	-0.000000	0.000000	-0.000000	-0.000000	-0.000000	-0.000000	0.000000	-0.000000	-0.000000	-0.000000	0.000000	0.000000	0.000000	-0.000000	-0.000000	0.000000
3.870000	-0.000000	0.000000	-0.000000	-0.000000	0.000000	-0.000000	-0.000000	-0.000000	-0.000000	0.000000	-0.000000	-0.000000	-0.000000	0.000000	0.000000	0.000000	-0.000000	-0.000000	0.000000
3.880000	-0.000000	0.000000	-0.000000	-0.000000	0.000000	-0.000000	-0.000000	-0.000000	-0.000000	0.000000	-0.000000	-0.000000	-0.000000	0.000000	0.000000	0.000000	-0.000000	-0.000000	0.000000
3.890000	-0.000000	0.000000	-0.000000	-0.000000	0.000000	-0.000000	-0.000000	-0.000000	-0.000000	0.000000	-0.000000	-0.000000	-0.000000	0.000000	0.000000	0.000000	-0.000000	-0.000000	0.000000
3.900000	-0.000000	0.000000	-0.000000	-0.000000	0.000000	-0.000000	-0.000000	-0.000000	-0.000000	0.000000	-0.000000	-0.000000	-0.000000	0.000000	0.000000	0.000000	-0.000000	-0.000000	0.000000
3.910000	-0.000000	0.000000	-0.000000	-0.000000	0.000000	-0.000000	-0.000000	-0.000000	-0.000000	0.000000	-0.000000	-0.000000	-0.000000	0.000000	0.000000	0.000000	-0.000000	-0.000000	0.000000
3.920000	-0.000000	0.000000	-0.000000	-0.000000	0.000000	-0.000000	-0.000000	-0.000000	-0.000000	0.000000	-0.000000	-0.000000	-0.000000	0.000000	0.000000	0.000000	-0.000000	-0.000000	0.000000
3.930000	-0.000000	0.000000	-0.000000	-0.000000	0.000000	-0.000000	-0.000000	-0.000000	-0.000000	0.000000	-0.000000	-0.000000	-0.000000	0.000000	0.000000	0.000000	-0.000000	-0.000000	0.000000
3.940000	-0.000000	0.000000	-0.000000	-0.000000	0.000000	-0.000000	-0.000000	-0.000000	-0.000000	0.000000	-0.000000	-0.000000	-0.000000	0.000000	0.000000	0.000000	-0.000000	-0.000000	0.000000
3.950000	-0.000000	0.000000	-0.000000	-0.000000	0.000000	-0.000000	-0.000000	-0.000000	-0.000000	0.000000	-0.000000	-0.000000	-0.000000	0.000000	0.000000	0.000000	-0.000000	-0.000000	0.000000
3.960000	-0.000000	0.000000	-0.000000	-0.000000	0.000000	-0.000000	-0.000000	-0.000000	-0.000000	0.000000	-0.000000	-0.000000	-0.000000	0.000000	0.000000	0.000000	-0.000000	-0.000000	0.000000
3.970000	-0.000000	0.000000	-0.000000	-0.000000	0.000000	-0.000000	-0.000000	-0.000000	-0.000000	0.000000	-0.000000	-0.000000	-0.000000	0.000000	0.000000	0.000000	-0.000000	-0.000000	0.000000
3.980000	-0.000000	0.000000	-0.000000	-0.000000	0.000000	-0.000000	-0.000000	-0.000000	-0.000000	0.000000	-0.000000	-0.000000	-0.000000	0.000000	0.000000	0.000000	-0.000000	-0.000000	0.000000
3.990000	-0.000000	0.000000	-0.000000	-0.000000	0.000000	-0.000000	-0.000000	-0.000000	-0.000000	0.000000	-0.000000	-0.000000	-0.000000	0.000000	0.000000	0.000000	-0.000000	-0.000000	0.000000
4.000000	-0.000000	0.000000	-0.000000	-0.000000	0.000000	-0.000000	-0.000000	-0.000000	-0.000000	0.000000	-0.000000	-0.000000	-0.000000	0.000000	0.000000	0.000000	-0.000000	-0.000000	0.000000
4.010000	-0.000000	0.000000	-0.000000	-0.000000	0.000000	-0.000000	-0.000000	-0.000000	-0.000000	0.000000	-0.000000	-0.000000	-0.000000	0.000000	0.000000	0.000000	-0.000000	-0.000000	0.000000
4.020000	-0.000000	0.000000	-0.000000	-0.000000	0.000000	-0.000000	-0.000000	-0.000000	-0.000000	0.000000	-0.000000	-0.000000	-0.000000	0.000000	0.000000	0.000000	-0.000000	-0.000000	0.000000
4.030000	-0.000000	0.000000	-0.000000	-0.000000	0.000000	-0.000000	-0.000000	-0.000000	-0.000000	0.000000	-0.000000	-0.000000	-0.000000	0.000000	0.000000	0.000000	-0.000000	-0.000000	0.000000
4.040000	-0.000000	0.000000	-0.000000	-0.000000	0.000000	-0.000000	-0.000000	-0.000000	-0.000000	0.000000	-0.000000	-0.000000	-0.000000	0.000000	0.000000	0.000000	-0.000000	-0.000000	0.000000
4.050000	-0.000000	0.000000	-0.000000	-0.000000	0.000000	-0.000000	-0.000000	-0.000000	-0.000000	0.000000	-0.000000	-0.000000	-0.000000	0.000000	0.000000	0.000000	-0.000000	-0.000000	0.000000
4.060000	-0.000000	0.000000	-0.000000	-0.000000	0.000000	-0.000000	-0.000000	-0.000000	-0.000000	0.000000	-0.000000	-0.000000	-0.000000	0.000000	0.000000	0.000000	-0.000000	-0.000000	0.000000
4.070000	-0.000000	0.000000	-0.000000	-0.000000	0.000000	-0.000000	-0.000000	-0.000000	-0.000000	0.000000	-0.000000	-0.000000	-0.000000	0.000000	0.000000	0.000000	-0.000000	-0.000000	0.000000
4.080000	-0.000000	0.000000	-0.000000	-0.000000	0.000000	-0.000000	-0.000000	-0.000000	-0.000000	0.000000	-0.000000	-0.000000	-0.000000	0.000000	0.000000	0.000000	-0.000000	-0.000000	0.000000
4.090000	-0.000000	0.000000	-0.000000	-0.000000	0.000000	-0.000000	-0.000000	-0.000000	-0.000000	0.000000	-0.000000	-0.000000	-0.000000	0.000000	0.000000	0.000000	-0.000000	-0.000000	0.000000
4.100000	-0.000000	0.000000	-0.000000	-0.000000	0.000000	-0.000000	-0.000000	-0.000000	-0.000000	0.000000	-0.000000	-0.000000	-0.000000	0.000000	0.000000	0.000000	-0.000000	-0.000000	0.000000
4.110000	-0.000000	0.000000	-0.000000	-0.000000	0.000000	-0.000000	-0.000000	-0.000000	-0.000000	0.000000	-0.000000	-0.000000	-0.000000	0.000000	0.000000	0.000000	-0.000000	-0.000000	0.000000
4.120000	-0.000000	0.000000	-0.000000	-0.000000	0.000000	-0.000000	-0.000000	-0.000000	-0.000000	0.000000	-0.000000	-0.000000	-0.000000	0.000000	0.000000	0.000000	-0.000000	-0.000000	0.000000
4.130000	-0.000000	0.000000	-0.000000	-0.000000	0.000000	-0.000000	-0.000000	-0.000000	-0.000000	0.000000	-0.000000	-0.000000	-0.000000	0.000000	0.000000	0.000000	-0.000000	-0.000000	0.000000
4.140000	-0.000000	0.000000	-0.000000	-0.000000	0.000000	-0.000000	-0.000000	-0.000000	-0.000000	0.000000	-0.000000	-0.000000	-0.000000	0.000000	0.000000	0.000000	-0.000000	-0.000000	0.000000
4.150000	-0.000000	0.000000	-0.000000	-0.000000	0.000000	-0.000000	-0.000000	-0.000000	-0.000000	0.000000	-0.000000	-0.000000	-0.000000	0.000000	0.000000	0.000000	-0.000000	-0.000000	0.000000
4.160000	-0.000000	0.000000	-0.000000	-0.000000	0.000000	-0.000000	-0.000000	-0.000000	-0.000000	0.000000	-0.000000	-0.000000	-0.000000	0.000000	0.000000	0.000000	-0.000000	-0.000000	0.000000
4.170000	-0.000000	0.000000	-0.000000	-0.000000	0.000000	-0.000000	-0.000000	-0.000000	-0.000000	0.000000	-0.000000	-0.000000	-0.000000	0.000000	0.000000	0.000000	-0.000000	-0.000000	0.000000
4.180000	-0.000000	0.000000	-0.000000	-0.000000	0.000000	-0.000000	-0.000000	-0.000000	-0.000000	0.000000	-0.000000	-0.000000	-0.000000	0.000000	0.000000	0.000000	-0.000000	-0.000000	0.000000
4.190000	-0.000000	0.000000	-0.000000	-0.000000	0.000000	-0.000000	-0.000000	-0.000000	-0.000000	0.000000	-0.000000	-0.000000	-0.000000	0.000000	0.000000	0.000000	-0.000000	-0.000000	0.000000
4.200000	-0.000000	0.000000	-0.000000	-0.000000	0.000000	-0.000000	-0.000000	-0.000000	-0.000000	0.000000	-0.000000	-0.000000	-0.000000	0.000000	0.000000	0.000000	-0.000000	-0.000000	0.000000
4.210000	-0.000000	0.000000	-0.000000	-0.000000	0.000000	-0.000000	-0.000000	-0.000000	-0.000000	0.000000	-0.000000	-0.000000	-0.000000	0.000000	0.000000	0.000000	-0.000000	-0.000000	0.000000
4.220000	-0.000000	0.000000	-0.000000	-0.000000	0.000000	-0.000000	-0.000000	-0.000000	-0.000000	0.000000	-0.000000	-0.000000	-0.000000	0.000000	0.000000	0.000000	-0.000000	-0.000000	0.000000
4.230000	-0.000000	0.000000	-0.000000	-0.000000	0.000000	-0.000000	-0.000000	-0.000000	-0.000000	0.000000	-0.000000	-0.000000	-0.000000	0.000000	0.000000	0.000000	-0.000000	-0.000000	0.000000
4.240000	-0.000000	0.000000	-0.000000	-0.000000	0.000000	-0.000000	-0.000000	-0.000000	-0.000000	0.000000	-0.000000	-0.000000	-0.000000	0.000000	0.000000	0.000000	-0.000000	-0.000000	0.000000
4.250000	-0.000000	0.000000	-0.000000	-0.000000	0.000000	-0.000000	-0.000000	-0.000000	-0.000000	0.000000	-0.000000	-0.000000	-0.000000	0.000000	0.000000	0.000000	-0.000000	-0.000000	0.000000
4.260000	-0.000000	0.000000	-0.000000	-0.000000	0.000000	-0.000000	-0.000000	-0.000000	-0.000000	0.000000	-0.000000	-0.000000	-0.000000	0.000000	0.000000	0.000000	-0.000000	-0.000000	0.000000
4.270000	-0.000000	0.000000	-0.000000	-0.000000	0.000000	-0.000000	-0.000000	-0.000000	-0.000000	0.000000	-0.000000	-0.000000	-0.000000	0.000000	0.000000	0.000000	-0.000000	-0.000000	0.000000
4.280000	-0.000000	0.000000	-0.000000	-0.000000	0.000000	-0.000000	-0.000000	-0.000000	-0.000000	0.000000	-0.000000	-0.000000	-0.000000	0.000000	0.000000	0.000000	-0.000000	-0.000000	0.000000
4.290000	-0.000000	0.000000	-0.000000	-0.000000	0.000000	-0.000000	-0.000000	-0.000000	-0.000000	0.000000	-0.000000	-0.000000	-0.000000	0.000000	0.000000	0.000000	-0.000000	-0.000000	0.000000
4.300000	-0.000000	0.000000	-0.000000	-0.000000	0.000000	-0.000000	-0.000000	-0.000000	-0.000000	0.000000	-0.000000	-0.000000	-0.000000	0.000000	0.000000	0.000000	-0.000000	-0.000000	0.000000
4.310000	-0.000000	0.000000	-0.000000	-0.000000	0.000000	-0.000000	-0.000000	-0.000000	-0.000000	0.000000	-0.000000	-0.000000	-0.000000	0.000000	0.000000	0.000000	-0.000000	-0.000000	0.000000
4.320000	-0.000000	0.000000	-0.000000	-0.000000	0.000000	-0.000000	-0.000000	-0.000000	-0.000000	0.000000	-0.000000	-0.000000	-0.000000	0.000000	0.000000	0.000000	-0.000000	-0.000000	0.000000
4.330000	-0.000000	0.000000	-0.000000	-0.000000	0.000000	-0.000000	-0.000000	-0.000000	-0.000000	0.000000	-0.000000	-0.000000	-0.000000	0.000000	0.000000	0.000000	-0.000000	-0.000000	0.000000
4.340000	-0.000000	0.000000	-0.000000	-0.000000	0.000000	-0.000000	-0.000000	-0.000000	-0.000000	0.000000	-0.000000	-0.000000	-0.000000	0.000000	0.000000	0.000000	-0.000000	-0.000000	0.000000
4.350000	-0.000000	0.000000	-0.000000	-0.000000	0.000000	-0.000000	-0.000000	-0.000000	-0.000000	0.000000	-0.000000	-0.000000	-0.000000	0.000000	0.000000	0.000000	-0.000000	-0.000000	0.000000
4.360000	-0.000000	0.000000	-0.000000	-0.000000	0.000000	-0.000000	-0.000000	-0.000000	-0.000000	0.000000	-0.000000	-0.000000	-0.000000	0.000000	0.000000	0.000000	-0.000000	-0.000000	0.000000
4.370000	-0.000000	0.000000	-0.000000	-0.000000	0.000000	-0.000000	-0.000000	-0.000000	-0.000000	0.000000	-0.000000	-0.000000	-0.000000	0.000000	0.000000	0.000000	-0.000000	-0.000000	0.000000
4.380000	-0.000000	0.000000	-0.000000	-0.000000	0.000000	-0.000000	-0.000000	-0.000000	-0.000000	0.000000	-0.000000	-0.000000	-0.000000	0.000000	0.000000	0.000000	-0.000000	-0.000000	0.000000
4.390000	-0.000000	0.000000	-0.000000	-0.000000	0.000000	-0.000000	-0.000000	-0.000000	-0.000000	0.000000	-0.000000	-0.000000	-0.000000	0.000000	0.000000	0.000000	-0.000000	-0.000000	0.000000
4.400000	-0.000000	0.000000	-0.000000	-0.000000	0.000000	-0.000000	-0.000000	-0.000000	-0.000000	0.000000	-0.000000	-0.000000	-0.000000	0.000000	0.000000	0.000000	-0.000000	-0.000000	0.000000
4.410000	-0.000000	0.000000	-0.000000	-0.000000	0.000000	-0.000000	-0.000000	-0.000000	-0.000000	0.000000	-0.000000	-0.000000	-0.000000	0.000000	0.000000	0.000000	-0.000000	-0.000000	0.000000
4.420000	-0.000000	0.000000	-0.000000	-0.000000	0.000000	-0.000000	-0.000000	-0.000000	-0.000000	0.000000	-0.000000	-0.000000	-0.000000	0.000000	0.000000	0.000000	-0.000000	-0.000000	0.000000
4.430000	-0.000000	0.000000	-0.000000	-0.000000	0.000000	-0.000000	-0.000000	-0.000000	-0.000000	0.000000	-0.000000	-0.000000	-0.000000	0.000000	0.000000	0.000000	-0.000000	-0.000000	0.000000
4.440000	-0.000000	0.000000	-0.000000	-0.000000	0.000000	-0.000000	-0.000000	-0.000000	-0.000000	0.000000	-0.000000	-0.000000	-0.000000	0.000000	0.000000	0.000000	-0.000000	-0.000000	0.000000
4.450000	-0.000000	0.000000	-0.000000	-0.000000	0.000000	-0.000000	-0.000000	-0.000000	-0.000000	0.000000	-0.000000	-0.000000	-0.000000	0.000000	0.000000	0.000000	-0.000000	-0.000000	0.000000
4.460000	-0.000000	0.000000	-0.000000	-0.000000	0.000000	-0.000000	-0.000000	-0.000000	-0.000000	0.000000	-0.000000	-0.000000	-0.000000	0.000000	0.000000	0.000000	-0.000000	-0.000000	0.000000
4.470000	-0.000000	0.000000	-0.000000	-0.000000	0.000000	-0.000000	-0.000000	-0.000000	-0.000000	0.000000	-0.000000	-0.000000	-0.000000	0.000000	0.000000	0.000000	-0.000000	-0.000000	0.000000
4.480000	-0.000000	0.000000	-0.000000	-0.000000	0.000000	-0.000000	-0.000000	-0.000000	-0.000000	0.000000	-0.000000	-0.000000	-0.000000	0.000000	0.000000	0.000000	-0.000000	-0.000000	0.000000
4.490000	-0.000000	0.000000	-0.000000	-0.000000	0.000000	-0.000000	-0.000000	-0.000000	-0.000000	0.000000	-0.000000	-0.000000	-0.000000	0.000000	0.000000	0.000000	-0.000000	-0.000000	0.000000
4.500000	-0.000000	0.000000	-0.000000	-0.000000	0.000000	-0.000000	-0.000000	-0.000000	-0.000000	0.000000	-0.000000	-0.000000	-0.000000	0.000000	0.000000	0.000000	-0.000000	-0.000000	0.000000
4.510000	-0.000000	0.000000	-0.000000	-0.000000	0.000000	-0.000000	-0.000000	-0.000000	-0.000000	0.000000	-0.000000	-0.000000	-0.000000	0.000000	0.000000	0.000000	-0.000000	-0.000000	0.000000
4.520000	-0.000000	0.000000	-0.000000	-0.000000	0.000000	-0.000000	-0.000000	-0.000000	-0.000000	0.000000	-0.000000	-0.000000	-0.000000	0.000000	0.000000	0.000000	-0.000000	-0.000000	0.000000
4.530000	-0.000000	0.000000	-0.000000	-0.000000	0.000000	-0.000000	-0.000000	-0.000000	-0.000000	0.000000	-0.000000	-0.000000	-0.000000	0.000000	0.000000	0.000000	-0.000000	-0.000000	0.000000
4.540000	-0.000000	0.000000	-0.000000	-0.000000	0.000000	-0.000000	-0.000000	-0.000000	-0.000000	0.000000	-0.000000	-0.000000	-0.000000	0.000000	0.000000	0.000000	-0.000000	-0.000000	0.000000
4.550000	-0.000000	0.000000	-0.000000	-0.000000	0.000000	-0.000000	-0.000000	-0.000000	-0.000000	0.000000	-0.000000	-0.000000	-0.000000	0.000000	0.000000	0.000000	-0.000000	-0.000000	0.000000
