PathFileType	4	(X/Y/Z)	static_from_script.trc
DataRate	CameraRate	NumFrames	NumMarkers	Units	OrigDataRate	OrigDataStartFrame	OrigNumFrames
100.000000	100.000000	6	9	mm	100.000000	1	6
Frame#	Time	RASIS			LASIS			RKNEE			LKNEE			RANKLE			LANKLE			RTOE			LTOE			PELVIS		
		X1	Y1	Z1	X2	Y2	Z2	X3	Y3	Z3	X4	Y4	Z4	X5	Y5	Z5	X6	Y6	Z6	X7	Y7	Z7	X8	Y8	Z8	X9	Y9	Z9
1	0.000000	229.682351	888.597507	-140.478965	247.718924	897.094699	54.476714	10.133294	523.188986	-143.380398	372.271922	485.884039	57.496746	-44.808223	102.943125	-172.861559	660.003139	179.160501	49.320048	-217.231012	56.294255	-189.786476	588.913217	29.152804	36.912611	253.117687	988.630307	-48.529950
2	0.010000	229.682351	888.597507	-140.478965	247.718924	897.094699	54.476714	10.133294	523.188986	-143.380398	372.271922	485.884039	57.496746	-44.808223	102.943125	-172.861559	660.003139	179.160501	49.320048	-217.231012	56.294255	-189.786476	588.913217	29.152804	36.912611	253.117687	988.630307	-48.529950
3	0.020000	229.682351	888.597507	-140.478965	247.718924	897.094699	54.476714	10.133294	523.188986	-143.380398	372.271922	485.884039	57.496746	-44.808223	102.943125	-172.861559	660.003139	179.160501	49.320048	-217.231012	56.294255	-189.786476	588.913217	29.152804	36.912611	253.117687	988.630307	-48.529950
4	0.030000	229.682351	888.597507	-140.478965	247.718924	897.094699	54.476714	10.133294	523.188986	-143.380398	372.271922	485.884039	57.496746	-44.808223	102.943125	-172.861559	660.003139	179.160501	49.320048	-217.231012	56.294255	-189.786476	588.913217	29.152804	36.912611	253.117687	988.630307	-48.529950
5	0.040000	229.682351	888.597507	-140.478965	247.718924	897.094699	54.476714	10.133294	523.188986	-143.380398	372.271922	485.884039	57.496746	-44.808223	102.943125	-172.861559	660.003139	179.160501	49.320048	-217.231012	56.294255	-189.786476	588.913217	29.152804	36.912611	253.117687	988.630307	-48.529950
6	0.050000	229.682351	888.597507	-140.478965	247.718924	897.094699	54.476714	10.133294	523.188986	-143.380398	372.271922	485.884039	57.496746	-44.808223	102.943125	-172.861559	660.003139	179.160501	49.320048	-217.231012	56.294255	-189.786476	588.913217	29.152804	36.912611	253.117687	988.630307	-48.529950
