PathFileType	4	(X/Y/Z)	Static.trc
DataRate	CameraRate	NumFrames	NumMarkers	Units	OrigDataRate	OrigDataStartFrame	OrigNumFrames
100.000000	100.000000	6	9	mm	100.000000	1	6
Frame#	Time	RASIS			LASIS			RKNEE			LKNEE			RANKLE			LANKLE			RTOE			LTOE			PELVIS		
		X1	Y1	Z1	X2	Y2	Z2	X3	Y3	Z3	X4	Y4	Z4	X5	Y5	Z5	X6	Y6	Z6	X7	Y7	Z7	X8	Y8	Z8	X9	Y9	Z9
1	0.000000	27.560793	-94.109007	96.577250	27.560743	-94.108979	-96.577261	104.417267	-518.251446	107.745939	117.449905	-518.945971	-105.611962	139.835320	-935.296306	146.292647	165.609691	-935.027975	-129.328954	316.350225	-970.493292	178.219267	339.347730	-966.883639	-129.666231	0.000000	0.000000	0.000000
2	0.010000	27.560793	-94.109007	96.577250	27.560743	-94.108979	-96.577261	104.417267	-518.251446	107.745939	117.449905	-518.945971	-105.611962	139.835320	-935.296306	146.292647	165.609691	-935.027975	-129.328954	316.350225	-970.493292	178.219267	339.347730	-966.883639	-129.666231	0.000000	0.000000	0.000000
3	0.020000	27.560793	-94.109007	96.577250	27.560743	-94.108979	-96.577261	104.417267	-518.251446	107.745939	117.449905	-518.945971	-105.611962	139.835320	-935.296306	146.292647	165.609691	-935.027975	-129.328954	316.350225	-970.493292	178.219267	339.347730	-966.883639	-129.666231	0.000000	0.000000	0.000000
4	0.030000	27.560793	-94.109007	96.577250	27.560743	-94.108979	-96.577261	104.417267	-518.251446	107.745939	117.449905	-518.945971	-105.611962	139.835320	-935.296306	146.292647	165.609691	-935.027975	-129.328954	316.350225	-970.493292	178.219267	339.347730	-966.883639	-129.666231	0.000000	0.000000	0.000000
5	0.040000	27.560793	-94.109007	96.577250	27.560743	-94.108979	-96.577261	104.417267	-518.251446	107.745939	117.449905	-518.945971	-105.611962	139.835320	-935.296306	146.292647	165.609691	-935.027975	-129.328954	316.350225	-970.493292	178.219267	339.347730	-966.883639	-129.666231	0.000000	0.000000	0.000000
6	0.050000	27.560793	-94.109007	96.577250	27.560743	-94.108979	-96.577261	104.417267	-518.251446	107.745939	117.449905	-518.945971	-105.611962	139.835320	-935.296306	146.292647	165.609691	-935.027975	-129.328954	316.350225	-970.493292	178.219267	339.347730	-966.883639	-129.666231	0.000000	0.000000	0.000000
