Inverse Dynamics Generalized Forces
version=1
nRows=158
nColumns=24
inDegrees=no
endheader
time	pelvis_tilt_moment	pelvis_list_moment	pelvis_rotation_moment	pelvis_tx_force	pelvis_ty_force	pelvis_tz_force	hip_flexion_r_moment	hip_adduction_r_moment	hip_rotation_r_moment	hip_flexion_l_moment	hip_adduction_l_moment	hip_rotation_l_moment	lumbar_extension_moment	lumbar_bending_moment	lumbar_rotation_moment	knee_angle_r_moment	knee_angle_l_moment	ankle_angle_r_moment	ankle_angle_l_moment	subtalar_angle_r_moment	subtalar_angle_l_moment	mtp_angle_r_moment	mtp_angle_l_moment
      0.00000000	     65.08278161	    154.44470079	    -12.51522860	     26.02824485	    337.50599422	    329.97224410	     19.16372793	     -2.79189518	      0.01211555	    -79.15570285	    -16.38021449	      1.14595316	     29.24535403	   -129.13322598	     -7.22253046	     -0.20827958	    -45.38185822	      0.85734008	     -0.42990366	     -0.24943686	     -0.82910369	      0.05137660	      0.05048065
      0.01000000	     69.96723023	    146.18569121	    -10.43181095	     22.78887047	    320.46761929	    322.52803424	     19.10125046	     -3.09550305	      0.01412867	    -81.71623081	    -19.15815107	      1.25399210	     26.36313663	   -123.85766463	     -7.50421991	     -0.22654980	    -45.57590122	      0.87630946	     -0.85745324	     -0.26899175	     -0.82091133	      0.05329242	      0.03008974
      0.02000000	     90.63864131	    109.54906288	     -4.36559405	     24.43528488	    333.48978532	    257.03248901	     18.56060101	     -1.40552524	     -0.31260269	    -85.11642309	    -16.61030255	      0.91251040	     13.57559637	    -96.18965407	     -8.51935032	     -0.13247875	    -47.31305570	      0.87981187	     -1.36606944	     -0.24699077	     -0.62015136	      0.05465640	      0.01219510
      0.03000000	    103.02864324	     73.24678893	      4.41031801	     27.85318513	    364.56583286	    181.03481468	     19.13809774	     -0.58876119	     -0.37398386	    -82.98265158	    -13.25010840	      0.52328426	      2.28161129	    -67.64975252	     -7.54617229	      0.49940137	    -46.71112184	      0.96968699	     -1.71729090	     -0.22177159	     -0.42568067	      0.05961375	     -0.00345997
      0.04000000	    103.36826875	     28.51092722	     17.67054535	     48.89356287	    398.57908677	     81.06835111	     20.71642434	     -1.66356887	     -0.01036050	    -76.87525153	    -10.77691005	      0.20754188	     -5.15490849	    -31.30451034	     -5.41581293	      1.72244940	    -44.60300570	      1.13565184	     -1.88666992	     -0.24084408	     -0.30479942	      0.06649050	     -0.01491114
      0.05000000	     86.55987020	    -16.94037652	     33.64714672	     98.35714654	    431.13091917	    -24.71600661	     22.87140293	     -5.12606851	      0.82923681	    -67.36503215	    -11.00070115	      0.12130367	     -3.91149810	      6.72066918	     -2.44231315	      3.34454930	    -40.88414987	      1.47164521	     -1.71354746	     -0.36683029	     -0.33681930	      0.07908176	     -0.01530946
      0.06000000	     60.89930364	    -47.10904689	     47.00007329	    145.11570115	    477.08883556	    -91.05884448	     26.15967114	     -8.57749721	      1.62759276	    -55.03058594	    -14.25531301	      0.39952849	      2.68041820	     31.25431015	      0.73192810	      5.28063916	    -35.67385586	      2.03922166	     -1.09518166	     -0.56675768	     -0.53156083	      0.10094638	      0.00096399
      0.07000000	     31.45676073	    -52.00064839	     53.02303689	    177.66992408	    526.25239881	    -96.74601790	     30.84210749	    -10.06097830	      1.86888140	    -42.02873455	    -18.59381939	      0.98130963	     12.80292448	     34.11260358	      3.72252149	      7.43617336	    -29.54116874	      2.72637290	     -0.11160229	     -0.74582407	     -0.81428358	      0.12800881	      0.03247954
      0.08000000	     40.63128745	     25.00239812	     22.45877995	     73.64156811	   -140.09422709	    -89.99178323	     36.33705375	     -9.32202010	      1.40181045	   -144.97161544	    -20.31444850	     -4.68054350	     26.45002590	     23.95821128	      5.74005933	      9.45291361	    -59.88028468	      3.37739693	    -43.68019268	     -0.83814410	     -9.82721296	      0.15427722	      0.07109414
      0.09000000	    145.48440974	     55.57286435	     16.30564379	    241.23619594	   -198.16176649	    -67.04289272	     41.85290117	     -6.91765263	      0.37091521	   -276.09011157	     -4.80232234	     -1.52843290	     42.97008764	     14.51810329	      5.91662195	     11.04647578	   -129.54149084	      3.89172678	    -67.74361868	     -0.83336186	     -2.13203880	      0.17568612	      0.10575492
      0.10000000	     63.95107719	     49.17523389	     12.50725339	    197.34684853	   -170.89410375	    -28.71017788	     45.56595781	     -4.29047080	     -0.83157820	   -219.42579548	    -21.39743951	     -0.60838148	     58.28172442	     12.12790124	      4.28874410	     11.46233545	    -85.65897268	      4.21692774	    -61.50353987	     -0.76637789	     -7.13793447	      0.19066895	      0.13068910
      0.11000000	      0.97443623	     23.45457203	     12.51640135	    130.86460524	     51.23004779	    -12.05281975	     47.14082233	     -2.41030952	     -1.86276778	   -142.90893791	    -32.61366906	      5.15374534	     61.98218052	     14.02553988	      1.59209023	     10.47800150	    -40.81713256	      4.32607649	    -46.71476831	     -0.66724308	     -9.08819087	      0.19780886	      0.14391021
      0.12000000	      7.86964802	      2.20806587	     18.68845094	     30.00234287	    106.84320511	     11.28321544	     45.79988824	     -1.47203401	     -2.50505727	   -131.54431365	    -60.31128957	     14.26632959	     53.35510727	     14.09308623	     -1.56009579	      8.04534819	    -22.51328246	      4.21231059	    -49.47144652	     -0.55630333	    -16.58540063	      0.19633579	      0.14815597
      0.13000000	     38.10569263	     -5.54930304	     28.50163839	   -114.86561647	    157.83312236	     49.26815709	     42.92594176	     -1.51791544	     -2.56387205	   -125.67359896	    -90.47134200	     18.20225652	     33.38869801	      5.71121987	     -4.47614465	      5.08727883	     -8.33604750	      3.94930435	    -59.74172385	     -0.46638225	    -25.87384475	      0.18732740	      0.14505820
      0.14000000	    104.48446318	     17.14669254	     26.51743013	   -229.92742192	    102.01083150	     84.40615541	     39.07637668	     -3.30251565	     -1.63033214	   -161.51289155	   -106.62977440	     23.86430784	     12.17618787	    -13.02407295	     -5.88037642	      2.48913034	    -12.30727275	      3.61163677	    -88.06315927	     -0.44464071	    -30.93940113	      0.17179031	      0.13674148
      0.15000000	    147.97038832	     72.06781430	      6.75836893	   -304.10496609	     52.24073519	    105.95684121	     35.78569957	     -4.96834183	     -0.32462347	   -180.22563345	    -91.79742729	     24.19491068	     -3.60895126	    -39.77490753	     -5.34084337	      1.23122803	     -5.83869053	      3.25676958	   -109.11207752	     -0.44663743	    -30.24551016	      0.15197767	      0.12299890
      0.16000000	    189.79317711	     93.16771043	      6.91651927	   -296.96122476	    -21.72157791	    147.33121526	     33.58609031	     -4.84950274	      0.23568170	   -216.04897131	   -101.81839285	     29.40513161	     -9.32496619	    -59.44450288	     -3.07420203	      1.55721862	    -11.86789552	      2.91712445	   -131.37159857	     -0.38793025	    -33.68453964	      0.13145682	      0.10508682
      0.17000000	    197.14985823	     86.09110583	     10.84713113	   -248.94669221	   -115.28236289	    160.07353786	     32.12402953	     -1.59581562	     -1.03135500	   -239.52947519	   -112.64579868	     33.92731928	     -3.43442481	    -59.50373840	     -0.03438918	      2.95547784	    -13.06209212	      2.63764060	   -153.70511061	     -0.20431676	    -36.37862723	      0.11573471	      0.08618932
      0.18000000	    169.14081794	     47.69396521	     19.84282321	   -174.10963367	   -223.74089106	    139.54407532	     30.58141097	      3.25063861	     -3.66699331	   -247.00622520	   -126.83936508	     39.27806645	     12.64157367	    -37.85320310	      3.28237938	      4.76758346	     -7.09116761	      2.44584311	   -174.45381259	      0.05305178	    -39.37844805	      0.10688362	      0.06915342
      0.19000000	    141.67050304	     -4.95104959	     34.75815147	    -70.28522794	   -343.10948402	     79.49223621	     27.76052691	      6.14408822	     -5.81220532	   -263.30738758	   -141.59709580	     45.68343157	     33.97488031	     -2.81137512	      7.18610375	      6.17220044	     -8.34953301	      2.27735052	   -199.66845447	      0.25945065	    -42.30919635	      0.10036030	      0.05562405
      0.20000000	    100.83990701	    -41.59211975	     47.16931507	     17.13506167	   -433.36597965	     -3.16011712	     23.04500191	      6.15804742	     -6.43537544	   -260.70775368	   -146.50696007	     46.20408961	     55.27910407	     30.30715986	     11.48794736	      6.59103685	     -1.00609614	      2.04517572	   -219.21212843	      0.35690479	    -44.52636110	      0.09130711	      0.04547461
      0.21000000	     73.46884228	    -56.62686447	     55.37921394	     96.85303244	   -497.44058223	    -87.97239121	     16.59721931	      3.44575895	     -5.24647186	   -260.44473002	   -143.49399087	     43.93978538	     73.31664424	     53.36603714	     15.49219232	      5.89025229	      2.17477457	      1.74810810	   -238.08649631	      0.32437008	    -45.09034762	      0.07919691	      0.03933110
      0.22000000	     56.64748176	    -55.61719405	     59.42267761	    155.91564097	   -551.59847065	   -128.67117440	      9.09031369	     -0.99618489	     -2.51896278	   -258.83995502	   -145.99877731	     44.11568773	     85.55678005	     58.65101073	     18.24737210	      4.48346226	      4.78284829	      1.42731784	   -254.70160858	      0.17225344	    -45.94280168	      0.06517484	      0.03750900
      0.23000000	     56.69802431	    -28.21456939	     54.29398386	    167.64859261	   -579.17049488	   -108.93525507	      2.30245085	     -6.25127862	      1.25505098	   -254.02513101	   -148.91740592	     43.85082487	     86.90997561	     40.30962029	     19.47342238	      2.93308329	      5.76153758	      1.16972263	   -268.69317023	     -0.07699644	    -45.70743608	      0.05239193	      0.04035478
      0.24000000	     66.92326531	     17.75819389	     41.21119187	    127.95644024	   -605.94499812	    -37.89702419	     -2.23120488	    -10.73046285	      4.86277484	   -244.80945708	   -152.34663619	     42.12078188	     77.67530927	      4.79562464	     19.10894963	      1.90394557	      6.01328193	      1.02990395	   -281.56149410	     -0.33942946	    -45.66478529	      0.04377684	      0.04568168
      0.25000000	     75.04723128	     64.19040132	     23.21193602	     72.13265067	   -631.98714539	     50.30034566	     -4.08196502	    -12.95772841	      6.94677214	   -232.32216974	   -151.70780840	     38.43966521	     65.53900594	    -31.27441927	     16.98260456	      1.49324624	      3.93787777	      1.00202219	   -293.20816848	     -0.51192395	    -42.81342909	      0.04102715	      0.05089201
      0.26000000	     78.13378766	     92.85588460	      7.02997040	     14.09791587	   -647.79280083	    142.15969819	     -3.10537756	    -12.05730140	      6.76150727	   -217.77118719	   -151.49722581	     34.29862344	     52.91652155	    -58.01127184	     13.17717687	      1.52797864	     -1.62029593	      1.06043401	   -300.04489019	     -0.53582196	    -39.39172265	      0.04436213	      0.05382219
      0.27000000	     82.71682860	     95.73199761	     -3.03569368	    -31.95562764	   -657.87025631	    208.80988831	     -0.17584310	     -8.89872902	      4.75523662	   -208.03583439	   -152.08553489	     29.74432656	     40.26119891	    -67.27593136	      8.27365357	      1.63228121	    -12.92732230	      1.16249639	   -304.84255069	     -0.43339408	    -35.55728876	      0.05166384	      0.05404064
      0.28000000	     86.68934114	     73.09424276	     -7.84542145	    -77.65419389	   -644.28205519	    251.02158837	      3.97947935	     -4.10576508	      1.73536395	   -197.22904151	   -153.02775530	     24.98379602	     26.91525812	    -59.08325408	      2.76807775	      1.75162107	    -26.84088636	      1.26810616	   -306.92100526	     -0.25485386	    -30.45879166	      0.05968375	      0.05080822
      0.29000000	     92.55493423	     36.51966207	     -6.84524641	   -124.31850379	   -595.64345807	    259.35484039	      8.12388907	     -0.51742318	     -0.35677920	   -183.52632987	   -153.95043042	     19.63575210	     12.45851611	    -40.14836935	     -1.36892342	      1.89935397	    -41.42790712	      1.36764832	   -304.73449724	     -0.13054044	    -25.59951515	      0.06494445	      0.04462544
      0.30000000	    101.28406241	      1.67522548	     -3.24586865	   -175.35457434	   -510.88453781	    232.93969210	     11.33476013	     -0.13981920	     -0.22127285	   -166.11841253	   -150.73537048	     13.66698739	     -2.81598253	    -17.38783901	     -2.73815915	      1.73719928	    -53.68941315	      1.50119188	   -299.48302591	     -0.16004646	    -19.91963282	      0.06802952	      0.03728117
      0.31000000	    127.57528896	    -37.78982844	      6.45283999	   -191.39720403	   -417.09158234	    146.27899188	     12.53510709	     -3.63773250	      2.19639509	   -165.63866165	   -143.06221133	      8.75384488	    -15.52799899	     15.63180200	     -1.63812483	      0.89013343	    -72.43143902	      1.69334246	   -294.18939235	     -0.35558076	    -14.99958550	      0.07132773	      0.03001256
      0.32000000	    147.92945617	    -77.16818050	     19.81447064	   -179.29634896	   -318.35210983	      9.17095649	     11.43118710	     -8.51618885	      5.09445848	   -166.32418630	   -126.24720716	      2.75273753	    -20.89491904	     58.07722313	      0.77616209	     -1.18149736	    -88.81692487	      1.95524753	   -288.39054564	     -0.60197394	     -9.73131020	      0.07976591	      0.02539869
      0.33000000	    142.22933713	   -116.73834166	     34.25823101	   -141.64546297	   -223.20810273	   -136.99105805	      7.99098137	    -11.54385411	      6.45408783	   -154.23201780	   -108.00142234	     -1.50790223	    -15.73771799	    100.19250077	      3.88161856	     -4.63627945	    -94.13220846	      2.23739387	   -276.71983322	     -0.75042608	     -5.45987956	      0.09519038	      0.02497832
      0.34000000	    131.92716029	   -148.17499381	     48.18338773	    -84.66910735	   -132.63719870	   -255.54495915	      4.00204775	    -10.49056441	      5.50945999	   -145.75850319	    -88.77231726	     -4.51700283	     -4.16376001	    133.45528881	      6.71559216	     -8.85769377	    -98.06449961	      2.49867994	   -261.70968217	     -0.73035727	     -2.53171181	      0.11591427	      0.02883182
      0.35000000	    103.60076256	   -171.16348302	     58.00310978	    -23.98471789	    -70.63441253	   -336.39292186	     -0.83874857	     -5.77577782	      3.05664185	   -127.12346909	    -70.18187007	     -6.43707923	     11.70867037	    157.48428971	      8.15495361	    -13.20945405	    -92.49732541	      2.63472996	   -241.87274603	     -0.57083708	     -0.62128989	      0.13498604	      0.03466741
      0.36000000	     77.96008651	   -187.20973321	     61.93379625	     18.31097705	    -26.05615447	   -375.87925012	     -6.32262476	      1.28411947	      0.09373266	   -107.33430552	    -52.63353776	     -7.01720173	     24.26897654	    172.90686598	      7.45548207	    -17.08336794	    -83.61483687	      2.57107646	   -218.35844942	     -0.33084650	      0.84714209	      0.14603315	      0.04161419
      0.37000000	     67.66944864	   -199.31384839	     59.41366088	     52.94085118	      4.77155678	   -367.52209322	    -13.68585104	      8.95148636	     -2.54884523	    -93.34997816	    -40.59177927	     -5.88855453	     30.53013231	    178.54086665	      4.44935649	    -20.54977193	    -75.23777318	      2.27805401	   -190.44686868	     -0.08549395	      0.29100966	      0.14567400	      0.04877434
      0.38000000	     73.61080519	   -202.58467549	     49.50042385	     54.38540412	     20.65389443	   -335.58695137	    -22.67836776	     14.35710017	     -4.18488341	    -79.86897683	    -30.02238776	     -4.12198806	     25.14505776	    176.45159686	      0.04367957	    -23.65004239	    -66.41269423	      1.82372384	   -163.07039492	      0.06729541	      1.50108061	      0.13452709	      0.05669699
      0.39000000	     86.44440217	   -194.24016174	     32.87920068	     40.12674075	     52.97985641	   -275.45668295	    -33.23023334	     16.22599858	     -4.74980630	    -60.31302457	    -23.32703422	     -2.01133602	     11.90044367	    163.39193207	     -4.51269684	    -26.80225584	    -52.12102329	      1.32724015	   -131.24600736	      0.07178584	      1.71716528	      0.11737859	      0.06595212
      0.40000000	    101.32877800	   -166.57372475	     13.53667214	     27.24574437	     87.96255998	   -206.92708862	    -42.92622133	     13.07738515	     -4.27614683	    -40.84006405	    -16.22611406	     -0.58750263	     -3.92116582	    138.77308432	     -7.62187499	    -29.32171931	    -37.84889864	      0.85469769	    -99.90930507	     -0.08272517	      2.83408456	      0.09580473	      0.07487157
      0.41000000	    109.18071413	   -120.56341049	     -5.18636269	     44.51574257	    132.91516253	   -129.89650578	    -51.13075038	      5.86796641	     -3.19844941	    -24.41912612	     -9.71398984	      0.43816963	    -13.28715578	    102.52237036	     -8.24176085	    -31.28675412	    -25.40305676	      0.41543355	    -70.10292447	     -0.33216829	      3.98090230	      0.07198902	      0.08323899
      0.42000000	     96.22380154	    -67.11747748	    -20.32840068	     81.57275117	    151.01340630	    -55.68779347	    -57.73386219	     -3.18801320	     -2.01283167	     -3.51960505	     -7.65040778	      0.61910462	    -14.28874454	     60.79699500	     -6.02580458	    -32.82195751	    -10.78100195	     -0.02193184	    -45.90348663	     -0.57749703	      3.71386346	      0.04739057	      0.09132464
      0.43000000	     78.33338860	    -18.58139904	    -30.91500817	    126.97241520	    158.26516973	     16.86830722	    -62.42613508	    -10.78238263	     -1.10496829	     12.16973330	    -10.00526999	      1.28564391	     -9.89706707	     20.44816916	     -1.79051058	    -34.01062535	      0.11370158	     -0.45788257	    -28.01685683	     -0.72339269	      2.41520237	      0.02466154	      0.09996211
      0.44000000	     69.26556642	     17.01920815	    -36.17475697	    157.81954721	    173.03712887	     73.16428126	    -64.59425464	    -15.59007023	     -0.49709228	     17.82342106	    -13.63729594	      2.49288138	     -5.63252885	    -11.50030201	      3.37733100	    -34.70903609	      3.74457964	     -0.87160405	    -15.42064773	     -0.74298338	      1.23833274	      0.00541822	      0.10864258
      0.45000000	     65.02644118	     37.03752656	    -38.50054437	    162.66598456	    193.83253119	    119.68927280	    -65.11749403	    -16.63578112	     -0.17854726	     21.74537428	    -17.71908097	      3.62654958	     -4.35538645	    -32.74978481	      7.94853393	    -35.21566272	      5.45271613	     -1.22486361	     -6.51944879	     -0.64677922	      0.50314307	     -0.00795895	      0.11537529
      0.46000000	     64.90607856	     37.66168481	    -37.68214386	    141.97978824	    231.71842196	    136.96325932	    -63.64544443	    -15.24049054	     -0.02193497	     25.93375357	    -20.97956591	      4.53458236	     -6.69570038	    -38.17986855	     10.89358285	    -35.27835612	      6.71313382	     -1.42380254	     -0.35754036	     -0.50911947	     -0.41261168	     -0.01306230	      0.11872185
      0.47000000	     67.89187260	     17.43734809	    -32.59241531	    108.84948902	    293.64849890	    114.94123275	    -59.97353962	    -12.68628933	      0.02793353	     27.83510961	    -22.72423777	      4.81887906	     -9.77670071	    -26.08679180	     11.78450614	    -34.55496816	      5.16975854	     -1.37786000	      2.94588248	     -0.39900248	     -1.30764343	     -0.00769890	      0.11746081
      0.48000000	     58.80139781	    -13.46788627	    -21.77168597	    110.85238035	    349.67721287	     51.23421275	    -54.84740613	     -9.63904121	     -0.01114148	     30.20956145	    -18.80052522	      3.72895745	     -5.54730489	      1.70032082	     10.63231464	    -32.96369437	      5.80958344	     -1.00867078	      2.83025235	     -0.35420786	     -1.13139699	      0.01071220	      0.11121205
      0.49000000	     37.98579185	    -54.08329305	     -4.63421456	    144.81888281	    419.87191091	    -60.50963732	    -48.08750458	     -7.60155779	     -0.01381438	     31.37607370	    -10.86133301	      1.48118140	      7.99076664	     41.72408196	      8.28416768	    -30.19898452	      5.98940094	     -0.29799179	      2.56544557	     -0.39803944	     -0.79500076	      0.04149322	      0.10177302
      0.50000000	      9.71410477	    -87.48883543	     13.31040348	    204.22948150	    500.28684229	   -172.33240742	    -40.64546666	     -6.18939788	      0.06100858	     31.53566095	     -0.67985353	     -1.70553580	     28.37747611	     78.24152766	      5.76610365	    -26.50040256	      5.82266870	      0.68162313	      2.21733277	     -0.50317383	     -0.35792628	      0.08143031	      0.09114332
      0.51000000	    -12.27499471	   -100.87291558	     26.84357770	    242.64264568	    599.40905851	   -261.24661411	    -32.35307167	     -6.37992230	      0.34822717	     32.20069440	     10.42469899	     -5.54322897	     44.96609626	    100.35210567	      4.25325186	    -22.03159994	      5.66499485	      1.77673695	      1.88759039	     -0.66159557	      0.11481374	      0.12267611	      0.08241702
      0.52000000	    -20.54767201	    -89.01351827	     30.00783638	    254.69858406	    719.75800146	   -286.23319663	    -24.30996676	     -7.44114153	      0.81882688	     33.12523122	     18.74643902	     -8.83936843	     53.38696655	     99.86722543	      3.53838573	    -17.43383349	      5.58780690	      2.76986619	      1.63320611	     -0.83142041	      0.50213888	      0.15623268	      0.07567820
      0.53000000	     -8.75039304	    -57.65023687	     20.48837119	    213.28082269	    853.89788122	   -239.66213983	    -17.00833581	     -8.92504486	      1.39814901	     35.43041321	     21.70488309	    -10.42537691	     47.67594952	     78.36907383	      2.99093118	    -13.27450082	      5.98644579	      3.41682223	      1.54525209	     -0.96592849	      0.69779811	      0.17243505	      0.07241612
      0.54000000	     17.50442271	    -17.91313934	      0.50807582	    150.27626208	    990.49031328	   -127.43963830	    -12.36491723	     -9.53780989	      1.81721708	     37.55818093	     18.11901249	     -9.42666229	     33.61897414	     42.46074407	      1.64862255	    -10.41030464	      6.54693465	      3.56176918	      1.64056167	     -1.00459860	      0.63993885	      0.16734825	      0.07289840
      0.55000000	     49.43666917	     18.10470188	    -24.43730014	     80.35658905	   1117.84966788	     18.16000367	    -10.21249957	     -8.52031078	      1.81696366	     38.99367978	      9.77799516	     -6.13036156	     16.91655209	      2.93110117	     -1.17603124	     -8.83690464	      7.01760338	      3.23409711	      1.90542311	     -0.92060712	      0.36361776	      0.14414356	      0.07781407
      0.56000000	     75.18139443	     40.23100220	    -47.15579385	     31.52895787	   1220.47930749	    155.07759668	    -10.33011190	     -5.79888615	      1.28191279	     38.99125439	      0.40851891	     -1.98442059	      5.53631542	    -28.24879372	     -5.65931336	     -8.33765477	      7.12441466	      2.61853975	      2.23933628	     -0.73911573	      0.00295177	      0.11210144	      0.08566811
      0.57000000	     89.55415803	     41.06341996	    -60.95555993	      7.26368050	   1295.37761338	    242.35611944	    -11.25243254	     -1.74448308	      0.23856426	     37.57519389	     -6.38271370	      1.23471879	      1.98098545	    -40.88956881	    -11.02341579	     -8.29488749	      6.76204491	      1.95875304	      2.55096794	     -0.51100634	     -0.29191315	      0.08151207	      0.09540010
      0.58000000	     92.77289220	     22.49856234	    -62.18431394	     -1.69973783	   1356.71126919	    258.63041815	    -11.28362781	      2.71642416	     -1.09735120	     35.32319007	     -8.66817484	      2.35131494	      5.46567724	    -33.41945167	    -15.44299981	     -8.16076789	      5.97193567	      1.45899220	      2.79405000	     -0.29233140	     -0.42867395	      0.06005443	      0.10654124
      0.59000000	     82.78452594	     -4.55476929	    -51.13860781	     16.96315170	   1406.05798654	    207.03033233	    -10.42530362	      6.11346105	     -2.28328166	     32.09975312	     -6.37321630	      1.13762132	     17.81286013	    -12.88177551	    -17.12026625	     -7.88951996	      4.92994460	      1.20688458	      2.91241855	     -0.13456217	     -0.38332783	      0.05052477	      0.11644724
      0.60000000	     60.73558500	    -26.80470663	    -33.19720754	     50.95208058	   1429.17640414	    123.04662575	     -8.50482060	      8.35242140	     -3.14049292	     28.78821905	     -1.38066157	     -1.59630597	     36.44511060	      8.39338425	    -15.52418259	     -7.24006698	      4.22375270	      1.15551936	      2.91779291	     -0.03254797	     -0.21401499	      0.05002828	      0.12328671
      0.61000000	     33.70925339	    -36.63798415	    -13.74250065	     98.84350667	   1451.17717103	     36.03365944	     -6.35395470	      9.40665026	     -3.59390667	     24.84066283	      4.15235768	     -4.58309796	     59.10804759	     21.98157240	    -11.10085887	     -6.55962117	      3.51243228	      1.22613491	      2.83590838	      0.02452660	     -0.01785815	      0.05478574	      0.12683630
      0.62000000	     15.05710599	    -31.13791489	      1.15566337	    114.67904429	   1463.53071857	    -21.71726220	     -3.50957125	      9.81533003	     -3.67990136	     21.41805380	      7.87148699	     -6.42082819	     74.67198218	     21.86884964	     -5.22178702	     -5.58903026	      3.08923370	      1.30824231	      2.71942148	      0.06539374	      0.10142659	      0.05910817	      0.12668560
      0.63000000	     13.77627212	    -15.08946689	      9.34583718	     84.67488728	   1491.76769691	    -42.22955813	      0.05189324	      9.55704299	     -3.35742488	     18.53483545	      8.38906128	     -6.20131056	     78.44249176	      9.71808736	      0.46150659	     -4.52805568	      2.54783525	      1.38035903	      2.57908329	      0.08419821	      0.08163437	      0.06143071	      0.12231422
      0.64000000	     28.57252867	     -2.87294078	     12.56853832	      7.52959101	   1513.47050919	    -43.29966573	      4.21384375	      8.90559595	     -2.77015299	     16.73027993	      5.58039309	     -3.84681940	     68.94943484	     -3.60438093	      4.05535434	     -3.32986085	      2.19832609	      1.40080676	      2.41115153	      0.09050116	     -0.07327665	      0.05984944	      0.11263683
      0.65000000	     49.36352521	     -3.74614401	     12.86701084	    -86.71259273	   1514.14600017	    -38.74384429	      8.31780027	      8.32807751	     -2.12968326	     15.90522623	      0.83659189	     -0.45147029	     52.36807343	     -8.91895920	      4.33235629	     -2.24256570	      2.10277080	      1.36741830	      2.21462547	      0.08883018	     -0.27899220	      0.05497430	      0.09919494
      0.66000000	     63.00433665	     -9.63691132	     10.64585287	   -157.11907792	   1476.92540501	    -30.79116413	     11.50844603	      7.32052800	     -1.38519239	     15.53483164	     -3.05035032	      2.11522724	     38.14756532	     -8.09198882	      2.17704334	     -1.56529615	      2.24127596	      1.29872970	      1.97084191	      0.06097488	     -0.40169245	      0.04825743	      0.08423383
      0.67000000	     64.24445469	    -10.29687643	      6.23175518	   -188.87244537	   1387.05382262	    -17.23472112	     13.47712233	      5.49789396	     -0.55806219	     15.09718315	     -4.67969462	      3.12435422	     30.17911407	     -6.89065157	     -0.48239344	     -1.41776398	      2.64949775	      1.21556884	      1.68330967	     -0.00069519	     -0.39602060	      0.04125131	      0.06907427
      0.68000000	     56.40082325	     -2.90108172	      0.15949658	   -184.78980579	   1275.53939970	     12.10228204	     14.30743010	      3.99329001	     -0.03962374	     14.32329021	     -4.67875057	      3.02699429	     28.53861350	     -9.41405675	     -2.33752195	     -1.98974407	      2.92684142	      1.16538081	      1.44305333	     -0.07199276	     -0.31694850	      0.03717786	      0.05770602
      0.69000000	     43.19670545	     14.68782765	     -5.45545336	   -161.30767121	   1148.97610937	     38.50972370	     14.52054560	      2.34114915	      0.24191221	     14.01080096	     -1.69313672	      1.34893048	     29.96177185	    -16.34364028	     -2.08142671	     -2.94923846	      3.13757174	      1.15298975	      1.32578113	     -0.15240336	     -0.15232346	      0.03608280	      0.05423627
      0.70000000	     28.53991171	     48.30032548	    -12.03938370	   -132.08697215	   1029.78210251	     75.86968340	     14.60260123	      0.63538212	      0.39484587	     14.99185356	      4.12765727	     -1.76108287	     32.34654918	    -33.50817507	      0.53213501	     -3.97771357	      3.30801804	      1.19834805	      1.37723133	     -0.24159139	      0.07956400	      0.03859424	      0.06037052
      0.71000000	     14.16775320	     94.79206411	    -19.39268649	    -94.01803181	    919.22362223	    117.93547021	     14.11916429	     -1.99776545	      0.74032640	     16.55578562	     11.79107378	     -5.45572590	     35.35170010	    -59.17255352	      4.70720877	     -4.87496857	      3.24215155	      1.28178846	      1.55697262	     -0.35233280	      0.32553394	      0.04337126	      0.07334526
      0.72000000	      5.13943965	    143.32372400	    -27.27919520	    -75.05969780	    830.56995970	    166.37748245	     14.50707618	     -5.18325352	      1.28009818	     18.57108228	     18.35924336	     -8.18011033	     34.92240088	    -88.32995937	      8.54810166	     -5.06768481	      2.75940239	      1.38748967	      1.84403245	     -0.46265249	      0.47800673	      0.04869408	      0.08989652
      0.73000000	     -0.66710457	    181.33696237	    -34.01951076	    -57.01073604	    756.58233711	    214.74968453	     15.21508098	     -8.47931414	      1.93298579	     18.75702802	     21.25208097	     -8.82919677	     33.90638957	   -113.39832216	     10.62841858	     -4.54785857	      1.24133437	      1.43736443	      2.16169502	     -0.54318823	      0.46048008	      0.05117073	      0.10601272
      0.74000000	     -1.08925330	    201.32816007	    -38.04054161	    -50.77009913	    697.86005371	    258.29964521	     17.06441479	    -11.07953017	      2.47228580	     16.27697279	     19.09523311	     -7.24775971	     30.56359475	   -130.03905566	     10.42345322	     -3.15898659	     -1.41264239	      1.39530965	      2.44712378	     -0.56534586	      0.26025083	      0.04886753	      0.11893644
      0.75000000	      4.93165954	    201.76591312	    -38.51618473	    -48.54804677	    651.52788123	    291.15268973	     19.41995202	    -12.35276754	      2.70317416	     10.45413313	     12.66423459	     -4.30296143	     24.92896376	   -136.43924351	      8.20764719	     -1.29346370	     -5.12107441	      1.25846281	      2.63786933	     -0.52547599	     -0.05576550	      0.04226482	      0.12743984
      0.76000000	     21.88746837	    185.09862535	    -35.14544325	    -68.31629520	    622.30356503	    301.98145370	     22.27137704	    -12.12955078	      2.54819889	      2.90393285	      4.77316826	     -1.42169357	     12.90139457	   -132.19335992	      4.60668909	      0.68581562	     -9.20056697	      1.09816542	      2.72128983	     -0.44763810	     -0.37059864	      0.03497731	      0.13239597
      0.77000000	     49.11244563	    156.60553828	    -29.04342650	   -100.96139090	    596.38355007	    292.51282900	     24.61228350	    -10.12539111	      2.01207981	     -6.74407056	     -2.03878378	      0.48825861	     -4.66715086	   -119.18905325	      0.22446313	      2.22932123	    -13.66103525	      0.96729888	      2.65381112	     -0.35141642	     -0.59688618	      0.03066837	      0.13377208
      0.78000000	     80.27878736	    121.47960506	    -20.51199117	   -132.88050606	    577.32961155	    255.39869230	     25.88313184	     -7.45598480	      1.36062540	    -17.39191099	     -6.06153565	      1.22338278	    -23.11162010	    -98.77125380	     -4.02008616	      3.03562621	    -18.24464051	      0.92026277	      2.46108550	     -0.27394095	     -0.70602044	      0.03191076	      0.13259191
      0.79000000	    104.89589509	     86.49220009	    -12.02877107	   -157.34247396	    542.00114662	    210.40723889	     26.67010184	     -4.75582286	      0.80581919	    -27.66125429	     -8.09874126	      1.22822093	    -37.54561158	    -76.00502309	     -7.64691353	      3.42510578	    -22.39327933	      0.97151180	      2.16002819	     -0.22870547	     -0.73148700	      0.03864058	      0.12774940
      0.80000000	    115.32963067	     56.66273843	     -4.20867643	   -146.86787970	    497.71970101	    160.61560431	     26.46378598	     -3.79610155	      0.64392078	    -37.99114490	     -8.77245226	      0.83580144	    -40.83762111	    -53.37991618	    -10.14969518	      3.47902328	    -26.36932067	      1.14881474	      1.78350021	     -0.26156338	     -0.71938593	      0.05061569	      0.12000724
      0.81000000	    111.82976710	     36.28800103	      2.05572744	   -116.05434738	    445.70264308	    120.94039680	     26.49983811	     -4.93358347	      0.84471776	    -46.99590892	     -9.60347715	      0.38361852	    -35.01805395	    -35.49123947	    -11.28737646	      3.78881883	    -29.72468715	      1.39832184	      1.33979528	     -0.36733594	     -0.71415791	      0.06329207	      0.10750993
      0.82000000	     99.47709529	     23.40362987	      7.50308381	    -82.44485291	    394.81431025	     89.30425232	     27.35640120	     -7.63881496	      1.18883177	    -52.74943330	    -11.19227079	      0.01219316	    -25.35221049	    -22.41792572	    -11.07286686	      4.62015977	    -31.81972475	      1.57879598	      0.82280453	     -0.49872545	     -0.72031825	      0.06932873	      0.08788563
      0.83000000	     88.29841840	     13.89535235	     12.90634179	    -50.78905530	    355.23152233	     65.64507186	     28.62732917	    -10.28936152	      1.36166042	    -57.93967867	    -13.83025378	     -0.25185731	    -16.37970576	    -12.85767977	    -10.03442775	      5.70183164	    -33.80533403	      1.60169942	      0.19301126	     -0.59399058	     -0.72767325	      0.06615009	      0.06113339
      0.84000000	     79.02317707	      4.09093067	     18.30425038	    -25.07506115	    312.51676147	     44.67433062	     29.83558298	    -12.34153240	      1.35430301	    -61.92665186	    -17.00822792	     -0.43037999	    -10.25833198	     -4.40047019	     -8.72229657	      6.70589571	    -35.40863504	      1.49541015	     -0.49680163	     -0.64238775	     -0.71478648	      0.05700084	      0.02995892
      0.85000000	     66.09640357	    -11.38424758	     24.96643658	     11.32417569	    251.88686574	      5.63716926	     30.09260027	    -15.17988253	      1.61381209	    -64.83050913	    -19.59108300	     -0.52140876	     -3.67824435	      9.29865320	     -7.67475110	      7.24011161	    -36.63089315	      1.36014366	     -1.19226083	     -0.70156727	     -0.65229688	      0.04759566	     -0.00166948
      0.86000000	     48.73659277	    -35.81104511	     32.32888337	     69.96349735	    191.27847726	    -50.36985490	     28.26237482	    -18.56281407	      2.27641692	    -66.26779366	    -21.61249927	     -0.48553018	      5.71465814	     30.52150068	     -7.67607293	      6.78179571	    -37.31465043	      1.29379375	     -1.78128468	     -0.79806663	     -0.55905552	      0.04396572	     -0.02833706
      0.87000000	     40.19704424	    -67.40001022	     40.16716487	    111.56589442	    174.48935615	   -117.71380099	     25.00199745	    -20.60299474	      2.88024936	    -64.78672009	    -22.58631755	     -0.36262762	     10.08416780	     56.19313091	     -8.85500809	      5.29294544	    -36.99978004	      1.36344013	     -2.11222710	     -0.88804341	     -0.47361258	      0.05037555	     -0.04376835
      0.88000000	     48.21936200	    -97.45200587	     45.78976027	    127.02101216	    242.93038376	   -163.31735049	     20.37155284	    -18.65741614	      2.75193330	    -60.17487831	    -23.13105306	     -0.18876229	      7.17005751	     76.24004752	    -10.70668446	      2.67869936	    -35.56479167	      1.50671921	     -2.03234916	     -0.87480425	     -0.45937145	      0.06545664	     -0.04188805
      0.89000000	     63.48111199	   -115.53643478	     48.79086543	    132.11786280	    374.63150165	   -182.57097273	     15.92688809	    -13.86560966	      1.98454001	    -53.00293724	    -22.52107772	     -0.00080178	      1.92259498	     84.40267941	    -11.61359162	     -0.30625199	    -33.02361351	      1.67128309	     -1.52506100	     -0.75761305	     -0.51752873	      0.08463566	     -0.02170912
      0.90000000	     69.58928065	   -114.65406829	     48.76278578	    164.31013570	    533.68557088	   -174.54007795	     12.89851781	     -8.27573726	      0.95125027	    -44.63967570	    -20.41372679	      0.17685058	      4.14166498	     78.10366395	    -10.35567344	     -2.85145021	    -29.63973652	      1.86175062	     -0.62854877	     -0.59422197	     -0.63461213	      0.10487658	      0.01534290
      0.91000000	     60.66610496	    -98.34197236	     45.40771734	    221.97699878	    679.64983687	   -140.46792369	     12.94837142	     -1.81082116	     -0.57516917	    -36.29504281	    -17.22192876	      0.32122269	     14.82113288	     60.47793467	     -7.15134664	     -4.03298355	    -25.75001870	      2.08664960	      0.56880058	     -0.38672382	     -0.79576113	      0.12408490	      0.06521213
      0.92000000	     47.59479756	    -77.01947395	     39.48363307	    279.88836658	    814.52352034	    -88.32029248	     15.62971087	      6.45082130	     -3.13624164	    -29.58387267	    -13.41799869	      0.38923420	     27.40292837	     38.64640452	     -3.34383886	     -3.88881271	    -22.04356032	      2.32216048	      1.91719820	     -0.09966880	     -0.97247155	      0.14142755	      0.12129516
      0.93000000	     42.03248025	    -59.47380776	     32.85596330	    304.02891279	    939.41464060	    -33.52528309	     20.90337159	     15.45453589	     -6.60279101	    -25.33353938	     -9.24520908	      0.33216442	     33.61354220	     20.08300538	     -0.32048646	     -2.30872353	    -18.95711016	      2.60852868	      3.14654366	      0.22924739	     -1.10282761	      0.15795462	      0.17166280
      0.94000000	     46.97801949	    -46.34819164	     27.27925143	    300.67671758	   1053.26045062	      8.37799757	     26.92077082	     21.86559545	     -9.75830086	    -24.39361302	     -4.58509025	      0.06963076	     33.04855382	      8.20875595	      1.35912847	      0.30589566	    -16.83346605	      2.94965450	      3.98085317	      0.47688917	     -1.11945668	      0.17220777	      0.20485598
      0.95000000	     61.26252488	    -31.66314916	     22.21706125	    253.46695250	   1163.02600209	     41.36973026	     32.69072721	     23.34676060	    -11.28369849	    -22.21769259	      0.25297105	     -0.43527062	     24.19167287	     -0.52462288	      1.78558020	      3.47436768	    -14.09592983	      3.32769849	      4.33855157	      0.53725511	     -1.00720121	      0.18238425	      0.21489247
      0.96000000	     80.78695876	    -12.20894311	     18.49110716	    200.49085105	   1254.50417172	     58.64773856	     35.80688633	     19.34190943	    -10.42063263	    -21.70834839	      5.11655763	     -1.24491371	     13.60016470	     -7.88438709	      1.72238599	      6.30721158	    -12.00971282	      3.61360314	      4.12520020	      0.39409387	     -0.77071002	      0.18381209	      0.20064885
      0.97000000	     97.20953592	     12.10347135	     14.44222236	    146.63035609	   1324.11330560	     78.72144977	     36.49324525	     12.64602700	     -7.87314345	    -20.81507433	      8.26130228	     -2.03550319	      5.56231780	    -17.84684076	      1.79998892	      8.30127204	    -10.12391395	      3.72370800	      3.47255912	      0.14628444	     -0.49065809	      0.17613302	      0.16693513
      0.98000000	     98.32740635	     36.21429279	      9.90347700	    125.70853897	   1358.57318540	    101.22513709	     34.48534042	      6.13185090	     -4.93982645	    -19.06970278	      8.96024847	     -2.45664825	      8.20425287	    -29.31576406	      2.59825153	      9.08319760	     -8.42727504	      3.58070244	      2.58389834	     -0.07254247	     -0.24474942	      0.15963272	      0.12242538
      0.99000000	     83.36438914	     57.01869388	      4.09547750	    123.83338827	   1362.19967716	    134.28142400	     31.16543335	      2.14424809	     -2.98659289	    -14.75682229	      6.76506325	     -2.16687587	     20.22971763	    -42.67422292	      3.95669455	      8.73850524	     -6.50717464	      3.20657694	      1.72404775	     -0.15817762	     -0.10407279	      0.13780118	      0.07761875
      1.00000000	     57.20077957	     73.26607081	     -1.85587840	    136.69686186	   1343.91376634	    167.97525525	     27.09572611	      0.17099924	     -1.98800562	     -8.35451567	      2.84480150	     -1.22669104	     38.58413695	    -55.84435892	      5.61089796	      7.58203259	     -4.54788593	      2.67063053	      1.09773176	     -0.13081013	     -0.08077088	      0.11284216	      0.04231712
      1.01000000	     26.35978387	     84.16131020	     -6.81047000	    148.75176497	   1313.87304763	    191.93370060	     23.22879007	     -1.19108561	     -1.13555506	     -0.72288515	     -1.20289490	      0.00421960	     58.69798863	    -65.77167412	      6.96393407	      6.27368248	     -2.65935977	      2.09642096	      0.78607064	     -0.08107982	     -0.13691450	      0.08720638	      0.02140879
      1.02000000	      7.83950745	     84.61958138	     -7.88660678	    138.35568774	   1297.61309727	    180.55528126	     19.71207694	     -3.12325203	      0.21458684	      6.51251256	     -3.02561490	      0.82033756	     69.99539099	    -65.70779175	      7.76787150	      5.13148565	     -1.21058571	      1.60191671	      0.76962841	     -0.08048003	     -0.19965435	      0.06425843	      0.01608859
      1.03000000	      1.09008039	     78.52404179	     -7.11355592	    109.46341618	   1302.24833047	    149.17031667	     16.98195096	     -4.57039237	      1.43959714	     11.69432563	     -1.77994241	      0.76864095	     74.79463789	    -58.91405956	      7.94103487	      4.38685236	     -0.44067483	      1.27967291	      0.92446601	     -0.10444756	     -0.20941683	      0.04876945	      0.02201317
      1.04000000	     32.96135649	     60.42257437	     -0.58420748	     16.09524072	   1339.39116992	     81.30271198	     15.62008649	     -5.15524317	      1.92151236	     14.49513788	      3.42420616	     -0.48256734	     51.94853312	    -41.62492030	      8.76969756	      3.89933999	     -0.26962765	      1.19399275	      1.11646637	     -0.12337918	     -0.11242573	      0.04504621	      0.03340988
      1.05000000	     35.27262750	     47.95509783	      5.00026987	     -7.20419363	   1383.17088292	     17.75757908	     14.93182158	     -4.38761720	      1.27953784	     13.99817907	     11.03142876	     -2.51325993	     55.03269966	    -27.17085950	      9.82508713	      3.53592857	     -0.64233708	      1.25551645	      1.23870289	     -0.09653836	      0.06951937	      0.04997545	      0.04467577
      1.06000000	    137.46519436	      6.06631455	     23.17045241	   -189.44115816	   1407.29973404	    -95.49922437	     14.31725443	     -3.09234852	      0.15963804	     11.26518074	     18.37067002	     -4.54631327	    -22.45181639	      6.20245119	     12.85174399	      2.84932571	     -1.30851495	      1.33727823	      1.31619605	     -0.04843485	      0.25271477	      0.05722501	      0.05443128
      1.07000000	     15.82113348	     31.66090037	     18.38346588	     52.39800866	   1425.30672289	    -82.86365076	     12.23798495	     -2.95266543	     -0.14186079	      6.91303793	     23.71796995	     -6.10702533	     81.28423998	     -5.71690645	     12.65367680	      1.31499363	     -2.37629851	      1.33555237	      1.34928211	     -0.05443400	      0.37861781	      0.06068432	      0.06120786
      1.08000000	    399.96037853	    -79.06396223	     63.02474164	   -577.65799088	   1350.11649696	   -308.85332056	      8.09101571	     -4.70332421	      0.99448446	      2.07795512	     26.51399944	     -7.06684276	   -226.94593169	     71.01932333	     20.81002731	     -1.04250925	     -3.83521944	      1.25182173	      1.29202380	     -0.15761083	      0.43509225	      0.05941132	      0.06221176
      1.09000000	   -417.04785032	    144.19070932	    -10.24310940	    918.08789019	   1323.54356769	     69.81637102	      2.80498113	     -7.68902408	      3.09582307	     -1.62339733	     26.57688015	     -7.31594446	    432.29695978	    -71.09639835	      6.94263109	     -3.56963011	     -5.49786384	      1.14425564	      1.15997359	     -0.32482056	      0.41274083	      0.05578047	      0.05754051
      1.10000000	   1521.75411932	   -363.91372855	    160.87758786	  -2471.24282754	   1058.49852964	   -832.56555308	     -1.79811502	    -10.65187707	      5.10066772	     -3.18317292	     23.82894634	     -6.67757172	  -1139.39777290	    258.56445127	     44.01174987	     -5.46463166	     -7.22195948	      1.08328052	      1.05134485	     -0.47913533	      0.29327683	      0.05323308	      0.05130978
      1.11000000	  -3450.34147240	   1200.21343796	   -327.82676024	   6314.39164220	   1178.43775111	   1929.85347565	     -3.43019274	    -12.05013260	      5.86413898	     -2.04707338	     18.53761021	     -5.14940697	   2864.63154075	   -824.04269707	    -49.69624570	     -5.67757173	     -8.34815038	      1.12345618	      0.99133588	     -0.53871632	      0.10084815	      0.05422013	      0.04491145
      1.12000000	  13999.94385385	  -3829.26771787	   1143.88751853	 -24646.07728473	   -585.15908578	  -6895.73329953	     -1.32664289	    -11.68235851	      5.13435506	      1.26761818	     12.20408262	     -3.16872743	 -11269.96734826	   2652.54567342	    324.24661050	     -4.42722899	     -8.67465258	      1.31998363	      1.00456526	     -0.50106159	     -0.10882931	      0.06180798	      0.04082680
      1.13000000	 -14232.25937594	   2612.80317556	   -700.31404930	  25490.60625154	   4150.68000626	   4503.26663950	      3.07982011	     -9.03640284	      3.09228034	      5.63116549	      4.93462027	     -0.94326393	  11668.09673925	  -1684.90411208	   -282.98667685	     -2.40706024	     -7.96700167	      1.61733952	      1.04573858	     -0.38197053	     -0.30307654	      0.07463031	      0.03793762
      1.14000000	   3373.70875840	   -886.66219227	    271.71944752	  -5985.16509007	   -151.65254692	  -1689.74038685	      8.00059459	     -4.83937550	      0.57698328	     10.94219150	     -3.12233563	      1.32458825	  -2729.96110162	    638.88219656	     95.18543071	     -0.82111735	     -6.23147421	      1.96575154	      1.12243924	     -0.24578275	     -0.47885901	      0.09126723	      0.03646540
      1.15000000	  -1363.73879541	     50.83018375	    -16.53742641	   2408.90424882	   1140.22818577	     79.43485152	     10.74674359	      0.41853831	     -1.68012392	     16.41355798	    -12.12228987	      3.50909457	   1148.85869523	    -45.90779818	    -13.20282036	     -0.75126586	     -3.83465010	      2.25655308	      1.23255499	     -0.13018329	     -0.65478769	      0.10786062	      0.03622282
      1.16000000	    674.42296765	   -317.90943761	     77.85286940	  -1299.55531537	    603.43319362	   -480.65314654	     10.12491218	      6.47855321	     -3.39278023	     21.98982968	    -21.26440457	      5.33584453	   -517.75991267	    222.60743213	     19.95922821	     -2.64489358	     -1.18467289	      2.42876620	      1.39067766	     -0.03934059	     -0.83263739	      0.12213956	      0.03791648
      1.17000000	    -88.15831039	   -137.38843366	      1.01381851	     19.77017730	    763.88535434	    -47.52711249	      5.97573699	     12.92971275	     -4.59990960	     27.32079811	    -28.70719532	      6.49589933	    104.57355107	     66.29527710	     -8.02137128	     -6.04337228	      1.43730089	      2.44325586	      1.52054601	      0.04370583	     -0.96538787	      0.13172022	      0.03922193
      1.18000000	    316.35728656	   -157.59547784	     -4.62270065	   -718.26653581	    634.81721253	      0.60791100	     -0.99903559	     18.64310033	     -5.28080384	     31.52956516	    -32.64479960	      6.84268552	   -223.46029200	     81.46326495	     -9.15499522	    -10.23551391	      3.61023821	      2.29990419	      1.54754623	      0.11076736	     -1.00055965	      0.13484475	      0.03835919
      1.19000000	    153.23535773	    -96.08245092	    -33.08821004	   -401.80486198	    600.39780216	    154.79901249	    -10.55075061	     22.14039908	     -5.28953767	     33.84676493	    -32.41085826	      6.42594930	    -90.76053460	     28.73511534	    -17.68189573	    -14.71140033	      5.10711911	      1.97335367	      1.42353207	      0.13450370	     -0.91574676	      0.12864927	      0.03419781
      1.20000000	    170.50044878	    -75.71754914	    -37.57610594	   -380.70651184	    504.33304673	    165.79945229	    -20.71975219	     20.69918997	     -4.35277151	     34.04602174	    -27.11775726	      5.19684882	   -105.33479377	     20.64269302	    -16.97127941	    -18.75865220	      5.70730701	      1.54583500	      1.18082215	      0.05051393	     -0.70986566	      0.11410611	      0.02878864
      1.21000000	     64.31686488	    -47.49228365	    -37.56213374	   -125.26160264	    421.66875317	    135.61041697	    -29.68711500	     14.44031707	     -2.81469697	     32.37753063	    -18.28051933	      3.42149864	    -20.96239926	      9.12157683	    -14.10403070	    -21.86151359	      5.45247695	      1.09328526	      0.86472437	     -0.13277831	     -0.43081001	      0.09424717	      0.02314192
      1.22000000	     -4.35871343	    -29.35196809	    -27.58469616	     70.95797902	    342.83324124	     44.98636649	    -37.13523294	      4.50037121	     -1.13474608	     28.90501808	     -7.20210363	      1.32045159	     34.01157538	     11.10658036	     -7.51048919	    -24.13237734	      4.30308876	      0.66981862	      0.51918319	     -0.37577905	     -0.12103056	      0.07293517	      0.01840000
      1.23000000	    -68.30182349	    -11.85162933	    -16.35786947	    243.55928812	    290.51640928	    -45.81831627	    -42.32377227	     -5.57469833	      0.12212881	     25.06233563	      3.11743398	     -0.64234033	     86.29269358	     12.51280323	     -0.73709758	    -25.57400598	      2.74649529	      0.28914233	      0.21764899	     -0.58638776	      0.14872307	      0.05296144	      0.01558123
      1.24000000	    -84.94935343	      1.83252455	     -6.74476021	    322.29573120	    271.16391050	   -117.59236819	    -45.74030118	    -13.40020522	      0.80143370	     20.55328128	     10.65894446	     -2.11294632	    103.59973788	     13.87366390	      4.54599215	    -26.45189514	      0.79789192	     -0.03073576	      0.01764070	     -0.71485089	      0.32516078	      0.03654351	      0.01643271
      1.25000000	    -56.82712181	     18.01787481	     -5.04197298	    297.47231961	    282.39468345	   -127.61408819	    -47.89071969	    -16.82406481	      0.95319840	     16.89288976	     13.37658248	     -2.76103223	     86.98170514	      6.60362894	      6.19706052	    -27.09086839	     -0.90692446	     -0.33649662	      0.01962160	     -0.71877787	      0.35588497	      0.02279238	      0.02382042
      1.26000000	     12.78586537	     44.00139814	    -13.61181689	    190.37465165	    331.61318554	    -69.99322499	    -49.94954110	    -16.64589437	      0.84941879	     13.87816698	     11.80485944	     -2.63703145	     40.11642150	    -13.65822005	      3.71716802	    -27.94139247	     -2.34018178	     -0.64013253	      0.29990182	     -0.62913015	      0.23600940	      0.01100768	      0.04161579
      1.27000000	     95.05081365	     88.68709709	    -33.57826021	     46.95566446	    392.41668581	     62.79806547	    -51.64652902	    -13.67924655	      0.56994978	     12.72734914	      7.03297704	     -1.92427746	    -18.35586070	    -52.96353406	     -2.50452398	    -28.92792166	     -2.89576226	     -0.94591885	      0.87981338	     -0.48772754	     -0.01023818	      0.00010773	      0.07015913
      1.28000000	    160.69154503	    154.04251578	    -62.34979200	    -57.85662134	    469.15327402	    250.20631823	    -53.69918915	     -9.48285409	      0.11959006	     12.73153042	      1.19896597	     -0.97195131	    -64.57629272	   -110.66635885	    -10.98481033	    -30.35140436	     -2.75003404	     -1.16346977	      1.67781176	     -0.37447662	     -0.31942604	     -0.00638907	      0.10633374
      1.29000000	    202.32871678	    230.31632612	    -94.40290042	   -122.11283280	    550.27415723	    457.30533471	    -55.02665325	     -5.44747620	     -0.37806583	     14.65739335	     -4.26948451	     -0.01494513	    -94.87528468	   -176.94022558	    -19.93077067	    -31.80502105	     -1.64572556	     -1.21491751	      2.55539301	     -0.32516234	     -0.62255493	     -0.00544011	      0.14327108
      1.30000000	    220.65274077	    295.93705778	   -121.69135952	   -130.77092093	    632.74646675	    629.67578338	    -55.44727548	     -2.63696926	     -0.72424190	     17.17233558	     -8.46957638	      0.83558886	   -108.05811876	   -233.15661029	    -27.32722304	    -32.90049199	     -0.04100177	     -1.00390647	      3.32671752	     -0.34629955	     -0.86139166	      0.00732915	      0.17324873
      1.31000000	    206.36214570	    326.45183181	   -134.91089806	    -91.43191117	    698.25853969	    707.42946459	    -52.73221302	     -1.61012445	     -0.82814609	     21.36432024	     -9.94694064	      1.18534782	    -99.68874815	   -258.81014086	    -31.03026497	    -32.43670882	      2.25216393	     -0.46135573	      3.88983974	     -0.43485421	     -0.97485270	      0.03307341	      0.19236104
      1.32000000	    151.27591230	    307.95449772	   -130.17573013	     19.27468833	    736.20423459	    666.88144028	    -47.45308877	     -1.91584694	     -0.68207300	     26.67669793	     -8.36951624	      0.75491900	    -62.38254702	   -243.74330023	    -30.07986887	    -30.14950109	      4.99624728	      0.40868003	      4.17111590	     -0.57787753	     -0.93126758	      0.07046308	      0.19860253
      1.33000000	     73.24252695	    244.13720026	   -108.74234135	    156.96622946	    754.73510491	    516.35194703	    -40.26402823	     -3.51206868	     -0.24190117	     33.54984256	     -4.00845276	     -0.62227955	     -9.27441069	   -190.56120894	    -24.70185748	    -26.12231354	      8.13492166	      1.43995934	      4.21845450	     -0.74672787	     -0.74132025	      0.11069924	      0.19499517
      1.34000000	      5.56548094	    154.37217193	    -76.26770290	    256.68943377	    779.28682707	    296.08168749	    -32.84985839	     -6.33377572	      0.50494853	     41.22965886	      2.03715426	     -2.78297749	     36.76166143	   -114.32264817	    -15.89286395	    -21.14462337	     11.13557107	      2.35141273	      4.10604213	     -0.90352704	     -0.45572159	      0.14121896	      0.18565260
      1.35000000	    -27.12257718	     67.09667618	    -42.69964210	    289.14217991	    845.49622500	     78.76031473	    -26.59197025	     -9.15981902	      1.40363252	     47.11228065	      7.45507458	     -4.98336002	     61.19073254	    -39.69751323	     -6.02155894	    -16.10338661	     12.93484684	      2.95064092	      3.83984997	     -1.00464801	     -0.15714438	      0.15522589	      0.17106651
      1.36000000	    -24.24617950	      6.90386493	    -17.31205111	    256.84543247	    947.49751727	    -68.68689913	    -20.90350365	    -10.47420783	      2.13231414	     49.29359512	     10.33665552	     -6.35817175	     63.15717474	     10.95126461	      2.05910249	    -11.21380479	     13.06381131	      3.16414534	      3.40997584	     -1.00537122	      0.07704517	      0.15152148	      0.14988823
      1.37000000	      9.45017375	    -18.49731040	     -3.55248497	    181.98291405	   1089.68588306	   -123.30684347	    -16.86677335	     -9.47687092	      2.34687631	     46.61843084	     10.23621782	     -6.45269517	     48.31562696	     30.20833353	      7.05462510	     -7.50826894	     11.20411807	      3.00326279	      2.86555956	     -0.89057093	      0.20326517	      0.13417890	      0.12454158
      1.38000000	     63.66545458	    -20.60557346	      1.96320293	     83.04501579	   1243.54434132	   -109.91308651	    -14.07438500	     -6.39245250	      1.87240321	     39.79934195	      7.95317204	     -5.39988755	     22.13128061	     27.97672350	      9.40714846	     -5.22839974	      7.90552616	      2.60281303	      2.29170872	     -0.68996579	      0.22567539	      0.11061780	      0.09879812
      1.39000000	    111.77121821	    -22.05020512	      4.97620740	     16.71311022	   1376.92469816	    -78.02158968	    -12.51685235	     -2.04664594	      0.79096637	     30.04888027	      4.28720741	     -3.48701662	      2.56626513	     22.98526381	     10.02156278	     -4.45184134	      3.97700286	      2.14288444	      1.74530713	     -0.46452773	      0.16807866	      0.08888627	      0.07484858
      1.40000000	    122.42679336	    -43.27306526	     10.46280260	     19.71523833	   1448.17124074	    -76.81242870	    -11.03516722	      2.45037826	     -0.58038684	     20.47475478	      0.21768584	     -1.22568515	      7.79884959	     32.44993000	      9.67403200	     -4.47179672	      0.83600918	      1.74372024	      1.26451910	     -0.26588972	      0.07570933	      0.07245405	      0.05299705
      1.41000000	     85.44590552	    -87.75206624	     19.82349003	    119.58842351	   1445.16214186	   -122.41480806	    -10.12549811	      6.45396721	     -1.86770863	     12.11532493	     -3.20929141	      0.71544703	     44.26909419	     60.44539457	      8.86596881	     -4.99200178	     -0.89473355	      1.47263729	      0.81184680	     -0.12368958	      0.01317994	      0.06319198	      0.03151226
      1.42000000	     25.43652621	   -141.41980109	     32.05991581	    247.66252761	   1396.00033647	   -205.34216895	     -8.08141018	      8.84453904	     -2.60969395	      6.93717729	     -4.39154136	      1.32653969	     91.53873166	     99.10986762	      8.33393350	     -5.16207378	     -0.96897406	      1.37800409	      0.40514255	     -0.06012302	      0.05064327	      0.06078637	      0.01187433
      1.43000000	    -28.99718995	   -187.03603519	     44.90555592	    353.47521962	   1332.05156478	   -301.19281472	     -5.11633426	      8.98085695	     -2.55395654	      4.71752029	     -2.85760205	      0.24616300	    129.70599596	    136.57104913	      8.69469468	     -4.89359714	      0.19039841	      1.43713755	      0.07295101	     -0.07846114	      0.20197572	      0.06336782	     -0.00376415
      1.44000000	    -62.53245658	   -212.78449713	     55.06528234	    405.15364724	   1294.85547267	   -380.67005848	     -1.32343885	      6.93096482	     -1.76374907	      5.26778751	      0.28314438	     -1.94018822	    149.97167305	    162.54772185	      9.75838418	     -4.33919390	      1.96784962	      1.62129546	     -0.07300847	     -0.16888938	      0.39594672	      0.06947190	     -0.01059039
      1.45000000	    -71.13172050	   -206.43433503	     57.94659830	    395.80489316	   1281.84595425	   -415.22251257	      1.98708690	      2.89525544	     -0.46931505	      7.93161863	      4.21440910	     -4.59200793	    150.31014352	    166.27445962	     10.36558925	     -3.93249738	      3.99488816	      1.82756050	      0.03622949	     -0.30832745	      0.56650286	      0.07518729	     -0.00576629
      1.46000000	    -43.14171571	   -154.24357227	     46.86994704	    295.18259877	   1305.07094198	   -350.09181361	      4.71459382	     -1.05599626	      0.67206689	     12.85312133	      7.65369437	     -7.00898927	    122.20763878	    134.03032479	      8.72550338	     -3.91487070	      5.93747031	      1.96380542	      0.46112211	     -0.43308506	      0.65195293	      0.07739577	      0.01302807
      1.47000000	     13.30819779	    -54.56113282	     20.53455653	    112.37348282	   1341.48173210	   -176.86241266	      6.75726855	     -3.92370851	      1.31445068	     20.19201172	     10.74517524	     -9.00202235	     70.18569685	     63.30682865	      4.40852504	     -4.21631663	      8.01154405	      1.92336212	      1.18525288	     -0.49460302	      0.64412452	      0.07194672	      0.04481483
      1.48000000	     60.87761141	     77.27896165	    -17.28844271	    -78.78242509	   1354.24870654	     84.53840546	      8.28652604	     -4.68636135	      1.28151240	     29.66221656	     12.66048606	     -9.93063275	     20.88800404	    -36.94660296	     -1.58035263	     -4.50226963	     10.85013522	      1.64799710	      2.12987533	     -0.45381091	      0.51993557	      0.05702642	      0.08444959
      1.49000000	     63.49746156	    210.19672807	    -56.98392429	   -201.57774652	   1310.62346036	    371.10840513	     10.13809426	     -3.00569942	      0.54976971	     40.46382616	     12.76349155	     -9.31871239	      0.60109480	   -144.27186115	     -7.14567105	     -4.25386439	     14.97105878	      1.17212952	      3.12285869	     -0.30249913	      0.28648412	      0.03449553	      0.12270573
      1.50000000	     11.67595304	    317.05644088	    -89.53285077	   -224.72881646	   1199.36531710	    623.77317856	     13.40577297	      1.20458345	     -0.83331355	     51.20953364	     11.59730528	     -7.66075364	     16.73199135	   -236.76096617	    -10.64108578	     -3.05770200	     20.07894018	      0.59839523	      3.93223719	     -0.05760947	      0.03170353	      0.00886536	      0.15029917
      1.51000000	    -76.56221283	    392.18567091	   -110.46445668	   -182.00257707	   1047.53495956	    806.25609303	     19.76974291	      6.08456785	     -2.31714234	     61.50978427	     11.77790971	     -6.55361541	     56.25293252	   -304.88905438	    -11.16942065	     -0.56820379	     25.27096715	      0.05412699	      4.43150033	      0.21482946	     -0.09871039	     -0.01593128	      0.16527216
      1.52000000	   -170.37862116	    446.16937523	   -120.41248756	   -111.49771055	    871.37251930	    912.97410915	     28.59189741	      7.76698575	     -2.86886911	     69.25936798	     14.72808861	     -6.63761044	     98.18349380	   -351.33523262	     -8.88212217	      2.92677716	     28.77114789	     -0.35134705	      4.61008474	      0.39280818	     -0.06093575	     -0.03680009	      0.17107823
      1.53000000	   -258.22845855	    494.41572785	   -124.16915624	    -13.31808449	    713.70728242	    970.39775685	     38.20060358	      4.14403909	     -1.98971804	     73.19037770	     20.10882531	     -7.60447963	    138.29495533	   -386.85579199	     -5.03852500	      6.70084974	     29.27610262	     -0.52309518	      4.63088505	      0.39928862	      0.08091618	     -0.04979383	      0.17651942
      1.54000000	   -271.13276404	    515.04113943	   -120.17044048	     55.00475054	    598.79628014	    952.61183856	     43.35451293	     -4.84173697	      0.26082151	     64.47541374	     25.47052348	     -8.36354556	    137.61016335	   -393.40209167	     -2.84317667	      9.10301317	     22.22864232	     -0.32175598	      4.46488793	      0.16878339	      0.18085101	     -0.04597976	      0.18593549
      1.55000000	   -179.66835186	    491.56934751	   -105.98591639	     45.13853277	    563.07818270	    862.35531876	     42.16193709	    -14.30250565	      2.70666962	     42.24690121	     27.22623232	     -7.89977302	     79.79366897	   -362.36919280	     -2.86375281	      9.39538696	      8.35182884	      0.20245851	      4.20668397	     -0.16984698	      0.09458793	     -0.02328035	      0.19903568
      1.56000000	    257.80528671	    313.79119144	    -54.41151618	   -210.37924805	    695.51823619	    603.82523274	     22.70843209	    -17.78623562	      4.29249188	    -28.42088574	      3.58614647	     -0.93752738	   -167.11891196	   -210.60772261	     -8.53344230	      3.89064977	    -27.75285583	      1.39380192	      3.19940480	     -0.64750373	     -0.79768473	      0.04313203	      0.19945542
      1.57000000	    377.04006340	    250.83258039	    -32.86130199	   -250.31851341	    711.94252698	    568.23466795	     16.64411279	     -9.45016080	      2.99140718	    -54.37370101	    -10.03822664	      1.85564475	   -229.39780837	   -166.05929509	     -8.08984614	      2.15494054	    -37.24825448	      1.48915237	      2.64345151	     -0.46602536	     -1.16980736	      0.06093316	      0.18083775
