JoggingL1_filt_ID_aligned.mot																			
version=1																			
datacolumns 20																			
datarows 158																			
range 0.00000 1.57000																			
inDegrees=yes																			
endheader																			
time	pelvis_tilt	pelvis_list	pelvis_rotation	hip_flexion_r	hip_adduction_r	hip_rotation_r	knee_angle_r	ankle_angle_r	hip_flexion_l	hip_adduction_l	hip_rotation_l	knee_angle_l	ankle_angle_l	pelvis_tx	pelvis_ty	pelvis_tz	lumbar_bending	lumbar_rotation	lumbar_extension
0	20.089688	-0.52297	-181.760478	1.804525	-1.58084	-5.926617	-18.370967	-2.185339	50.598438	-2.051817	-0.381254	-24.239079	7.199773	1.40771	0.884031	0.047143	8.783925	-2.205918	-1.492176
0.01	19.924638	-0.284102	-182.010968	1.114459	-1.48839	-5.667037	-19.048959	-4.800298	49.829516	-2.009256	0.007772	-21.399034	7.263156	1.386549	0.884986	0.047374	8.896241	-2.21968	-1.27145
0.02	19.803112	-0.011427	-182.283005	0.691728	-1.389431	-5.385157	-20.133004	-7.311599	49.158363	-2.065022	0.375107	-19.208201	7.37329	1.365359	0.885226	0.047642	8.953613	-2.209821	-0.983545
0.03	19.74151	0.266882	-182.56653	0.556192	-1.31202	-5.115431	-21.612238	-9.733206	48.617937	-2.17524	0.730591	-17.708787	7.457618	1.344202	0.884775	0.047965	8.948726	-2.20052	-0.624296
0.04	19.748982	0.523232	-182.846273	0.719651	-1.280954	-4.874105	-23.465819	-12.076113	48.240881	-2.293328	1.07414	-16.931151	7.418475	1.323158	0.883681	0.048358	8.8767	-2.212988	-0.200264
0.05	19.817719	0.732502	-183.104826	1.175217	-1.317453	-4.648657	-25.66415	-14.337387	48.049427	-2.378624	1.389028	-16.893952	7.161378	1.302323	0.88201	0.048824	8.736715	-2.264544	0.263312
0.06	19.924634	0.876686	-183.326337	1.899578	-1.435679	-4.409972	-28.175497	-16.467163	48.051011	-2.405401	1.651083	-17.595952	6.642939	1.281805	0.879837	0.049352	8.533245	-2.366215	0.727308
0.07	20.044793	0.952004	-183.499486	2.867709	-1.635505	-4.140374	-30.972457	-18.352828	48.242314	-2.37	1.84595	-19.002947	5.908784	1.261697	0.877236	0.049929	8.275041	-2.517728	1.155595
0.08	20.160513	0.970731	-183.62045	4.062605	-1.901594	-3.850095	-34.033029	-19.849336	48.607262	-2.289936	1.975359	-21.03489	5.091411	1.242061	0.874267	0.050545	7.973457	-2.705429	1.526024
0.09	20.25768	0.954024	-183.695985	5.471851	-2.212831	-3.569094	-37.339051	-20.823875	49.105003	-2.194479	2.046173	-23.561964	4.36929	1.222923	0.870985	0.05119	7.642291	-2.907239	1.826397
0.1	20.320223	0.92101	-183.743691	7.082253	-2.554246	-3.32747	-40.874876	-21.181075	49.665135	-2.112299	2.056539	-26.417304	3.913985	1.204279	0.867447	0.051856	7.297468	-3.101809	2.047194
0.11	20.336125	0.881715	-183.786587	8.884652	-2.921957	-3.142719	-44.624395	-20.876307	50.20548	-2.061654	1.996392	-29.424656	3.851168	1.186098	0.863728	0.052533	6.953405	-3.27588	2.185428
0.12	20.310656	0.836187	-183.845298	10.884006	-3.319745	-3.016383	-48.564505	-19.927706	50.662128	-2.046603	1.858512	-32.428741	4.244201	1.16831	0.859918	0.053204	6.617975	-3.426836	2.255675
0.13	20.27284	0.778126	-183.933608	13.102237	-3.751395	-2.934205	-52.657121	-18.417972	51.00912	-2.06059	1.645927	-35.314485	5.096329	1.15082	0.85612	0.05385	6.290336	-3.56055	2.294519
0.14	20.267196	0.700136	-184.056422	15.567114	-4.214119	-2.868936	-56.843078	-16.478469	51.254863	-2.092491	1.373921	-38.008465	6.363591	1.133518	0.852436	0.054456	5.96017	-3.686109	2.35103
0.15	20.335035	0.597241	-184.207544	18.292529	-4.697239	-2.787643	-61.040828	-14.263279	51.42018	-2.128936	1.069536	-40.466408	7.968713	1.116307	0.848963	0.055011	5.606619	-3.81057	2.468062
0.16	20.500195	0.467333	-184.370898	21.266762	-5.18513	-2.663555	-65.15181	-11.926457	51.517755	-2.154983	0.764118	-42.658621	9.810216	1.099118	0.845784	0.055517	5.20175	-3.936257	2.669252
0.17	20.765392	0.309896	-184.527917	24.45443	-5.660643	-2.487749	-69.071693	-9.598627	51.544005	-2.157295	0.477294	-44.563395	11.77211	1.081918	0.842965	0.055975	4.721622	-4.060814	2.957159
0.18	21.113148	0.125054	-184.665826	27.801798	-6.107434	-2.27324	-72.70262	-7.357146	51.478818	-2.128043	0.204786	-46.168941	13.740375	1.064704	0.840561	0.056381	4.158704	-4.179	3.315803
0.19	21.511028	-0.085239	-184.779874	31.241488	-6.511044	-2.049306	-75.960041	-5.217156	51.291308	-2.066208	-0.075683	-47.476241	15.61826	1.047492	0.838615	0.056723	3.526424	-4.284359	3.716823
0.2	21.921009	-0.314562	-184.868792	34.697015	-6.859049	-1.851054	-78.772865	-3.162363	50.948025	-1.975834	-0.387315	-48.494951	17.330449	1.030301	0.837162	0.056969	2.852879	-4.369903	4.128823
0.21	22.305892	-0.551247	-184.929124	38.084543	-7.141765	-1.710267	-81.082521	-1.180527	50.415294	-1.862657	-0.74496	-49.232652	18.822223	1.013136	0.836236	0.057074	2.168796	-4.429202	4.522619
0.22	22.630574	-0.780611	-184.953688	41.313372	-7.354221	-1.648555	-82.843495	0.726953	49.656357	-1.730836	-1.154702	-49.684856	20.063557	0.995981	0.835876	0.056985	1.496858	-4.458217	4.870574
0.23	22.865349	-0.98722	-184.933254	44.292248	-7.497315	-1.672495	-84.021908	2.549022	48.634461	-1.581081	-1.612387	-49.83278	21.054418	0.9788	0.836119	0.056658	0.84518	-4.455012	5.147961
0.24	22.994135	-1.155545	-184.858796	46.943325	-7.576339	-1.773822	-84.5924	4.270918	47.325242	-1.410972	-2.101133	-49.649958	21.821775	0.961531	0.836992	0.056075	0.206056	-4.416621	5.340038
0.25	23.013338	-1.271304	-184.725294	49.208784	-7.598237	-1.93614	-84.53786	5.882256	45.719877	-1.217221	-2.591758	-49.112721	22.407435	0.944092	0.8385	0.055247	-0.437745	-4.337829	5.441071
0.26	22.919134	-1.323489	-184.536529	51.045552	-7.56842	-2.144485	-83.852923	7.380958	43.814441	-0.999365	-3.04687	-48.210352	22.85248	0.926399	0.84063	0.054206	-1.10182	-4.213336	5.44276
0.27	22.703621	-1.304862	-184.30739	52.425933	-7.486725	-2.392535	-82.54743	8.768546	41.608374	-0.764619	-3.428522	-46.954871	23.183479	0.908376	0.843348	0.052997	-1.790932	-4.039175	5.331735
0.28	22.361537	-1.212158	-184.063331	53.344526	-7.344239	-2.682721	-80.644908	10.038035	39.114333	-0.531801	-3.707054	-45.388389	23.402245	0.889968	0.846597	0.051661	-2.494266	-3.813359	5.09757
0.29	21.897475	-1.046389	-183.835538	53.820669	-7.124182	-3.018225	-78.175099	11.160511	36.368349	-0.331134	-3.868446	-43.585166	23.480376	0.871144	0.8503	0.050235	-3.187446	-3.536424	4.74126
0.3	21.333378	-0.811825	-183.649663	53.89728	-6.808706	-3.391365	-75.165992	12.082494	33.439388	-0.19836	-3.919576	-41.647923	23.361562	0.851899	0.854363	0.048743	-3.843389	-3.210138	4.283274
0.31	20.709853	-0.517654	-183.515214	53.63529	-6.389372	-3.771301	-71.643374	12.740684	30.428625	-0.163502	-3.890208	-39.696274	22.97191	0.832247	0.858689	0.047194	-4.444106	-2.838951	3.764891
0.32	20.075493	-0.183527	-183.423348	53.102262	-5.876103	-4.097947	-67.640672	13.088654	27.451018	-0.238015	-3.82863	-37.847996	22.236824	0.812213	0.863185	0.045576	-4.985048	-2.436479	3.237718
0.33	19.471195	0.159851	-183.351118	52.359673	-5.298955	-4.296565	-63.212986	13.121866	24.609527	-0.409156	-3.788327	-36.200339	21.102327	0.791829	0.867773	0.043865	-5.473637	-2.02786	2.748062
0.34	18.919989	0.478572	-183.268752	51.456398	-4.700432	-4.3066	-58.44675	12.88543	21.976905	-0.646133	-3.811238	-34.818008	19.550794	0.771134	0.872387	0.042032	-5.924611	-1.643166	2.326325
0.35	18.427641	0.743544	-183.149098	50.433065	-4.12379	-4.097375	-53.460707	12.459687	19.59228	-0.910446	-3.917692	-33.729792	17.599965	0.750161	0.876967	0.040056	-6.352747	-1.308932	1.987232
0.36	17.990036	0.933225	-182.976501	49.330291	-3.604707	-3.665878	-48.397086	11.93456	17.467824	-1.162708	-4.103916	-32.932543	15.290669	0.728942	0.881438	0.037932	-6.766356	-1.043786	1.736839
0.37	17.60071	1.033457	-182.751644	48.191582	-3.16781	-3.032457	-43.404738	11.387265	15.597408	-1.367068	-4.343705	-32.400077	12.67711	0.707497	0.885707	0.035676	-7.164992	-0.857522	1.578428
0.38	17.256154	1.036778	-182.491181	47.06119	-2.826343	-2.239508	-38.620432	10.871162	13.964944	-1.495279	-4.595126	-32.094776	9.824617	0.685843	0.889662	0.033324	-7.541069	-0.752222	1.514571
0.39	16.959184	0.941724	-182.222179	45.981844	-2.58414	-1.349894	-34.15586	10.417023	12.553496	-1.529581	-4.811469	-31.980121	6.812029	0.663997	0.893184	0.030915	-7.883974	-0.724423	1.546962
0.4	16.717944	0.753212	-181.973027	44.991614	-2.43842	-0.44129	-30.092837	10.038572	11.35147	-1.464531	-4.952797	-32.031059	3.733215	0.641997	0.896171	0.028491	-8.185006	-0.766326	1.673685
0.41	16.537784	0.484046	-181.764596	44.115723	-2.381672	0.406724	-26.484263	9.731173	10.35058	-1.30833	-4.995176	-32.239695	0.69417	0.61991	0.898544	0.026086	-8.440851	-0.865431	1.882594
0.42	16.414256	0.15553	-181.605136	43.360606	-2.402518	1.127567	-23.359412	9.467753	9.542727	-1.083047	-4.933395	-32.617204	-2.189101	0.597835	0.900258	0.023724	-8.654226	-1.003378	2.148658
0.43	16.335097	-0.204174	-181.491183	42.718501	-2.484971	1.677445	-20.733577	9.20174	8.922903	-0.823459	-4.776073	-33.192787	-4.788923	0.575887	0.901289	0.021415	-8.830841	-1.155416	2.440891
0.44	16.286363	-0.563128	-181.412964	42.1777	-2.606832	2.039499	-18.619644	8.875554	8.492902	-0.574232	-4.539257	-34.008358	-6.970114	0.554169	0.901625	0.01916	-8.974176	-1.291878	2.731487
0.45	16.258021	-0.889224	-181.359994	41.732851	-2.739992	2.222034	-17.037961	8.432509	8.262433	-0.384543	-4.243496	-35.108966	-8.607385	0.532751	0.901258	0.016951	-9.081861	-1.381916	3.001541
0.46	16.246999	-1.154321	-181.325304	41.391896	-2.853443	2.251518	-16.021223	7.83208	8.246875	-0.300593	-3.914028	-36.530825	-9.611437	0.511671	0.900182	0.014782	-9.144362	-1.398843	3.242523
0.47	16.25635	-1.338955	-181.30739	41.176615	-2.919031	2.163089	-15.611861	7.06628	8.462073	-0.357337	-3.581795	-38.29093	-9.953639	0.490942	0.898402	0.012644	-9.146099	-1.326075	3.454113
0.48	16.291484	-1.436711	-181.308719	41.116425	-2.918651	1.991722	-15.851616	6.175235	8.918819	-0.571082	-3.282022	-40.382423	-9.678061	0.470567	0.895938	0.010523	-9.069406	-1.161839	3.640547
0.49	16.353544	-1.456055	-181.332884	41.235327	-2.848586	1.768924	-16.764988	5.257159	9.616693	-0.935798	-3.04863	-42.77643	-8.894	0.450563	0.892832	0.008399	-8.899088	-0.920857	3.805297
0.5	16.435751	-1.417833	-181.381296	41.539164	-2.719087	1.524895	-18.34084	4.465233	10.542765	-1.425151	-2.907788	-45.428727	-7.752744	0.430961	0.889149	0.006235	-8.626857	-0.631161	3.948322
0.51	16.528853	-1.34844	-181.449363	42.012229	-2.550159	1.290045	-20.519007	3.985803	11.680606	-2.00005	-2.874379	-48.287771	-6.420162	0.411796	0.884973	0.003995	-8.255766	-0.325683	4.070413
0.52	16.628828	-1.270861	-181.526223	42.62026	-2.363735	1.09238	-23.188221	3.997472	13.020264	-2.619859	-2.94997	-51.299401	-5.054972	0.393081	0.880411	0.00165	-7.800495	-0.032301	4.177538
0.53	16.739657	-1.197462	-181.599557	43.315411	-2.175541	0.951083	-26.197491	4.619453	14.560831	-3.253147	-3.120561	-54.407275	-3.79378	0.374806	0.875596	-0.000804	-7.281836	0.233008	4.279559
0.54	16.872223	-1.127886	-181.661476	44.043675	-1.991897	0.868846	-29.376956	5.865948	16.307631	-3.883037	-3.355442	-57.55226	-2.736293	0.356929	0.870681	-0.003338	-6.719816	0.467561	4.386851
0.55	17.040122	-1.052293	-181.712829	44.751613	-1.811264	0.828711	-32.560566	7.62855	18.265307	-4.505966	-3.610246	-60.673003	-1.929139	0.339396	0.865828	-0.00589	-6.129069	0.678482	4.507098
0.56	17.252594	-0.957607	-181.765319	45.388798	-1.627288	0.8005	-35.604831	9.704109	20.427496	-5.126175	-3.838227	-63.707796	-1.359684	0.322148	0.861197	-0.008381	-5.517064	0.876808	4.641824
0.57	17.509364	-0.835018	-181.840368	45.909225	-1.43259	0.75379	-38.400667	11.858253	22.769336	-5.748017	-4.007526	-66.596321	-0.966037	0.30513	0.856931	-0.010735	-4.884365	1.071029	4.785401
0.58	17.802233	-0.685691	-181.963481	46.275757	-1.222861	0.667168	-40.876758	13.88949	25.249123	-6.369352	-4.113021	-69.280762	-0.653876	0.288289	0.853147	-0.012896	-4.2265	1.262446	4.929343
0.59	18.119256	-0.520805	-182.154389	46.462452	-1.000064	0.529346	-42.994691	15.670016	27.815205	-6.979635	-4.174444	-71.705889	-0.315793	0.271569	0.849943	-0.014841	-3.538101	1.444683	5.067153
0.6	18.443848	-0.356262	-182.417473	46.447784	-0.773383	0.336179	-44.738503	17.15849	30.408529	-7.562261	-4.224296	-73.817639	0.147964	0.254918	0.847403	-0.016584	-2.817958	1.606338	5.192741
0.61	18.750478	-0.205529	-182.738078	46.202954	-0.556303	0.08608	-46.101934	18.38372	32.960534	-8.098534	-4.293696	-75.561742	0.816028	0.238281	0.845599	-0.018164	-2.072013	1.734945	5.294707
0.62	19.007059	-0.074479	-183.086005	45.689046	-0.36115	-0.223116	-47.077694	19.407824	35.396852	-8.571085	-4.40083	-76.884632	1.739858	0.221599	0.844606	-0.019635	-1.313586	1.820942	5.356753
0.63	19.186415	0.039238	-183.423376	44.867802	-0.194549	-0.592011	-47.65214	20.288459	37.650363	-8.965529	-4.54417	-77.736544	2.935518	0.20479	0.844487	-0.02105	-0.562062	1.859974	5.366843
0.64	19.276756	0.141947	-183.713981	43.715924	-0.056163	-1.014931	-47.806781	21.054339	39.673064	-9.270381	-4.70257	-78.074743	4.371653	0.18775	0.845292	-0.022453	0.159869	1.851756	5.325735
0.65	19.284317	0.23613	-183.932534	42.235	0.058509	-1.476414	-47.526581	21.69683	41.438884	-9.475594	-4.844409	-77.865778	5.966167	0.170364	0.847035	-0.023877	0.831567	1.795059	5.248798
0.66	19.226692	0.315765	-184.070257	40.451564	0.153663	-1.950915	-46.811544	22.175785	42.936781	-9.572002	-4.94407	-77.087753	7.601903	0.152531	0.849683	-0.025336	1.439825	1.68429	5.159643
0.67	19.121228	0.370055	-184.133062	38.407534	0.230361	-2.408657	-45.686179	22.435613	44.1601	-9.553246	-4.992945	-75.732234	9.150079	0.13419	0.853154	-0.026823	1.98002	1.51299	5.079268
0.68	18.979504	0.39056	-184.135454	36.153115	0.286734	-2.82629	-44.205088	22.423568	45.102916	-9.418244	-4.994963	-73.804398	10.490613	0.115328	0.857316	-0.028314	2.454953	1.280177	5.021039
0.69	18.808016	0.376167	-184.094664	33.743927	0.320923	-3.19663	-42.452246	22.103179	45.762625	-9.172101	-4.956278	-71.321851	11.533779	0.095976	0.862012	-0.029771	2.87393	0.994208	4.991081
0.7	18.607195	0.335779	-184.024309	31.233934	0.334286	-3.53246	-40.531645	21.463112	46.141145	-8.824233	-4.880758	-68.312806	12.236763	0.076193	0.867078	-0.03116	3.249372	0.673698	4.986304
0.71	18.370117	0.288673	-183.929144	28.667264	0.333766	-3.861533	-38.552191	20.522146	46.245331	-8.386039	-4.76952	-64.814467	12.601614	0.056054	0.872365	-0.032449	3.591659	0.345576	4.992528
0.72	18.085334	0.261779	-183.805655	26.076091	0.333885	-4.21301	-36.612358	19.325411	46.088751	-7.871833	-4.619958	-60.873709	12.65846	0.035645	0.877742	-0.033613	3.907288	0.0402	4.988113
0.73	17.741875	0.284143	-183.647937	23.483638	0.356315	-4.601218	-34.788519	17.928126	45.692442	-7.301754	-4.42426	-56.550807	12.448305	0.015039	0.883098	-0.034633	4.200949	-0.214903	4.951092
0.74	17.332972	0.380736	-183.454185	20.908613	0.425796	-5.016163	-33.129314	16.371676	45.083461	-6.70364	-4.168727	-51.923637	12.012936	-0.005702	0.888334	-0.035497	4.477918	-0.399327	4.865138
0.75	16.858549	0.567759	-183.230621	18.370344	0.56403	-5.426296	-31.657186	14.665114	44.293409	-6.11224	-3.83501	-47.087547	11.392504	-0.026534	0.893361	-0.036202	4.74439	-0.500427	4.722921
0.76	16.327489	0.849713	-182.991613	15.894399	0.783189	-5.791036	-30.376652	12.784823	43.3588	-5.564313	-3.404907	-42.148835	10.62817	-0.047426	0.8981	-0.036756	5.00547	-0.512384	4.527341
0.77	15.75924	1.218253	-182.756313	13.51683	1.081153	-6.07541	-29.286944	10.695148	42.322698	-5.090763	-2.869075	-37.215411	9.766269	-0.068365	0.902483	-0.037179	5.262271	-0.436422	4.291192
0.78	15.182089	1.653951	-182.543729	11.283548	1.441485	-6.259046	-28.393804	8.377347	41.234554	-4.709954	-2.233892	-32.390396	8.860402	-0.089348	0.906446	-0.037497	5.510737	-0.281935	4.034538
0.79	14.626764	2.131347	-182.368211	9.242925	1.83868	-6.335852	-27.714418	5.849578	40.145953	-4.425533	-1.519735	-27.770775	7.96989	-0.110375	0.909932	-0.037742	5.743305	-0.066383	3.779788
0.8	14.11889	2.625371	-182.237501	7.435839	2.245516	-6.306186	-27.274223	3.176293	39.104244	-4.229659	-0.756063	-23.448677	7.159213	-0.131448	0.912881	-0.037939	5.952957	0.187276	3.547296
0.81	13.674466	3.116777	-182.15355	5.888738	2.638758	-6.170197	-27.098663	0.46483	38.147518	-4.109377	0.020685	-19.511621	6.496904	-0.152557	0.915237	-0.038104	6.137083	0.455522	3.353361
0.82	13.300823	3.594384	-182.113947	4.613579	3.000815	-5.932015	-27.203675	-2.168725	37.304075	-4.051628	0.770758	-16.038699	6.039302	-0.173686	0.91695	-0.038241	6.297808	0.719374	3.211017
0.83	13.001834	4.053453	-182.11415	3.614033	3.31811	-5.611438	-27.589209	-4.655011	36.595501	-4.045611	1.457038	-13.093144	5.800914	-0.194817	0.917978	-0.038349	6.439939	0.967032	3.132312
0.84	12.780691	4.491942	-182.149986	2.890349	3.57814	-5.250417	-28.240651	-6.998799	36.03758	-4.083015	2.049513	-10.716392	5.737272	-0.215929	0.918293	-0.038427	6.568283	1.193524	3.127333
0.85	12.634283	4.905494	-182.217471	2.435074	3.764696	-4.903234	-29.13786	-9.252821	35.634287	-4.154388	2.528221	-8.928272	5.752662	-0.236999	0.917873	-0.038476	6.683975	1.396997	3.195981
0.86	12.542599	5.282287	-182.311042	2.223237	3.852523	-4.612106	-30.266841	-11.46301	35.368937	-4.243611	2.884956	-7.73359	5.722867	-0.257993	0.9167	-0.038501	6.782408	1.572651	3.316806
0.87	12.471964	5.601735	-182.423656	2.218003	3.807937	-4.393203	-31.630329	-13.621346	35.212221	-4.326679	3.121603	-7.133705	5.526361	-0.278858	0.914769	-0.038506	6.85486	1.708182	3.451241
0.88	12.398674	5.838832	-182.54872	2.39832	3.597987	-4.247427	-33.252986	-15.654109	35.152869	-4.376154	3.246111	-7.139149	5.081036	-0.299538	0.912096	-0.038499	6.891446	1.783618	3.568929
0.89	12.327024	5.971305	-182.680446	2.778923	3.202063	-4.173922	-35.176535	-17.450048	35.219901	-4.367321	3.27116	-7.774814	4.373707	-0.319974	0.908729	-0.038487	6.882455	1.776	3.667459
0.9	12.281472	5.986456	-182.810937	3.400277	2.619658	-4.167491	-37.446446	-18.895968	35.471731	-4.282923	3.215544	-9.071364	3.470003	-0.340094	0.904745	-0.038481	6.817806	1.667658	3.765977
0.91	12.284827	5.885426	-182.928083	4.301717	1.872253	-4.212737	-40.095531	-19.898497	35.963446	-4.116372	3.103357	-11.04508	2.509139	-0.359801	0.900247	-0.038496	6.687677	1.454069	3.884207
0.92	12.346415	5.683238	-183.019039	5.503999	0.99997	-4.292046	-43.128514	-20.401582	36.719541	-3.873689	2.958185	-13.674092	1.690095	-0.378989	0.895351	-0.038546	6.486511	1.146704	4.030315
0.93	12.466426	5.404613	-183.077326	7.009068	0.054352	-4.39735	-46.511754	-20.393758	37.724084	-3.572913	2.794728	-16.879219	1.238557	-0.397577	0.890185	-0.038642	6.217897	0.769662	4.203985
0.94	12.64186	5.07732	-183.107073	8.803172	-0.911196	-4.52803	-50.169879	-19.894575	38.919637	-3.239766	2.614914	-20.516828	1.352456	-0.415539	0.88489	-0.038792	5.895967	0.352673	4.400913
0.95	12.865561	4.726034	-183.120455	10.854775	-1.850911	-4.67957	-53.990066	-18.93377	40.210518	-2.90012	2.411556	-24.389597	2.148973	-0.432905	0.879625	-0.038998	5.540874	-0.076102	4.611087
0.96	13.124567	4.368941	-183.130835	13.114051	-2.732783	-4.8373	-57.834811	-17.54116	41.476601	-2.572814	2.173688	-28.274829	3.633353	-0.44976	0.874568	-0.039248	5.171086	-0.495181	4.817596
0.97	13.401073	4.017864	-183.146848	15.517827	-3.539086	-4.979864	-61.561363	-15.751647	42.596006	-2.267401	1.890062	-31.961566	5.696305	-0.466213	0.869897	-0.039522	4.798011	-0.891274	4.999397
0.98	13.673064	3.681217	-183.170022	17.996294	-4.262056	-5.088303	-65.041838	-13.616801	43.466541	-1.987665	1.552733	-35.284261	8.13867	-0.482379	0.865771	-0.039791	4.425492	-1.256928	5.134783
0.99	13.918072	3.367952	-183.197114	20.483533	-4.896863	-5.155163	-68.178254	-11.212981	44.023281	-1.738888	1.160173	-38.144168	10.715582	-0.49835	0.862303	-0.040029	4.053686	-1.586148	5.208018
1	14.122443	3.090371	-183.225141	22.931652	-5.434972	-5.187734	-70.907793	-8.643786	44.251286	-1.534357	0.71947	-40.514538	13.191265	-0.514194	0.859542	-0.040222	3.683809	-1.870469	5.22004
1.01	14.285727	2.863384	-183.254339	25.315053	-5.862606	-5.201032	-73.196796	-6.036006	44.181414	-1.394813	0.247357	-42.427454	15.388659	-0.529958	0.857475	-0.040375	3.319529	-2.098185	5.191578
1.02	14.415558	2.700216	-183.288266	27.620592	-6.164634	-5.204923	-75.02735	-3.526061	43.867521	-1.340875	-0.233419	-43.946512	17.216035	-0.545686	0.856054	-0.04051	2.965809	-2.257436	5.153961
1.03	14.523972	2.608138	-183.333103	29.838257	-6.328593	-5.197589	-76.383912	-1.235733	43.3639	-1.385079	-0.702617	-45.136669	18.665435	-0.561433	0.855234	-0.040666	2.628083	-2.339865	5.140101
1.04	14.626658	2.58657	-183.394608	31.95619	-6.348371	-5.173135	-77.245769	0.758068	42.710964	-1.525594	-1.149515	-46.039981	19.784796	-0.577275	0.854994	-0.040884	2.310495	-2.342314	5.179336
1.05	14.737092	2.626672	-183.47209	33.953288	-6.229946	-5.136135	-77.587469	2.442071	41.923571	-1.740957	-1.572673	-46.661167	20.63839	-0.593308	0.855357	-0.041202	2.01201	-2.267701	5.289545
1.06	14.860328	2.71228	-183.554513	35.796321	-5.995079	-5.10718	-77.386146	3.851545	40.987834	-1.990906	-1.974985	-46.967572	21.283319	-0.609623	0.856371	-0.041647	1.724211	-2.125732	5.471089
1.07	14.991852	2.823804	-183.621378	37.445755	-5.678225	-5.113219	-76.632343	5.028609	39.87149	-2.226748	-2.360411	-46.906225	21.76619	-0.626286	0.858086	-0.04223	1.432996	-1.931924	5.706738
1.08	15.116585	2.944668	-183.64548	38.860116	-5.318557	-5.172486	-75.33922	5.993401	38.538838	-2.405816	-2.734638	-46.432635	22.116464	-0.643314	0.860529	-0.042946	1.122181	-1.704853	5.961472
1.09	15.207563	3.066593	-183.596989	39.996291	-4.951013	-5.28559	-73.543983	6.747908	36.963225	-2.503261	-3.107248	-45.539629	22.332144	-0.66067	0.863681	-0.043776	0.779376	-1.464261	6.181442
1.1	15.230998	3.189764	-183.449951	40.814627	-4.599549	-5.435382	-71.298629	7.290943	35.138664	-2.517125	-3.490969	-44.274715	22.380118	-0.67828	0.867473	-0.044696	0.404651	-1.232201	6.299456
1.11	15.157459	3.316383	-183.188344	41.290516	-4.276968	-5.593809	-68.655161	7.626711	33.088376	-2.463381	-3.895794	-42.737993	22.215233	-0.696054	0.871801	-0.045692	-0.052737	-0.997365	6.287161
1.12	14.971648	3.441493	-182.807673	41.424156	-3.991991	-5.733377	-65.654965	7.77147	30.864087	-2.362719	-4.321095	-41.060175	21.79856	-0.713912	0.87653	-0.046771	-0.747489	-0.685279	6.189432
1.13	14.676805	3.548434	-182.313737	41.242459	-3.756072	-5.837087	-62.326799	7.758032	28.536004	-2.228931	-4.751249	-39.371087	21.107193	-0.731798	0.881521	-0.047964	0	0	0
1.14	14.292678	3.611767	-181.723011	40.792274	-3.582896	-5.899975	-58.692523	7.633721	26.177456	-2.066896	-5.158264	-37.772654	20.138107	-0.74969	0.886632	-0.049308	0	0	0
1.15	13.849579	3.605341	-181.064115	40.12982	-3.481179	-5.921748	-54.777474	7.451375	23.851845	-1.878864	-5.510584	-36.326697	18.907439	-0.767611	0.891732	-0.050832	0	0	0
1.16	13.384884	3.511664	-180.377173	39.315106	-3.44631	-5.896519	-50.620508	7.254807	21.61075	-1.672803	-5.785203	-35.059754	17.449489	-0.78562	0.896701	-0.05254	0	0	0
1.17	12.940556	3.327166	-179.709632	38.410586	-3.458025	-5.808208	-46.280012	7.070009	19.498688	-1.465342	-5.978412	-33.976881	15.811176	-0.8038	0.901433	-0.054402	0	0	0
1.18	12.554231	3.060045	-179.108065	37.475336	-3.488171	-5.636933	-41.83504	6.907905	17.551994	-1.275538	-6.106047	-33.073972	14.034982	-0.822232	0.905831	-0.056364	0	0	0
1.19	12.246398	2.72364	-178.607808	36.554814	-3.513936	-5.372372	-37.38161	6.768988	15.791594	-1.114735	-6.190861	-32.345549	12.14072	-0.840959	0.909813	-0.058363	0	0	0
1.2	12.014194	2.330984	-178.22506	35.675179	-3.527229	-5.023146	-33.025302	6.645672	14.219794	-0.981563	-6.24866	-31.790034	10.122133	-0.859964	0.913305	-0.060341	0	0	0
1.21	11.83453	1.893208	-177.954212	34.84459	-3.535769	-4.615691	-28.871846	6.527287	12.824454	-0.864777	-6.28276	-31.413648	7.95665	-0.879174	0.916245	-0.062268	0	0	0
1.22	11.672385	1.42038	-177.770257	34.057848	-3.558222	-4.185399	-25.017483	6.407439	11.586895	-0.749919	-6.285992	-31.232175	5.615275	-0.898477	0.918585	-0.064142	0	0	0
1.23	11.491706	0.922609	-177.636089	33.303348	-3.616778	-3.766148	-21.541103	6.287478	10.49064	-0.625518	-6.246698	-31.269386	3.06816	-0.917745	0.920296	-0.065988	0	0	0
1.24	11.266847	0.410185	-177.513434	32.57204	-3.729471	-3.382318	-18.500313	6.173388	9.528771	-0.486914	-6.155765	-31.551811	0.290147	-0.93687	0.921367	-0.067842	0	0	0
1.25	10.991036	-0.106786	-177.373817	31.86596	-3.904103	-3.044263	-15.93209	6.067367	8.707766	-0.337517	-6.012242	-32.101737	-2.727997	-0.955776	0.921801	-0.069741	0	0	0
1.26	10.679379	-0.617189	-177.20555	31.203768	-4.134363	-2.746527	-13.857281	5.954995	8.047736	-0.189254	-5.826335	-32.932534	-5.956523	-0.974435	0.921607	-0.071704	0	0	0
1.27	10.364892	-1.105266	-177.014409	30.620995	-4.398289	-2.472628	-12.288579	5.795472	7.578957	-0.063836	-5.619675	-34.048936	-9.295462	-0.992855	0.920801	-0.073729	0	0	0
1.28	10.086375	-1.546195	-176.818468	30.161903	-4.658518	-2.213702	-11.241019	5.530382	7.332718	0.005164	-5.422809	-35.451095	-12.554052	-1.011064	0.919397	-0.07579	0	0	0
1.29	9.875101	-1.904679	-176.640595	29.86911	-4.86537	-1.987094	-10.74224	5.111581	7.331543	-0.027355	-5.269327	-37.138284	-15.463662	-1.029081	0.917421	-0.077844	0	0	0
1.3	9.751424	-2.140448	-176.502748	29.782461	-4.965843	-1.827616	-10.837182	4.531161	7.588315	-0.210666	-5.186257	-39.107953	-17.730633	-1.046908	0.914911	-0.07984	0	0	0
1.31	9.726399	-2.220086	-176.422438	29.939359	-4.917899	-1.761541	-11.579458	3.84293	8.10889	-0.583882	-5.184377	-41.350123	-19.107332	-1.064512	0.911915	-0.081733	0	0	0
1.32	9.798095	-2.130034	-176.409906	30.362811	-4.704542	-1.792617	-13.007171	3.171316	8.888477	-1.16029	-5.254958	-43.84087	-19.452676	-1.081835	0.908488	-0.083499	0	0	0
1.33	9.948596	-1.884196	-176.466847	31.04528	-4.34053	-1.899923	-15.111689	2.694511	9.908578	-1.918311	-5.375231	-46.53838	-18.762265	-1.098794	0.904692	-0.085136	0	0	0
1.34	10.150042	-1.521402	-176.585695	31.941902	-3.867897	-2.041482	-17.81255	2.589945	11.143135	-2.804546	-5.517189	-49.384905	-17.153353	-1.11531	0.900598	-0.086662	0	0	0
1.35	10.37647	-1.093308	-176.748624	32.975467	-3.342289	-2.167488	-20.950917	2.967603	12.569643	-3.748263	-5.653481	-52.31321	-14.821051	-1.131344	0.896296	-0.088108	0	0	0
1.36	10.612298	-0.647702	-176.930481	34.048749	-2.814281	-2.2385	-24.30786	3.837654	14.174015	-4.682292	-5.760088	-55.252044	-12.00022	-1.146909	0.891911	-0.089503	0	0	0
1.37	10.852671	-0.214784	-177.10562	35.058773	-2.314368	-2.239921	-27.641518	5.118013	15.945009	-5.560732	-5.816319	-58.129526	-8.935835	-1.162069	0.887599	-0.090863	0	0	0
1.38	11.101047	0.196525	-177.252792	35.913534	-1.851183	-2.187646	-30.730326	6.664338	17.867415	-6.363103	-5.80278	-60.875885	-5.851961	-1.176926	0.883546	-0.092187	0	0	0
1.39	11.366684	0.5909	-177.357412	36.548293	-1.42153	-2.12152	-33.410217	8.315437	19.918666	-7.084648	-5.701902	-63.425255	-2.926401	-1.191595	0.879941	-0.09346	0	0	0
1.4	11.656029	0.972424	-177.414171	36.929748	-1.022952	-2.088202	-35.595283	9.936425	22.06172	-7.721735	-5.503599	-65.715948	-0.283098	-1.206169	0.876945	-0.094664	0	0	0
1.41	11.961076	1.332256	-177.429191	37.04732	-0.661133	-2.12105	-37.276967	11.443429	24.236635	-8.262196	-5.213916	-67.690061	1.996334	-1.220704	0.874661	-0.095793	0	0	0
1.42	12.257621	1.646055	-177.418072	36.904802	-0.34942	-2.226154	-38.505172	12.809631	26.364821	-8.685908	-4.861503	-69.294485	3.851731	-1.235201	0.873123	-0.096859	0	0	0
1.43	12.516111	1.881795	-177.398703	36.518629	-0.104048	-2.380572	-39.359946	14.05493	28.367836	-8.97246	-4.49621	-70.482524	5.228249	-1.249628	0.872311	-0.097891	0	0	0
1.44	12.714177	2.010407	-177.383612	35.916912	0.059878	-2.541723	-39.925254	15.227187	30.185388	-9.10819	-4.179288	-71.213546	6.0775	-1.263939	0.872178	-0.098926	0	0	0
1.45	12.840978	2.014121	-177.377181	35.132696	0.131545	-2.662413	-40.271523	16.383184	31.779887	-9.090725	-3.970367	-71.451215	6.377326	-1.278099	0.872688	-0.099999	0	0	0
1.46	12.897438	1.893988	-177.378015	34.196611	0.109365	-2.709055	-40.446309	17.564889	33.134403	-8.933588	-3.916619	-71.164453	6.155742	-1.292106	0.873825	-0.101135	0	0	0
1.47	12.898394	1.676013	-177.382891	33.135759	0.00684	-2.678789	-40.471122	18.770118	34.253753	-8.6685	-4.044874	-70.33206	5.504682	-1.306015	0.875596	-0.102324	0	0	0
1.48	12.867699	1.41187	-177.387635	31.969554	-0.14436	-2.60555	-40.343064	19.931968	35.159985	-8.340973	-4.353202	-68.946499	4.580539	-1.319942	0.878011	-0.103512	0	0	0
1.49	12.822016	1.171315	-177.384348	30.698339	-0.296943	-2.552483	-40.041866	20.921945	35.875941	-7.999248	-4.801542	-67.011199	3.584434	-1.334039	0.881058	-0.104601	0	0	0
1.5	12.756348	1.027694	-177.358831	29.298323	-0.396128	-2.599088	-39.542444	21.577208	36.408835	-7.680799	-5.308875	-64.531236	2.711528	-1.348455	0.884683	-0.105469	0	0	0
1.51	12.642177	1.044088	-177.290094	27.730503	-0.388779	-2.82873	-38.827233	21.733456	36.745725	-7.403573	-5.766524	-61.50434	2.086672	-1.363304	0.888784	-0.105992	0	0	0
1.52	12.438163	1.268219	-177.149687	25.958689	-0.228325	-3.314902	-37.891841	21.244999	36.863899	-7.167445	-6.060966	-57.922245	1.728162	-1.378657	0.893224	-0.106062	0	0	0
1.53	12.10391	1.736341	-176.900383	23.965503	0.125213	-4.106211	-36.744282	19.996631	36.748183	-6.964853	-6.087897	-53.787468	1.563288	-1.394531	0.897839	-0.105593	0	0	0
1.54	11.611113	2.475833	-176.502029	21.762896	0.705851	-5.209816	-35.403387	17.920042	36.404995	-6.794642	-5.76697	-49.143211	1.484427	-1.410872	0.902465	-0.10452	0	0	0
1.55	10.964699	3.495393	-175.931054	19.413416	1.534543	-6.569757	-33.903735	15.023838	35.880335	-6.670461	-5.077002	-44.108912	1.410587	-1.427545	0.906939	-0.102819	0	0	0
1.56	10.243959	4.764638	-175.207838	17.072484	2.597396	-8.053164	-32.312055	11.448052	35.291896	-6.616046	-4.084299	-38.911767	1.318231	-1.444312	0.911101	-0.100543	0	0	0
1.57	9.647007	6.193348	-174.425557	15.030106	3.81282	-9.463864	-30.750164	7.528774	34.857668	-6.648852	-2.934977	-33.904164	1.235878	-1.460789	0.914768	-0.09785	0	0	0
