JoggingL1_filt_ID.mot
version=1
datacolumns 20
datarows 287
range 0.00000 2.86000
inDegrees=yes
endheader
time	pelvis_tilt	pelvis_list	pelvis_rotation	hip_flexion_r	hip_adduction_r	hip_rotation_r	knee_angle_r	ankle_angle_r	hip_flexion_l	hip_adduction_l	hip_rotation_l	knee_angle_l	ankle_angle_l	pelvis_tx	pelvis_ty	pelvis_tz	lumbar_bending	lumbar_rotation	lumbar_extension
0.000000	20.516822	7.043324	-173.060803	33.577131	-2.860104	-8.110075	-33.254590	11.183360	13.885719	-3.161696	-5.821451	-7.089930	13.082449	2.268829	0.935847	0.108563	-0.000000	-0.000000	0.000000
0.010000	20.705549	6.823909	-173.371378	34.614342	-3.213054	-7.283156	-34.957184	11.323073	13.802677	-2.958940	-6.523347	-7.249884	13.565057	2.265007	0.935024	0.108969	-0.000000	-0.000000	0.000000
0.020000	20.836121	6.462426	-173.670738	36.314938	-3.653772	-6.746972	-37.812074	11.726131	13.573044	-2.610991	-6.900073	-7.558309	14.109215	2.258655	0.933292	0.109249	-0.000000	-0.000000	0.000000
0.030000	20.891790	6.428007	-173.774367	36.916869	-3.659981	-6.828122	-38.611345	11.918518	13.482318	-2.597282	-6.863292	-7.687341	14.276707	2.255740	0.932566	0.109386	-0.000000	-0.000000	0.000000
0.040000	20.967820	6.428259	-173.917415	37.594742	-3.610510	-6.955169	-39.409176	12.140463	13.373957	-2.633504	-6.816864	-7.844309	14.491620	2.252112	0.931718	0.109590	-0.000000	-0.000000	0.000000
0.050000	21.059501	6.463816	-174.110078	38.323802	-3.503708	-7.103941	-40.157374	12.380491	13.242637	-2.724915	-6.781896	-8.031218	14.769966	2.247811	0.930762	0.109862	-0.000000	-0.000000	0.000000
0.060000	21.156448	6.527878	-174.353730	39.077708	-3.349061	-7.259175	-40.819036	12.622273	13.081606	-2.866693	-6.772744	-8.247218	15.121532	2.242939	0.929704	0.110189	-0.000000	-0.000000	0.000000
0.070000	21.245106	6.608171	-174.640190	39.838449	-3.165965	-7.416319	-41.382037	12.847532	12.881642	-3.045020	-6.792515	-8.486538	15.549602	2.237610	0.928534	0.110548	-0.000000	-0.000000	0.000000
0.080000	21.314772	6.690758	-174.953170	40.600625	-2.978567	-7.581555	-41.855790	13.046266	12.634810	-3.240586	-6.836489	-8.737753	16.046975	2.231925	0.927229	0.110913	-0.000000	-0.000000	0.000000
0.090000	21.362436	6.764530	-175.272173	41.368789	-2.809090	-7.766254	-42.257037	13.222088	12.338136	-3.434271	-6.898696	-8.984939	16.593968	2.225942	0.925766	0.111265	-0.000000	-0.000000	0.000000
0.100000	21.390512	6.824986	-175.578297	42.147061	-2.671165	-7.976545	-42.593073	13.383367	11.990944	-3.614283	-6.972037	-9.210644	17.166356	2.219688	0.924138	0.111587	-0.000000	-0.000000	0.000000
0.110000	21.401260	6.875267	-175.859969	42.929894	-2.565529	-8.206460	-42.853132	13.530788	11.589721	-3.780752	-7.046598	-9.399252	17.747751	2.213169	0.922361	0.111869	-0.000000	-0.000000	0.000000
0.120000	21.391895	6.923067	-176.115951	43.699759	-2.480630	-8.437623	-43.012778	13.650899	11.124274	-3.943903	-7.110080	-9.538548	18.336651	2.206385	0.920477	0.112102	-0.000000	-0.000000	0.000000
0.130000	21.357284	6.974144	-176.353967	44.436476	-2.400009	-8.649049	-43.047581	13.718261	10.582736	-4.115232	-7.154478	-9.619819	18.940508	2.199344	0.918539	0.112275	-0.000000	-0.000000	0.000000
0.140000	21.300207	7.026643	-176.585451	45.133197	-2.313055	-8.832095	-42.946276	13.706623	9.965342	-4.297235	-7.187655	-9.638120	19.560063	2.192062	0.916606	0.112371	-0.000000	-0.000000	0.000000
0.150000	21.234628	7.070896	-176.819685	45.800191	-2.219903	-8.991505	-42.714182	13.602611	9.289589	-4.480322	-7.235195	-9.592768	20.180364	2.184555	0.914728	0.112373	-0.000000	-0.000000	0.000000
0.160000	21.178400	7.094458	-177.061078	46.453518	-2.126859	-9.132219	-42.367332	13.415503	8.581617	-4.648510	-7.329132	-9.487852	20.773009	2.176837	0.912939	0.112262	-0.000000	-0.000000	0.000000
0.170000	21.145800	7.088548	-177.309609	47.102611	-2.038338	-9.248669	-41.923879	13.179574	7.866104	-4.788279	-7.494673	-9.333729	21.300899	2.168914	0.911259	0.112025	-0.000000	-0.000000	0.000000
0.180000	21.143579	7.052704	-177.561480	47.743665	-1.951901	-9.322169	-41.397906	12.945062	7.160377	-4.895392	-7.739798	-9.148629	21.722345	2.160770	0.909686	0.111653	-0.000000	-0.000000	0.000000
0.190000	21.168938	6.995924	-177.808457	48.358872	-1.858840	-9.324952	-40.798571	12.759587	6.471482	-4.977161	-8.048172	-8.957827	21.995552	2.152377	0.908217	0.111149	-0.000000	-0.000000	0.000000
0.200000	21.212483	6.933299	-178.036369	48.924089	-1.750561	-9.232782	-40.134904	12.647806	5.800057	-5.048877	-8.382281	-8.791080	22.084250	2.143697	0.906852	0.110518	-0.000000	-0.000000	0.000000
0.210000	21.266383	6.879484	-178.225377	49.422463	-1.626625	-9.041137	-39.422671	12.599405	5.150853	-5.126558	-8.699081	-8.680701	21.964536	2.134691	0.905599	0.109767	-0.000000	-0.000000	0.000000
0.220000	21.329115	6.843129	-178.354767	49.851922	-1.496780	-8.770568	-38.687691	12.574979	4.538522	-5.221616	-8.965337	-8.659639	21.630262	2.125329	0.904473	0.108893	-0.000000	-0.000000	0.000000
0.230000	21.402875	6.824682	-178.410418	50.221345	-1.376037	-8.457220	-37.963331	12.527669	3.983619	-5.339141	-9.162477	-8.759228	21.094399	2.115601	0.903490	0.107887	-0.000000	-0.000000	0.000000
0.240000	21.488426	6.817565	-178.389979	50.541336	-1.278144	-8.137073	-37.284436	12.426962	3.504666	-5.478426	-9.282787	-9.007146	20.386509	2.105514	0.902652	0.106735	-0.000000	-0.000000	0.000000
0.250000	21.583533	6.811536	-178.302950	50.817983	-1.211715	-7.834194	-36.681355	12.271392	3.113571	-5.635059	-9.324065	-9.425094	19.547381	2.095093	0.901946	0.105428	-0.000000	-0.000000	0.000000
0.260000	21.687753	6.795032	-178.167601	51.054656	-1.179955	-7.558383	-36.176971	12.085655	2.817502	-5.802667	-9.289290	-10.025773	18.622616	2.084358	0.901341	0.103970	-0.000000	-0.000000	0.000000
0.270000	21.805796	6.755519	-178.007477	51.254275	-1.181724	-7.305927	-35.785846	11.906980	2.620202	-5.973940	-9.187087	-10.810189	17.655804	2.073315	0.900795	0.102371	-0.000000	-0.000000	0.000000
0.280000	21.943052	6.680883	-177.846844	51.414559	-1.212000	-7.062047	-35.513431	11.765195	2.518847	-6.143266	-9.028776	-11.768419	16.675597	2.061951	0.900259	0.100647	-0.000000	-0.000000	0.000000
0.290000	22.102216	6.563769	-177.704988	51.525523	-1.262230	-6.810140	-35.356482	11.667622	2.507396	-6.311429	-8.827383	-12.887195	15.681006	2.050248	0.899695	0.098814	-0.000000	-0.000000	0.000000
0.300000	22.285441	6.406524	-177.592457	51.574774	-1.320982	-6.538986	-35.307058	11.605714	2.587769	-6.489596	-8.598177	-14.162014	14.642406	2.038184	0.899076	0.096893	-0.000000	-0.000000	0.000000
0.310000	22.494282	6.222667	-177.512578	51.553048	-1.373340	-6.243977	-35.359404	11.573508	2.774622	-6.699333	-8.357587	-15.605086	13.513998	2.025759	0.898388	0.094905	-0.000000	-0.000000	0.000000
0.320000	22.727081	6.032781	-177.467931	51.458322	-1.399180	-5.928518	-35.517097	11.578750	3.090454	-6.967246	-8.122552	-17.243903	12.243886	2.013003	0.897620	0.092875	-0.000000	-0.000000	0.000000
0.330000	22.978973	5.856366	-177.464932	51.301104	-1.375675	-5.602906	-35.797730	11.648296	3.559773	-7.315421	-7.908086	-19.114250	10.786979	1.999979	0.896752	0.090823	-0.000000	-0.000000	0.000000
0.340000	23.242366	5.704011	-177.511070	51.105909	-1.286196	-5.279842	-36.231837	11.825776	4.204226	-7.752163	-7.720393	-21.251834	9.123148	1.986774	0.895752	0.088758	-0.000000	-0.000000	0.000000
0.350000	23.503647	5.574421	-177.609745	50.903008	-1.127948	-4.967972	-36.853786	12.157583	5.034248	-8.268268	-7.550561	-23.683293	7.273848	1.973487	0.894587	0.086677	-0.000000	-0.000000	0.000000
0.360000	23.739850	5.457533	-177.758843	50.714989	-0.912159	-4.666884	-37.687606	12.676561	6.041642	-8.840138	-7.375315	-26.418643	5.309968	1.960216	0.893230	0.084578	-0.000000	-0.000000	0.000000
0.370000	23.926927	5.340107	-177.951881	50.553595	-0.660086	-4.374417	-38.735215	13.393249	7.207994	-9.435937	-7.166043	-29.449746	3.345952	1.947033	0.891672	0.082463	-0.000000	-0.000000	0.000000
0.380000	24.055440	5.208942	-178.178570	50.426059	-0.398971	-4.097454	-39.971052	14.298795	8.524760	-10.020546	-6.901148	-32.755180	1.525648	1.933979	0.889923	0.080343	-4.450557	5.125920	1.243893
0.390000	24.134478	5.051507	-178.424277	50.332717	-0.156976	-3.847414	-41.341265	15.374044	10.001097	-10.559494	-6.575233	-36.305627	0.002656	1.921060	0.888005	0.078232	-4.037999	5.179983	1.257313
0.400000	24.185368	4.857717	-178.668820	50.258338	0.042899	-3.632769	-42.766680	16.594625	11.658679	-11.024231	-6.201297	-40.064317	-1.092581	1.908255	0.885947	0.076137	-3.066560	5.380905	0.863956
0.410000	24.234985	4.624247	-178.886430	50.169355	0.187913	-3.460857	-44.151548	17.933120	13.523849	-11.398587	-5.805973	-43.983559	-1.691574	1.895522	0.883783	0.074058	-2.449610	5.312857	0.720485
0.420000	24.304426	4.357981	-179.049818	50.014894	0.278051	-3.336472	-45.400065	19.362836	15.613696	-11.682542	-5.421811	-48.002328	-1.807765	1.882796	0.881552	0.071994	-1.813969	5.239612	0.586997
0.430000	24.399523	4.075899	-179.137071	49.736948	0.323632	-3.260163	-46.438128	20.854972	17.925520	-11.890450	-5.078891	-52.049297	-1.526308	1.870019	0.879305	0.069952	-1.207226	5.169109	0.489372
0.440000	24.516116	3.802409	-179.138179	49.295847	0.339459	-3.234583	-47.230804	22.363416	20.444092	-12.045663	-4.794504	-56.050657	-0.969396	1.857151	0.877110	0.067952	-0.668593	5.113517	0.437457
0.450000	24.655352	3.564366	-179.060055	48.697013	0.339757	-3.266314	-47.786495	23.812195	23.158753	-12.173908	-4.562831	-59.937180	-0.252167	1.844182	0.875051	0.066023	-0.218751	5.087843	0.436724
0.460000	24.834094	3.383570	-178.928201	47.997757	0.335440	-3.357726	-48.145999	25.105036	26.072161	-12.295943	-4.353990	-63.646265	0.546797	1.831125	0.873222	0.064193	0.145483	5.103325	0.501236
0.470000	25.076500	3.269384	-178.782784	47.279584	0.333424	-3.500117	-48.360021	26.156826	29.185999	-12.421699	-4.132342	-67.118737	1.386915	1.818008	0.871715	0.062475	0.450384	5.159594	0.650519
0.480000	25.393144	3.215281	-178.668350	46.600735	0.336620	-3.675048	-48.464381	26.924889	32.473818	-12.548561	-3.882342	-70.294803	2.250989	1.804861	0.870608	0.060864	0.736820	5.241504	0.892880
0.490000	25.770905	3.201194	-178.620215	45.966413	0.343144	-3.861324	-48.465279	27.419483	35.870469	-12.662937	-3.618015	-73.115360	3.136049	1.791683	0.869967	0.059345	1.045594	5.322450	1.217155
0.500000	26.176999	3.200233	-178.654846	45.328798	0.346559	-4.043213	-48.340114	27.692357	39.281649	-12.743772	-3.375679	-75.528087	4.051428	1.778429	0.869830	0.057901	1.404432	5.371500	1.595353
0.510000	26.569195	3.186800	-178.768194	44.607544	0.338766	-4.216380	-48.049198	27.811118	42.602850	-12.767962	-3.197676	-77.492177	5.007015	1.765008	0.870214	0.056528	1.822092	5.361168	1.988948
0.520000	26.908991	3.142472	-178.939911	43.719020	0.312818	-4.389605	-47.549290	27.832950	45.741527	-12.714135	-3.111969	-78.978349	5.994083	1.751313	0.871115	0.055241	2.289076	5.273077	2.358838
0.530000	27.166197	3.056726	-179.142055	42.593197	0.264389	-4.581924	-46.801355	27.792996	48.625594	-12.564370	-3.123690	-79.964257	6.982262	1.737238	0.872516	0.054063	2.785155	5.099416	2.669390
0.540000	27.312831	2.924599	-179.350140	41.172419	0.194203	-4.814657	-45.770979	27.703065	51.194975	-12.308419	-3.220791	-80.427642	7.932225	1.722708	0.874398	0.053018	3.291238	4.841620	2.884374
0.550000	27.319593	2.744545	-179.550462	39.408718	0.109404	-5.099947	-44.427775	27.549617	53.394587	-11.947671	-3.380002	-80.342013	8.804666	1.707683	0.876743	0.052120	3.797448	4.507944	2.966757
0.560000	27.161567	2.516494	-179.739514	37.271317	0.019583	-5.431238	-42.751770	27.294652	55.178574	-11.492263	-3.570538	-79.677941	9.561796	1.692145	0.879532	0.051360	4.302150	4.109409	2.887034
0.570000	26.828998	2.240450	-179.918725	34.761701	-0.070015	-5.780180	-40.747078	26.885591	56.521122	-10.954233	-3.761374	-78.409511	10.168736	1.676090	0.882738	0.050711	4.805491	3.655161	2.634528
0.580000	26.336068	1.916842	-180.090346	31.926823	-0.162032	-6.102176	-38.455311	26.270456	57.425876	-10.344195	-3.930545	-76.523161	10.597894	1.659520	0.886315	0.050134	5.304210	3.149815	2.224824
0.590000	25.721041	1.549804	-180.254793	28.858840	-0.264934	-6.350947	-35.958500	25.408030	57.928276	-9.672110	-4.065330	-74.026621	10.830865	1.642443	0.890202	0.049587	5.788921	2.595782	1.698203
0.600000	25.034780	1.151705	-180.408737	25.675564	-0.387175	-6.496206	-33.366861	24.269199	58.086743	-8.948795	-4.152487	-70.955985	10.856523	1.624881	0.894325	0.049041	6.243854	2.000043	1.107522
0.610000	24.324719	0.744125	-180.545492	22.491407	-0.532091	-6.535177	-30.796348	22.836884	57.966259	-8.185948	-4.172094	-67.377304	10.673543	1.606868	0.898609	0.048487	6.650380	1.379573	0.502700
0.620000	23.626346	0.353395	-180.657909	19.397344	-0.696825	-6.492897	-28.346479	21.110288	57.625814	-7.394887	-4.100773	-63.380395	10.300855	1.588445	0.902979	0.047943	6.993369	0.760572	-0.077220
0.630000	22.965353	0.002672	-180.744018	16.458764	-0.874534	-6.411603	-26.088091	19.108555	57.114538	-6.587481	-3.920084	-59.065567	9.787325	1.569646	0.907365	0.047447	7.269159	0.171118	-0.602374
0.640000	22.362773	-0.293792	-180.811636	13.723436	-1.056556	-6.334211	-24.063827	16.866087	56.472624	-5.779436	-3.625271	-54.529371	9.208306	1.550486	0.911704	0.047037	7.490075	-0.366946	-1.048210
0.650000	21.835424	-0.529579	-180.875649	11.226931	-1.232760	-6.289403	-22.297448	14.421609	55.733275	-4.991295	-3.229085	-49.858352	8.646094	1.530975	0.915930	0.046744	7.679069	-0.840384	-1.395800
0.660000	21.392290	-0.701859	-180.951207	8.993142	-1.391658	-6.283241	-20.806537	11.810305	54.924458	-4.246878	-2.758990	-45.133820	8.163970	1.511120	0.919972	0.046583	7.858894	-1.242974	-1.635093
0.670000	21.031664	-0.808646	-181.050031	7.033921	-1.521464	-6.298366	-19.612763	9.066442	54.070349	-3.572454	-2.251174	-40.442867	7.789506	1.490937	0.923742	0.046548	8.044684	-1.573640	-1.766764
0.680000	20.740632	-0.847104	-181.179454	5.348350	-1.611273	-6.300757	-18.744362	6.233048	53.191984	-2.995424	-1.741471	-35.887832	7.517237	1.470454	0.927137	0.046616	8.240745	-1.833626	-1.801716
0.690000	20.497834	-0.813156	-181.342007	3.923585	-1.652418	-6.252802	-18.231647	3.368811	52.307156	-2.540420	-1.254587	-31.587060	7.329375	1.449718	0.930047	0.046755	8.439968	-2.023836	-1.758143
0.700000	20.283210	-0.703990	-181.536535	2.743988	-1.640850	-6.128888	-18.101100	0.543767	51.434311	-2.224442	-0.800776	-27.665547	7.220627	1.428784	0.932371	0.046937	8.626932	-2.145760	-1.652951
0.710000	20.089688	-0.522970	-181.760478	1.804525	-1.580840	-5.926617	-18.370967	-2.185339	50.598438	-2.051817	-0.381254	-24.239079	7.199773	1.407710	0.934031	0.047143	8.783925	-2.205918	-1.492176
0.720000	19.924638	-0.284102	-182.010968	1.114459	-1.488390	-5.667037	-19.048959	-4.800298	49.829516	-2.009256	0.007772	-21.399034	7.263156	1.386549	0.934986	0.047374	8.896241	-2.219680	-1.271450
0.730000	19.803112	-0.011427	-182.283005	0.691728	-1.389431	-5.385157	-20.133004	-7.311599	49.158363	-2.065022	0.375107	-19.208201	7.373290	1.365359	0.935226	0.047642	8.953613	-2.209821	-0.983545
0.740000	19.741510	0.266882	-182.566530	0.556192	-1.312020	-5.115431	-21.612238	-9.733206	48.617937	-2.175240	0.730591	-17.708787	7.457618	1.344202	0.934775	0.047965	8.948726	-2.200520	-0.624296
0.750000	19.748982	0.523232	-182.846273	0.719651	-1.280954	-4.874105	-23.465819	-12.076113	48.240881	-2.293328	1.074140	-16.931151	7.418475	1.323158	0.933681	0.048358	8.876700	-2.212988	-0.200264
0.760000	19.817719	0.732502	-183.104826	1.175217	-1.317453	-4.648657	-25.664150	-14.337387	48.049427	-2.378624	1.389028	-16.893952	7.161378	1.302323	0.932010	0.048824	8.736715	-2.264544	0.263312
0.770000	19.924634	0.876686	-183.326337	1.899578	-1.435679	-4.409972	-28.175497	-16.467163	48.051011	-2.405401	1.651083	-17.595952	6.642939	1.281805	0.929837	0.049352	8.533245	-2.366215	0.727308
0.780000	20.044793	0.952004	-183.499486	2.867709	-1.635505	-4.140374	-30.972457	-18.352828	48.242314	-2.370000	1.845950	-19.002947	5.908784	1.261697	0.927236	0.049929	8.275041	-2.517728	1.155595
0.790000	20.160513	0.970731	-183.620450	4.062605	-1.901594	-3.850095	-34.033029	-19.849336	48.607262	-2.289936	1.975359	-21.034890	5.091411	1.242061	0.924267	0.050545	7.973457	-2.705429	1.526024
0.800000	20.257680	0.954024	-183.695985	5.471851	-2.212831	-3.569094	-37.339051	-20.823875	49.105003	-2.194479	2.046173	-23.561964	4.369290	1.222923	0.920985	0.051190	7.642291	-2.907239	1.826397
0.810000	20.320223	0.921010	-183.743691	7.082253	-2.554246	-3.327470	-40.874876	-21.181075	49.665135	-2.112299	2.056539	-26.417304	3.913985	1.204279	0.917447	0.051856	7.297468	-3.101809	2.047194
0.820000	20.336125	0.881715	-183.786587	8.884652	-2.921957	-3.142719	-44.624395	-20.876307	50.205480	-2.061654	1.996392	-29.424656	3.851168	1.186098	0.913728	0.052533	6.953405	-3.275880	2.185428
0.830000	20.310656	0.836187	-183.845298	10.884006	-3.319745	-3.016383	-48.564505	-19.927706	50.662128	-2.046603	1.858512	-32.428741	4.244201	1.168310	0.909918	0.053204	6.617975	-3.426836	2.255675
0.840000	20.272840	0.778126	-183.933608	13.102237	-3.751395	-2.934205	-52.657121	-18.417972	51.009120	-2.060590	1.645927	-35.314485	5.096329	1.150820	0.906120	0.053850	6.290336	-3.560550	2.294519
0.850000	20.267196	0.700136	-184.056422	15.567114	-4.214119	-2.868936	-56.843078	-16.478469	51.254863	-2.092491	1.373921	-38.008465	6.363591	1.133518	0.902436	0.054456	5.960170	-3.686109	2.351030
0.860000	20.335035	0.597241	-184.207544	18.292529	-4.697239	-2.787643	-61.040828	-14.263279	51.420180	-2.128936	1.069536	-40.466408	7.968713	1.116307	0.898963	0.055011	5.606619	-3.810570	2.468062
0.870000	20.500195	0.467333	-184.370898	21.266762	-5.185130	-2.663555	-65.151810	-11.926457	51.517755	-2.154983	0.764118	-42.658621	9.810216	1.099118	0.895784	0.055517	5.201750	-3.936257	2.669252
0.880000	20.765392	0.309896	-184.527917	24.454430	-5.660643	-2.487749	-69.071693	-9.598627	51.544005	-2.157295	0.477294	-44.563395	11.772110	1.081918	0.892965	0.055975	4.721622	-4.060814	2.957159
0.890000	21.113148	0.125054	-184.665826	27.801798	-6.107434	-2.273240	-72.702620	-7.357146	51.478818	-2.128043	0.204786	-46.168941	13.740375	1.064704	0.890561	0.056381	4.158704	-4.179000	3.315803
0.900000	21.511028	-0.085239	-184.779874	31.241488	-6.511044	-2.049306	-75.960041	-5.217156	51.291308	-2.066208	-0.075683	-47.476241	15.618260	1.047492	0.888615	0.056723	3.526424	-4.284359	3.716823
0.910000	21.921009	-0.314562	-184.868792	34.697015	-6.859049	-1.851054	-78.772865	-3.162363	50.948025	-1.975834	-0.387315	-48.494951	17.330449	1.030301	0.887162	0.056969	2.852879	-4.369903	4.128823
0.920000	22.305892	-0.551247	-184.929124	38.084543	-7.141765	-1.710267	-81.082521	-1.180527	50.415294	-1.862657	-0.744960	-49.232652	18.822223	1.013136	0.886236	0.057074	2.168796	-4.429202	4.522619
0.930000	22.630574	-0.780611	-184.953688	41.313372	-7.354221	-1.648555	-82.843495	0.726953	49.656357	-1.730836	-1.154702	-49.684856	20.063557	0.995981	0.885876	0.056985	1.496858	-4.458217	4.870574
0.940000	22.865349	-0.987220	-184.933254	44.292248	-7.497315	-1.672495	-84.021908	2.549022	48.634461	-1.581081	-1.612387	-49.832780	21.054418	0.978800	0.886119	0.056658	0.845180	-4.455012	5.147961
0.950000	22.994135	-1.155545	-184.858796	46.943325	-7.576339	-1.773822	-84.592400	4.270918	47.325242	-1.410972	-2.101133	-49.649958	21.821775	0.961531	0.886992	0.056075	0.206056	-4.416621	5.340038
0.960000	23.013338	-1.271304	-184.725294	49.208784	-7.598237	-1.936140	-84.537860	5.882256	45.719877	-1.217221	-2.591758	-49.112721	22.407435	0.944092	0.888500	0.055247	-0.437745	-4.337829	5.441071
0.970000	22.919134	-1.323489	-184.536529	51.045552	-7.568420	-2.144485	-83.852923	7.380958	43.814441	-0.999365	-3.046870	-48.210352	22.852480	0.926399	0.890630	0.054206	-1.101820	-4.213336	5.442760
0.980000	22.703621	-1.304862	-184.307390	52.425933	-7.486725	-2.392535	-82.547430	8.768546	41.608374	-0.764619	-3.428522	-46.954871	23.183479	0.908376	0.893348	0.052997	-1.790932	-4.039175	5.331735
0.990000	22.361537	-1.212158	-184.063331	53.344526	-7.344239	-2.682721	-80.644908	10.038035	39.114333	-0.531801	-3.707054	-45.388389	23.402245	0.889968	0.896597	0.051661	-2.494266	-3.813359	5.097570
1.000000	21.897475	-1.046389	-183.835538	53.820669	-7.124182	-3.018225	-78.175099	11.160511	36.368349	-0.331134	-3.868446	-43.585166	23.480376	0.871144	0.900300	0.050235	-3.187446	-3.536424	4.741260
1.010000	21.333378	-0.811825	-183.649663	53.897280	-6.808706	-3.391365	-75.165992	12.082494	33.439388	-0.198360	-3.919576	-41.647923	23.361562	0.851899	0.904363	0.048743	-3.843389	-3.210138	4.283274
1.020000	20.709853	-0.517654	-183.515214	53.635290	-6.389372	-3.771301	-71.643374	12.740684	30.428625	-0.163502	-3.890208	-39.696274	22.971910	0.832247	0.908689	0.047194	-4.444106	-2.838951	3.764891
1.030000	20.075493	-0.183527	-183.423348	53.102262	-5.876103	-4.097947	-67.640672	13.088654	27.451018	-0.238015	-3.828630	-37.847996	22.236824	0.812213	0.913185	0.045576	-4.985048	-2.436479	3.237718
1.040000	19.471195	0.159851	-183.351118	52.359673	-5.298955	-4.296565	-63.212986	13.121866	24.609527	-0.409156	-3.788327	-36.200339	21.102327	0.791829	0.917773	0.043865	-5.473637	-2.027860	2.748062
1.050000	18.919989	0.478572	-183.268752	51.456398	-4.700432	-4.306600	-58.446750	12.885430	21.976905	-0.646133	-3.811238	-34.818008	19.550794	0.771134	0.922387	0.042032	-5.924611	-1.643166	2.326325
1.060000	18.427641	0.743544	-183.149098	50.433065	-4.123790	-4.097375	-53.460707	12.459687	19.592280	-0.910446	-3.917692	-33.729792	17.599965	0.750161	0.926967	0.040056	-6.352747	-1.308932	1.987232
1.070000	17.990036	0.933225	-182.976501	49.330291	-3.604707	-3.665878	-48.397086	11.934560	17.467824	-1.162708	-4.103916	-32.932543	15.290669	0.728942	0.931438	0.037932	-6.766356	-1.043786	1.736839
1.080000	17.600710	1.033457	-182.751644	48.191582	-3.167810	-3.032457	-43.404738	11.387265	15.597408	-1.367068	-4.343705	-32.400077	12.677110	0.707497	0.935707	0.035676	-7.164992	-0.857522	1.578428
1.090000	17.256154	1.036778	-182.491181	47.061190	-2.826343	-2.239508	-38.620432	10.871162	13.964944	-1.495279	-4.595126	-32.094776	9.824617	0.685843	0.939662	0.033324	-7.541069	-0.752222	1.514571
1.100000	16.959184	0.941724	-182.222179	45.981844	-2.584140	-1.349894	-34.155860	10.417023	12.553496	-1.529581	-4.811469	-31.980121	6.812029	0.663997	0.943184	0.030915	-7.883974	-0.724423	1.546962
1.110000	16.717944	0.753212	-181.973027	44.991614	-2.438420	-0.441290	-30.092837	10.038572	11.351470	-1.464531	-4.952797	-32.031059	3.733215	0.641997	0.946171	0.028491	-8.185006	-0.766326	1.673685
1.120000	16.537784	0.484046	-181.764596	44.115723	-2.381672	0.406724	-26.484263	9.731173	10.350580	-1.308330	-4.995176	-32.239695	0.694170	0.619910	0.948544	0.026086	-8.440851	-0.865431	1.882594
1.130000	16.414256	0.155530	-181.605136	43.360606	-2.402518	1.127567	-23.359412	9.467753	9.542727	-1.083047	-4.933395	-32.617204	-2.189101	0.597835	0.950258	0.023724	-8.654226	-1.003378	2.148658
1.140000	16.335097	-0.204174	-181.491183	42.718501	-2.484971	1.677445	-20.733577	9.201740	8.922903	-0.823459	-4.776073	-33.192787	-4.788923	0.575887	0.951289	0.021415	-8.830841	-1.155416	2.440891
1.150000	16.286363	-0.563128	-181.412964	42.177700	-2.606832	2.039499	-18.619644	8.875554	8.492902	-0.574232	-4.539257	-34.008358	-6.970114	0.554169	0.951625	0.019160	-8.974176	-1.291878	2.731487
1.160000	16.258021	-0.889224	-181.359994	41.732851	-2.739992	2.222034	-17.037961	8.432509	8.262433	-0.384543	-4.243496	-35.108966	-8.607385	0.532751	0.951258	0.016951	-9.081861	-1.381916	3.001541
1.170000	16.246999	-1.154321	-181.325304	41.391896	-2.853443	2.251518	-16.021223	7.832080	8.246875	-0.300593	-3.914028	-36.530825	-9.611437	0.511671	0.950182	0.014782	-9.144362	-1.398843	3.242523
1.180000	16.256350	-1.338955	-181.307390	41.176615	-2.919031	2.163089	-15.611861	7.066280	8.462073	-0.357337	-3.581795	-38.290930	-9.953639	0.490942	0.948402	0.012644	-9.146099	-1.326075	3.454113
1.190000	16.291484	-1.436711	-181.308719	41.116425	-2.918651	1.991722	-15.851616	6.175235	8.918819	-0.571082	-3.282022	-40.382423	-9.678061	0.470567	0.945938	0.010523	-9.069406	-1.161839	3.640547
1.200000	16.353544	-1.456055	-181.332884	41.235327	-2.848586	1.768924	-16.764988	5.257159	9.616693	-0.935798	-3.048630	-42.776430	-8.894000	0.450563	0.942832	0.008399	-8.899088	-0.920857	3.805297
1.210000	16.435751	-1.417833	-181.381296	41.539164	-2.719087	1.524895	-18.340840	4.465233	10.542765	-1.425151	-2.907788	-45.428727	-7.752744	0.430961	0.939149	0.006235	-8.626857	-0.631161	3.948322
1.220000	16.528853	-1.348440	-181.449363	42.012229	-2.550159	1.290045	-20.519007	3.985803	11.680606	-2.000050	-2.874379	-48.287771	-6.420162	0.411796	0.934973	0.003995	-8.255766	-0.325683	4.070413
1.230000	16.628828	-1.270861	-181.526223	42.620260	-2.363735	1.092380	-23.188221	3.997472	13.020264	-2.619859	-2.949970	-51.299401	-5.054972	0.393081	0.930411	0.001650	-7.800495	-0.032301	4.177538
1.240000	16.739657	-1.197462	-181.599557	43.315411	-2.175541	0.951083	-26.197491	4.619453	14.560831	-3.253147	-3.120561	-54.407275	-3.793780	0.374806	0.925596	-0.000804	-7.281836	0.233008	4.279559
1.250000	16.872223	-1.127886	-181.661476	44.043675	-1.991897	0.868846	-29.376956	5.865948	16.307631	-3.883037	-3.355442	-57.552260	-2.736293	0.356929	0.920681	-0.003338	-6.719816	0.467561	4.386851
1.260000	17.040122	-1.052293	-181.712829	44.751613	-1.811264	0.828711	-32.560566	7.628550	18.265307	-4.505966	-3.610246	-60.673003	-1.929139	0.339396	0.915828	-0.005890	-6.129069	0.678482	4.507098
1.270000	17.252594	-0.957607	-181.765319	45.388798	-1.627288	0.800500	-35.604831	9.704109	20.427496	-5.126175	-3.838227	-63.707796	-1.359684	0.322148	0.911197	-0.008381	-5.517064	0.876808	4.641824
1.280000	17.509364	-0.835018	-181.840368	45.909225	-1.432590	0.753790	-38.400667	11.858253	22.769336	-5.748017	-4.007526	-66.596321	-0.966037	0.305130	0.906931	-0.010735	-4.884365	1.071029	4.785401
1.290000	17.802233	-0.685691	-181.963481	46.275757	-1.222861	0.667168	-40.876758	13.889490	25.249123	-6.369352	-4.113021	-69.280762	-0.653876	0.288289	0.903147	-0.012896	-4.226500	1.262446	4.929343
1.300000	18.119256	-0.520805	-182.154389	46.462452	-1.000064	0.529346	-42.994691	15.670016	27.815205	-6.979635	-4.174444	-71.705889	-0.315793	0.271569	0.899943	-0.014841	-3.538101	1.444683	5.067153
1.310000	18.443848	-0.356262	-182.417473	46.447784	-0.773383	0.336179	-44.738503	17.158490	30.408529	-7.562261	-4.224296	-73.817639	0.147964	0.254918	0.897403	-0.016584	-2.817958	1.606338	5.192741
1.320000	18.750478	-0.205529	-182.738078	46.202954	-0.556303	0.086080	-46.101934	18.383720	32.960534	-8.098534	-4.293696	-75.561742	0.816028	0.238281	0.895599	-0.018164	-2.072013	1.734945	5.294707
1.330000	19.007059	-0.074479	-183.086005	45.689046	-0.361150	-0.223116	-47.077694	19.407824	35.396852	-8.571085	-4.400830	-76.884632	1.739858	0.221599	0.894606	-0.019635	-1.313586	1.820942	5.356753
1.340000	19.186415	0.039238	-183.423376	44.867802	-0.194549	-0.592011	-47.652140	20.288459	37.650363	-8.965529	-4.544170	-77.736544	2.935518	0.204790	0.894487	-0.021050	-0.562062	1.859974	5.366843
1.350000	19.276756	0.141947	-183.713981	43.715924	-0.056163	-1.014931	-47.806781	21.054339	39.673064	-9.270381	-4.702570	-78.074743	4.371653	0.187750	0.895292	-0.022453	0.159869	1.851756	5.325735
1.360000	19.284317	0.236130	-183.932534	42.235000	0.058509	-1.476414	-47.526581	21.696830	41.438884	-9.475594	-4.844409	-77.865778	5.966167	0.170364	0.897035	-0.023877	0.831567	1.795059	5.248798
1.370000	19.226692	0.315765	-184.070257	40.451564	0.153663	-1.950915	-46.811544	22.175785	42.936781	-9.572002	-4.944070	-77.087753	7.601903	0.152531	0.899683	-0.025336	1.439825	1.684290	5.159643
1.380000	19.121228	0.370055	-184.133062	38.407534	0.230361	-2.408657	-45.686179	22.435613	44.160100	-9.553246	-4.992945	-75.732234	9.150079	0.134190	0.903154	-0.026823	1.980020	1.512990	5.079268
1.390000	18.979504	0.390560	-184.135454	36.153115	0.286734	-2.826290	-44.205088	22.423568	45.102916	-9.418244	-4.994963	-73.804398	10.490613	0.115328	0.907316	-0.028314	2.454953	1.280177	5.021039
1.400000	18.808016	0.376167	-184.094664	33.743927	0.320923	-3.196630	-42.452246	22.103179	45.762625	-9.172101	-4.956278	-71.321851	11.533779	0.095976	0.912012	-0.029771	2.873930	0.994208	4.991081
1.410000	18.607195	0.335779	-184.024309	31.233934	0.334286	-3.532460	-40.531645	21.463112	46.141145	-8.824233	-4.880758	-68.312806	12.236763	0.076193	0.917078	-0.031160	3.249372	0.673698	4.986304
1.420000	18.370117	0.288673	-183.929144	28.667264	0.333766	-3.861533	-38.552191	20.522146	46.245331	-8.386039	-4.769520	-64.814467	12.601614	0.056054	0.922365	-0.032449	3.591659	0.345576	4.992528
1.430000	18.085334	0.261779	-183.805655	26.076091	0.333885	-4.213010	-36.612358	19.325411	46.088751	-7.871833	-4.619958	-60.873709	12.658460	0.035645	0.927742	-0.033613	3.907288	0.040200	4.988113
1.440000	17.741875	0.284143	-183.647937	23.483638	0.356315	-4.601218	-34.788519	17.928126	45.692442	-7.301754	-4.424260	-56.550807	12.448305	0.015039	0.933098	-0.034633	4.200949	-0.214903	4.951092
1.450000	17.332972	0.380736	-183.454185	20.908613	0.425796	-5.016163	-33.129314	16.371676	45.083461	-6.703640	-4.168727	-51.923637	12.012936	-0.005702	0.938334	-0.035497	4.477918	-0.399327	4.865138
1.460000	16.858549	0.567759	-183.230621	18.370344	0.564030	-5.426296	-31.657186	14.665114	44.293409	-6.112240	-3.835010	-47.087547	11.392504	-0.026534	0.943361	-0.036202	4.744390	-0.500427	4.722921
1.470000	16.327489	0.849713	-182.991613	15.894399	0.783189	-5.791036	-30.376652	12.784823	43.358800	-5.564313	-3.404907	-42.148835	10.628170	-0.047426	0.948100	-0.036756	5.005470	-0.512384	4.527341
1.480000	15.759240	1.218253	-182.756313	13.516830	1.081153	-6.075410	-29.286944	10.695148	42.322698	-5.090763	-2.869075	-37.215411	9.766269	-0.068365	0.952483	-0.037179	5.262271	-0.436422	4.291192
1.490000	15.182089	1.653951	-182.543729	11.283548	1.441485	-6.259046	-28.393804	8.377347	41.234554	-4.709954	-2.233892	-32.390396	8.860402	-0.089348	0.956446	-0.037497	5.510737	-0.281935	4.034538
1.500000	14.626764	2.131347	-182.368211	9.242925	1.838680	-6.335852	-27.714418	5.849578	40.145953	-4.425533	-1.519735	-27.770775	7.969890	-0.110375	0.959932	-0.037742	5.743305	-0.066383	3.779788
1.510000	14.118890	2.625371	-182.237501	7.435839	2.245516	-6.306186	-27.274223	3.176293	39.104244	-4.229659	-0.756063	-23.448677	7.159213	-0.131448	0.962881	-0.037939	5.952957	0.187276	3.547296
1.520000	13.674466	3.116777	-182.153550	5.888738	2.638758	-6.170197	-27.098663	0.464830	38.147518	-4.109377	0.020685	-19.511621	6.496904	-0.152557	0.965237	-0.038104	6.137083	0.455522	3.353361
1.530000	13.300823	3.594384	-182.113947	4.613579	3.000815	-5.932015	-27.203675	-2.168725	37.304075	-4.051628	0.770758	-16.038699	6.039302	-0.173686	0.966950	-0.038241	6.297808	0.719374	3.211017
1.540000	13.001834	4.053453	-182.114150	3.614033	3.318110	-5.611438	-27.589209	-4.655011	36.595501	-4.045611	1.457038	-13.093144	5.800914	-0.194817	0.967978	-0.038349	6.439939	0.967032	3.132312
1.550000	12.780691	4.491942	-182.149986	2.890349	3.578140	-5.250417	-28.240651	-6.998799	36.037580	-4.083015	2.049513	-10.716392	5.737272	-0.215929	0.968293	-0.038427	6.568283	1.193524	3.127333
1.560000	12.634283	4.905494	-182.217471	2.435074	3.764696	-4.903234	-29.137860	-9.252821	35.634287	-4.154388	2.528221	-8.928272	5.752662	-0.236999	0.967873	-0.038476	6.683975	1.396997	3.195981
1.570000	12.542599	5.282287	-182.311042	2.223237	3.852523	-4.612106	-30.266841	-11.463010	35.368937	-4.243611	2.884956	-7.733590	5.722867	-0.257993	0.966700	-0.038501	6.782408	1.572651	3.316806
1.580000	12.471964	5.601735	-182.423656	2.218003	3.807937	-4.393203	-31.630329	-13.621346	35.212221	-4.326679	3.121603	-7.133705	5.526361	-0.278858	0.964769	-0.038506	6.854860	1.708182	3.451241
1.590000	12.398674	5.838832	-182.548720	2.398320	3.597987	-4.247427	-33.252986	-15.654109	35.152869	-4.376154	3.246111	-7.139149	5.081036	-0.299538	0.962096	-0.038499	6.891446	1.783618	3.568929
1.600000	12.327024	5.971305	-182.680446	2.778923	3.202063	-4.173922	-35.176535	-17.450048	35.219901	-4.367321	3.271160	-7.774814	4.373707	-0.319974	0.958729	-0.038487	6.882455	1.776000	3.667459
1.610000	12.281472	5.986456	-182.810937	3.400277	2.619658	-4.167491	-37.446446	-18.895968	35.471731	-4.282923	3.215544	-9.071364	3.470003	-0.340094	0.954745	-0.038481	6.817806	1.667658	3.765977
1.620000	12.284827	5.885426	-182.928083	4.301717	1.872253	-4.212737	-40.095531	-19.898497	35.963446	-4.116372	3.103357	-11.045080	2.509139	-0.359801	0.950247	-0.038496	6.687677	1.454069	3.884207
1.630000	12.346415	5.683238	-183.019039	5.503999	0.999970	-4.292046	-43.128514	-20.401582	36.719541	-3.873689	2.958185	-13.674092	1.690095	-0.378989	0.945351	-0.038546	6.486511	1.146704	4.030315
1.640000	12.466426	5.404613	-183.077326	7.009068	0.054352	-4.397350	-46.511754	-20.393758	37.724084	-3.572913	2.794728	-16.879219	1.238557	-0.397577	0.940185	-0.038642	6.217897	0.769662	4.203985
1.650000	12.641860	5.077320	-183.107073	8.803172	-0.911196	-4.528030	-50.169879	-19.894575	38.919637	-3.239766	2.614914	-20.516828	1.352456	-0.415539	0.934890	-0.038792	5.895967	0.352673	4.400913
1.660000	12.865561	4.726034	-183.120455	10.854775	-1.850911	-4.679570	-53.990066	-18.933770	40.210518	-2.900120	2.411556	-24.389597	2.148973	-0.432905	0.929625	-0.038998	5.540874	-0.076102	4.611087
1.670000	13.124567	4.368941	-183.130835	13.114051	-2.732783	-4.837300	-57.834811	-17.541160	41.476601	-2.572814	2.173688	-28.274829	3.633353	-0.449760	0.924568	-0.039248	5.171086	-0.495181	4.817596
1.680000	13.401073	4.017864	-183.146848	15.517827	-3.539086	-4.979864	-61.561363	-15.751647	42.596006	-2.267401	1.890062	-31.961566	5.696305	-0.466213	0.919897	-0.039522	4.798011	-0.891274	4.999397
1.690000	13.673064	3.681217	-183.170022	17.996294	-4.262056	-5.088303	-65.041838	-13.616801	43.466541	-1.987665	1.552733	-35.284261	8.138670	-0.482379	0.915771	-0.039791	4.425492	-1.256928	5.134783
1.700000	13.918072	3.367952	-183.197114	20.483533	-4.896863	-5.155163	-68.178254	-11.212981	44.023281	-1.738888	1.160173	-38.144168	10.715582	-0.498350	0.912303	-0.040029	4.053686	-1.586148	5.208018
1.710000	14.122443	3.090371	-183.225141	22.931652	-5.434972	-5.187734	-70.907793	-8.643786	44.251286	-1.534357	0.719470	-40.514538	13.191265	-0.514194	0.909542	-0.040222	3.683809	-1.870469	5.220040
1.720000	14.285727	2.863384	-183.254339	25.315053	-5.862606	-5.201032	-73.196796	-6.036006	44.181414	-1.394813	0.247357	-42.427454	15.388659	-0.529958	0.907475	-0.040375	3.319529	-2.098185	5.191578
1.730000	14.415558	2.700216	-183.288266	27.620592	-6.164634	-5.204923	-75.027350	-3.526061	43.867521	-1.340875	-0.233419	-43.946512	17.216035	-0.545686	0.906054	-0.040510	2.965809	-2.257436	5.153961
1.740000	14.523972	2.608138	-183.333103	29.838257	-6.328593	-5.197589	-76.383912	-1.235733	43.363900	-1.385079	-0.702617	-45.136669	18.665435	-0.561433	0.905234	-0.040666	2.628083	-2.339865	5.140101
1.750000	14.626658	2.586570	-183.394608	31.956190	-6.348371	-5.173135	-77.245769	0.758068	42.710964	-1.525594	-1.149515	-46.039981	19.784796	-0.577275	0.904994	-0.040884	2.310495	-2.342314	5.179336
1.760000	14.737092	2.626672	-183.472090	33.953288	-6.229946	-5.136135	-77.587469	2.442071	41.923571	-1.740957	-1.572673	-46.661167	20.638390	-0.593308	0.905357	-0.041202	2.012010	-2.267701	5.289545
1.770000	14.860328	2.712280	-183.554513	35.796321	-5.995079	-5.107180	-77.386146	3.851545	40.987834	-1.990906	-1.974985	-46.967572	21.283319	-0.609623	0.906371	-0.041647	1.724211	-2.125732	5.471089
1.780000	14.991852	2.823804	-183.621378	37.445755	-5.678225	-5.113219	-76.632343	5.028609	39.871490	-2.226748	-2.360411	-46.906225	21.766190	-0.626286	0.908086	-0.042230	1.432996	-1.931924	5.706738
1.790000	15.116585	2.944668	-183.645480	38.860116	-5.318557	-5.172486	-75.339220	5.993401	38.538838	-2.405816	-2.734638	-46.432635	22.116464	-0.643314	0.910529	-0.042946	1.122181	-1.704853	5.961472
1.800000	15.207563	3.066593	-183.596989	39.996291	-4.951013	-5.285590	-73.543983	6.747908	36.963225	-2.503261	-3.107248	-45.539629	22.332144	-0.660670	0.913681	-0.043776	0.779376	-1.464261	6.181442
1.810000	15.230998	3.189764	-183.449951	40.814627	-4.599549	-5.435382	-71.298629	7.290943	35.138664	-2.517125	-3.490969	-44.274715	22.380118	-0.678280	0.917473	-0.044696	0.404651	-1.232201	6.299456
1.820000	15.157459	3.316383	-183.188344	41.290516	-4.276968	-5.593809	-68.655161	7.626711	33.088376	-2.463381	-3.895794	-42.737993	22.215233	-0.696054	0.921801	-0.045692	-0.052737	-0.997365	6.287161
1.830000	14.971648	3.441493	-182.807673	41.424156	-3.991991	-5.733377	-65.654965	7.771470	30.864087	-2.362719	-4.321095	-41.060175	21.798560	-0.713912	0.926530	-0.046771	-0.747489	-0.685279	6.189432
1.840000	14.676805	3.548434	-182.313737	41.242459	-3.756072	-5.837087	-62.326799	7.758032	28.536004	-2.228931	-4.751249	-39.371087	21.107193	-0.731798	0.931521	-0.047964	-0.000000	-0.000000	0.000000
1.850000	14.292678	3.611767	-181.723011	40.792274	-3.582896	-5.899975	-58.692523	7.633721	26.177456	-2.066896	-5.158264	-37.772654	20.138107	-0.749690	0.936632	-0.049308	-0.000000	-0.000000	0.000000
1.860000	13.849579	3.605341	-181.064115	40.129820	-3.481179	-5.921748	-54.777474	7.451375	23.851845	-1.878864	-5.510584	-36.326697	18.907439	-0.767611	0.941732	-0.050832	-0.000000	-0.000000	0.000000
1.870000	13.384884	3.511664	-180.377173	39.315106	-3.446310	-5.896519	-50.620508	7.254807	21.610750	-1.672803	-5.785203	-35.059754	17.449489	-0.785620	0.946701	-0.052540	-0.000000	-0.000000	0.000000
1.880000	12.940556	3.327166	-179.709632	38.410586	-3.458025	-5.808208	-46.280012	7.070009	19.498688	-1.465342	-5.978412	-33.976881	15.811176	-0.803800	0.951433	-0.054402	-0.000000	-0.000000	0.000000
1.890000	12.554231	3.060045	-179.108065	37.475336	-3.488171	-5.636933	-41.835040	6.907905	17.551994	-1.275538	-6.106047	-33.073972	14.034982	-0.822232	0.955831	-0.056364	-0.000000	-0.000000	0.000000
1.900000	12.246398	2.723640	-178.607808	36.554814	-3.513936	-5.372372	-37.381610	6.768988	15.791594	-1.114735	-6.190861	-32.345549	12.140720	-0.840959	0.959813	-0.058363	-0.000000	-0.000000	0.000000
1.910000	12.014194	2.330984	-178.225060	35.675179	-3.527229	-5.023146	-33.025302	6.645672	14.219794	-0.981563	-6.248660	-31.790034	10.122133	-0.859964	0.963305	-0.060341	-0.000000	-0.000000	0.000000
1.920000	11.834530	1.893208	-177.954212	34.844590	-3.535769	-4.615691	-28.871846	6.527287	12.824454	-0.864777	-6.282760	-31.413648	7.956650	-0.879174	0.966245	-0.062268	-0.000000	-0.000000	0.000000
1.930000	11.672385	1.420380	-177.770257	34.057848	-3.558222	-4.185399	-25.017483	6.407439	11.586895	-0.749919	-6.285992	-31.232175	5.615275	-0.898477	0.968585	-0.064142	-0.000000	-0.000000	0.000000
1.940000	11.491706	0.922609	-177.636089	33.303348	-3.616778	-3.766148	-21.541103	6.287478	10.490640	-0.625518	-6.246698	-31.269386	3.068160	-0.917745	0.970296	-0.065988	-0.000000	-0.000000	0.000000
1.950000	11.266847	0.410185	-177.513434	32.572040	-3.729471	-3.382318	-18.500313	6.173388	9.528771	-0.486914	-6.155765	-31.551811	0.290147	-0.936870	0.971367	-0.067842	-0.000000	-0.000000	0.000000
1.960000	10.991036	-0.106786	-177.373817	31.865960	-3.904103	-3.044263	-15.932090	6.067367	8.707766	-0.337517	-6.012242	-32.101737	-2.727997	-0.955776	0.971801	-0.069741	-0.000000	-0.000000	0.000000
1.970000	10.679379	-0.617189	-177.205550	31.203768	-4.134363	-2.746527	-13.857281	5.954995	8.047736	-0.189254	-5.826335	-32.932534	-5.956523	-0.974435	0.971607	-0.071704	-0.000000	-0.000000	0.000000
1.980000	10.364892	-1.105266	-177.014409	30.620995	-4.398289	-2.472628	-12.288579	5.795472	7.578957	-0.063836	-5.619675	-34.048936	-9.295462	-0.992855	0.970801	-0.073729	-0.000000	-0.000000	0.000000
1.990000	10.086375	-1.546195	-176.818468	30.161903	-4.658518	-2.213702	-11.241019	5.530382	7.332718	0.005164	-5.422809	-35.451095	-12.554052	-1.011064	0.969397	-0.075790	-0.000000	-0.000000	0.000000
2.000000	9.875101	-1.904679	-176.640595	29.869110	-4.865370	-1.987094	-10.742240	5.111581	7.331543	-0.027355	-5.269327	-37.138284	-15.463662	-1.029081	0.967421	-0.077844	-0.000000	-0.000000	0.000000
2.010000	9.751424	-2.140448	-176.502748	29.782461	-4.965843	-1.827616	-10.837182	4.531161	7.588315	-0.210666	-5.186257	-39.107953	-17.730633	-1.046908	0.964911	-0.079840	-0.000000	-0.000000	0.000000
2.020000	9.726399	-2.220086	-176.422438	29.939359	-4.917899	-1.761541	-11.579458	3.842930	8.108890	-0.583882	-5.184377	-41.350123	-19.107332	-1.064512	0.961915	-0.081733	-0.000000	-0.000000	0.000000
2.030000	9.798095	-2.130034	-176.409906	30.362811	-4.704542	-1.792617	-13.007171	3.171316	8.888477	-1.160290	-5.254958	-43.840870	-19.452676	-1.081835	0.958488	-0.083499	-0.000000	-0.000000	0.000000
2.040000	9.948596	-1.884196	-176.466847	31.045280	-4.340530	-1.899923	-15.111689	2.694511	9.908578	-1.918311	-5.375231	-46.538380	-18.762265	-1.098794	0.954692	-0.085136	-0.000000	-0.000000	0.000000
2.050000	10.150042	-1.521402	-176.585695	31.941902	-3.867897	-2.041482	-17.812550	2.589945	11.143135	-2.804546	-5.517189	-49.384905	-17.153353	-1.115310	0.950598	-0.086662	-0.000000	-0.000000	0.000000
2.060000	10.376470	-1.093308	-176.748624	32.975467	-3.342289	-2.167488	-20.950917	2.967603	12.569643	-3.748263	-5.653481	-52.313210	-14.821051	-1.131344	0.946296	-0.088108	-0.000000	-0.000000	0.000000
2.070000	10.612298	-0.647702	-176.930481	34.048749	-2.814281	-2.238500	-24.307860	3.837654	14.174015	-4.682292	-5.760088	-55.252044	-12.000220	-1.146909	0.941911	-0.089503	-0.000000	-0.000000	0.000000
2.080000	10.852671	-0.214784	-177.105620	35.058773	-2.314368	-2.239921	-27.641518	5.118013	15.945009	-5.560732	-5.816319	-58.129526	-8.935835	-1.162069	0.937599	-0.090863	-0.000000	-0.000000	0.000000
2.090000	11.101047	0.196525	-177.252792	35.913534	-1.851183	-2.187646	-30.730326	6.664338	17.867415	-6.363103	-5.802780	-60.875885	-5.851961	-1.176926	0.933546	-0.092187	-0.000000	-0.000000	0.000000
2.100000	11.366684	0.590900	-177.357412	36.548293	-1.421530	-2.121520	-33.410217	8.315437	19.918666	-7.084648	-5.701902	-63.425255	-2.926401	-1.191595	0.929941	-0.093460	-0.000000	-0.000000	0.000000
2.110000	11.656029	0.972424	-177.414171	36.929748	-1.022952	-2.088202	-35.595283	9.936425	22.061720	-7.721735	-5.503599	-65.715948	-0.283098	-1.206169	0.926945	-0.094664	-0.000000	-0.000000	0.000000
2.120000	11.961076	1.332256	-177.429191	37.047320	-0.661133	-2.121050	-37.276967	11.443429	24.236635	-8.262196	-5.213916	-67.690061	1.996334	-1.220704	0.924661	-0.095793	-0.000000	-0.000000	0.000000
2.130000	12.257621	1.646055	-177.418072	36.904802	-0.349420	-2.226154	-38.505172	12.809631	26.364821	-8.685908	-4.861503	-69.294485	3.851731	-1.235201	0.923123	-0.096859	-0.000000	-0.000000	0.000000
2.140000	12.516111	1.881795	-177.398703	36.518629	-0.104048	-2.380572	-39.359946	14.054930	28.367836	-8.972460	-4.496210	-70.482524	5.228249	-1.249628	0.922311	-0.097891	-0.000000	-0.000000	0.000000
2.150000	12.714177	2.010407	-177.383612	35.916912	0.059878	-2.541723	-39.925254	15.227187	30.185388	-9.108190	-4.179288	-71.213546	6.077500	-1.263939	0.922178	-0.098926	-0.000000	-0.000000	0.000000
2.160000	12.840978	2.014121	-177.377181	35.132696	0.131545	-2.662413	-40.271523	16.383184	31.779887	-9.090725	-3.970367	-71.451215	6.377326	-1.278099	0.922688	-0.099999	-0.000000	-0.000000	0.000000
2.170000	12.897438	1.893988	-177.378015	34.196611	0.109365	-2.709055	-40.446309	17.564889	33.134403	-8.933588	-3.916619	-71.164453	6.155742	-1.292106	0.923825	-0.101135	-0.000000	-0.000000	0.000000
2.180000	12.898394	1.676013	-177.382891	33.135759	0.006840	-2.678789	-40.471122	18.770118	34.253753	-8.668500	-4.044874	-70.332060	5.504682	-1.306015	0.925596	-0.102324	-0.000000	-0.000000	0.000000
2.190000	12.867699	1.411870	-177.387635	31.969554	-0.144360	-2.605550	-40.343064	19.931968	35.159985	-8.340973	-4.353202	-68.946499	4.580539	-1.319942	0.928011	-0.103512	-0.000000	-0.000000	0.000000
2.200000	12.822016	1.171315	-177.384348	30.698339	-0.296943	-2.552483	-40.041866	20.921945	35.875941	-7.999248	-4.801542	-67.011199	3.584434	-1.334039	0.931058	-0.104601	-0.000000	-0.000000	0.000000
2.210000	12.756348	1.027694	-177.358831	29.298323	-0.396128	-2.599088	-39.542444	21.577208	36.408835	-7.680799	-5.308875	-64.531236	2.711528	-1.348455	0.934683	-0.105469	-0.000000	-0.000000	0.000000
2.220000	12.642177	1.044088	-177.290094	27.730503	-0.388779	-2.828730	-38.827233	21.733456	36.745725	-7.403573	-5.766524	-61.504340	2.086672	-1.363304	0.938784	-0.105992	-0.000000	-0.000000	0.000000
2.230000	12.438163	1.268219	-177.149687	25.958689	-0.228325	-3.314902	-37.891841	21.244999	36.863899	-7.167445	-6.060966	-57.922245	1.728162	-1.378657	0.943224	-0.106062	-0.000000	-0.000000	0.000000
2.240000	12.103910	1.736341	-176.900383	23.965503	0.125213	-4.106211	-36.744282	19.996631	36.748183	-6.964853	-6.087897	-53.787468	1.563288	-1.394531	0.947839	-0.105593	-0.000000	-0.000000	0.000000
2.250000	11.611113	2.475833	-176.502029	21.762896	0.705851	-5.209816	-35.403387	17.920042	36.404995	-6.794642	-5.766970	-49.143211	1.484427	-1.410872	0.952465	-0.104520	-0.000000	-0.000000	0.000000
2.260000	10.964699	3.495393	-175.931054	19.413416	1.534543	-6.569757	-33.903735	15.023838	35.880335	-6.670461	-5.077002	-44.108912	1.410587	-1.427545	0.956939	-0.102819	-0.000000	-0.000000	0.000000
2.270000	10.243959	4.764638	-175.207838	17.072484	2.597396	-8.053164	-32.312055	11.448052	35.291896	-6.616046	-4.084299	-38.911767	1.318231	-1.444312	0.961101	-0.100543	-0.000000	-0.000000	0.000000
2.280000	9.647007	6.193348	-174.425557	15.030106	3.812820	-9.463864	-30.750164	7.528774	34.857668	-6.648852	-2.934977	-33.904164	1.235878	-1.460789	0.964768	-0.097850	-0.000000	-0.000000	0.000000
2.290000	9.515406	7.615885	-173.776953	13.724512	5.002468	-10.569683	-29.409843	3.824925	34.895510	-6.762213	-1.839520	-29.563536	1.224370	-1.476352	0.967718	-0.095032	-0.000000	-0.000000	0.000000
2.300000	10.340873	8.782295	-173.564097	13.736734	5.889110	-11.111178	-28.548153	1.081266	35.807649	-6.920720	-1.064206	-26.481888	1.357189	-1.490084	0.969673	-0.092502	-0.000000	-0.000000	0.000000
2.310000	12.822291	9.782298	-174.018752	15.595242	6.486652	-11.027299	-28.143492	-0.854679	38.210127	-7.134290	-0.606762	-24.292682	1.729991	-1.505037	0.970927	-0.089898	-0.000000	-0.000000	0.000000
2.320000	18.384984	11.329082	-175.393371	20.125478	7.364716	-10.501709	-27.731136	-3.697933	43.470754	-7.509343	-0.000168	-21.010013	2.554816	-1.532296	0.972701	-0.085278	-0.000000	-0.000000	0.000000
2.330000	-0.000000	0.000000	-0.000000	-0.000000	0.000000	-0.000000	-0.000000	-0.000000	-0.000000	-0.000000	0.000000	-0.000000	-0.000000	0.000000	0.000000	0.000000	-0.000000	-0.000000	0.000000
2.340000	-0.000000	0.000000	-0.000000	-0.000000	0.000000	-0.000000	-0.000000	-0.000000	-0.000000	-0.000000	0.000000	-0.000000	-0.000000	0.000000	0.000000	0.000000	-0.000000	-0.000000	0.000000
2.350000	-0.000000	0.000000	-0.000000	-0.000000	0.000000	-0.000000	-0.000000	-0.000000	-0.000000	-0.000000	0.000000	-0.000000	-0.000000	0.000000	0.000000	0.000000	-0.000000	-0.000000	0.000000
2.360000	-0.000000	0.000000	-0.000000	-0.000000	0.000000	-0.000000	-0.000000	-0.000000	-0.000000	-0.000000	0.000000	-0.000000	-0.000000	0.000000	0.000000	0.000000	-0.000000	-0.000000	0.000000
2.370000	-0.000000	0.000000	-0.000000	-0.000000	0.000000	-0.000000	-0.000000	-0.000000	-0.000000	-0.000000	0.000000	-0.000000	-0.000000	0.000000	0.000000	0.000000	-0.000000	-0.000000	0.000000
2.380000	-0.000000	0.000000	-0.000000	-0.000000	0.000000	-0.000000	-0.000000	-0.000000	-0.000000	-0.000000	0.000000	-0.000000	-0.000000	0.000000	0.000000	0.000000	-0.000000	-0.000000	0.000000
2.390000	-0.000000	0.000000	-0.000000	-0.000000	0.000000	-0.000000	-0.000000	-0.000000	-0.000000	-0.000000	0.000000	-0.000000	-0.000000	0.000000	0.000000	0.000000	-0.000000	-0.000000	0.000000
2.400000	-0.000000	0.000000	-0.000000	-0.000000	0.000000	-0.000000	-0.000000	-0.000000	-0.000000	-0.000000	0.000000	-0.000000	-0.000000	0.000000	0.000000	0.000000	-0.000000	-0.000000	0.000000
2.410000	-0.000000	0.000000	-0.000000	-0.000000	0.000000	-0.000000	-0.000000	-0.000000	-0.000000	-0.000000	0.000000	-0.000000	-0.000000	0.000000	0.000000	0.000000	-0.000000	-0.000000	0.000000
2.420000	-0.000000	0.000000	-0.000000	-0.000000	0.000000	-0.000000	-0.000000	-0.000000	-0.000000	-0.000000	0.000000	-0.000000	-0.000000	0.000000	0.000000	0.000000	-0.000000	-0.000000	0.000000
2.430000	-0.000000	0.000000	-0.000000	-0.000000	0.000000	-0.000000	-0.000000	-0.000000	-0.000000	-0.000000	0.000000	-0.000000	-0.000000	0.000000	0.000000	0.000000	-0.000000	-0.000000	0.000000
2.440000	-0.000000	0.000000	-0.000000	-0.000000	0.000000	-0.000000	-0.000000	-0.000000	-0.000000	-0.000000	0.000000	-0.000000	-0.000000	0.000000	0.000000	0.000000	-0.000000	-0.000000	0.000000
2.450000	-0.000000	0.000000	-0.000000	-0.000000	0.000000	-0.000000	-0.000000	-0.000000	-0.000000	-0.000000	0.000000	-0.000000	-0.000000	0.000000	0.000000	0.000000	-0.000000	-0.000000	0.000000
2.460000	-0.000000	0.000000	-0.000000	-0.000000	0.000000	-0.000000	-0.000000	-0.000000	-0.000000	-0.000000	0.000000	-0.000000	-0.000000	0.000000	0.000000	0.000000	-0.000000	-0.000000	0.000000
2.470000	-0.000000	0.000000	-0.000000	-0.000000	0.000000	-0.000000	-0.000000	-0.000000	-0.000000	-0.000000	0.000000	-0.000000	-0.000000	0.000000	0.000000	0.000000	-0.000000	-0.000000	0.000000
2.480000	-0.000000	0.000000	-0.000000	-0.000000	0.000000	-0.000000	-0.000000	-0.000000	-0.000000	-0.000000	0.000000	-0.000000	-0.000000	0.000000	0.000000	0.000000	-0.000000	-0.000000	0.000000
2.490000	-0.000000	0.000000	-0.000000	-0.000000	0.000000	-0.000000	-0.000000	-0.000000	-0.000000	-0.000000	0.000000	-0.000000	-0.000000	0.000000	0.000000	0.000000	-0.000000	-0.000000	0.000000
2.500000	-0.000000	0.000000	-0.000000	-0.000000	0.000000	-0.000000	-0.000000	-0.000000	-0.000000	-0.000000	0.000000	-0.000000	-0.000000	0.000000	0.000000	0.000000	-0.000000	-0.000000	0.000000
2.510000	-0.000000	0.000000	-0.000000	-0.000000	0.000000	-0.000000	-0.000000	-0.000000	-0.000000	-0.000000	0.000000	-0.000000	-0.000000	0.000000	0.000000	0.000000	-0.000000	-0.000000	0.000000
2.520000	-0.000000	0.000000	-0.000000	-0.000000	0.000000	-0.000000	-0.000000	-0.000000	-0.000000	-0.000000	0.000000	-0.000000	-0.000000	0.000000	0.000000	0.000000	-0.000000	-0.000000	0.000000
2.530000	-0.000000	0.000000	-0.000000	-0.000000	0.000000	-0.000000	-0.000000	-0.000000	-0.000000	-0.000000	0.000000	-0.000000	-0.000000	0.000000	0.000000	0.000000	-0.000000	-0.000000	0.000000
2.540000	-0.000000	0.000000	-0.000000	-0.000000	0.000000	-0.000000	-0.000000	-0.000000	-0.000000	-0.000000	0.000000	-0.000000	-0.000000	0.000000	0.000000	0.000000	-0.000000	-0.000000	0.000000
2.550000	-0.000000	0.000000	-0.000000	-0.000000	0.000000	-0.000000	-0.000000	-0.000000	-0.000000	-0.000000	0.000000	-0.000000	-0.000000	0.000000	0.000000	0.000000	-0.000000	-0.000000	0.000000
2.560000	-0.000000	0.000000	-0.000000	-0.000000	0.000000	-0.000000	-0.000000	-0.000000	-0.000000	-0.000000	0.000000	-0.000000	-0.000000	0.000000	0.000000	0.000000	-0.000000	-0.000000	0.000000
2.570000	-0.000000	0.000000	-0.000000	-0.000000	0.000000	-0.000000	-0.000000	-0.000000	-0.000000	-0.000000	0.000000	-0.000000	-0.000000	0.000000	0.000000	0.000000	-0.000000	-0.000000	0.000000
2.580000	-0.000000	0.000000	-0.000000	-0.000000	0.000000	-0.000000	-0.000000	-0.000000	-0.000000	-0.000000	0.000000	-0.000000	-0.000000	0.000000	0.000000	0.000000	-0.000000	-0.000000	0.000000
2.590000	-0.000000	0.000000	-0.000000	-0.000000	0.000000	-0.000000	-0.000000	-0.000000	-0.000000	-0.000000	0.000000	-0.000000	-0.000000	0.000000	0.000000	0.000000	-0.000000	-0.000000	0.000000
2.600000	-0.000000	0.000000	-0.000000	-0.000000	0.000000	-0.000000	-0.000000	-0.000000	-0.000000	-0.000000	0.000000	-0.000000	-0.000000	0.000000	0.000000	0.000000	-0.000000	-0.000000	0.000000
2.610000	-0.000000	0.000000	-0.000000	-0.000000	0.000000	-0.000000	-0.000000	-0.000000	-0.000000	-0.000000	0.000000	-0.000000	-0.000000	0.000000	0.000000	0.000000	-0.000000	-0.000000	0.000000
2.620000	-0.000000	0.000000	-0.000000	-0.000000	0.000000	-0.000000	-0.000000	-0.000000	-0.000000	-0.000000	0.000000	-0.000000	-0.000000	0.000000	0.000000	0.000000	-0.000000	-0.000000	0.000000
2.630000	-0.000000	0.000000	-0.000000	-0.000000	0.000000	-0.000000	-0.000000	-0.000000	-0.000000	-0.000000	0.000000	-0.000000	-0.000000	0.000000	0.000000	0.000000	-0.000000	-0.000000	0.000000
2.640000	-0.000000	0.000000	-0.000000	-0.000000	0.000000	-0.000000	-0.000000	-0.000000	-0.000000	-0.000000	0.000000	-0.000000	-0.000000	0.000000	0.000000	0.000000	-0.000000	-0.000000	0.000000
2.650000	-0.000000	0.000000	-0.000000	-0.000000	0.000000	-0.000000	-0.000000	-0.000000	-0.000000	-0.000000	0.000000	-0.000000	-0.000000	0.000000	0.000000	0.000000	-0.000000	-0.000000	0.000000
2.660000	-0.000000	0.000000	-0.000000	-0.000000	0.000000	-0.000000	-0.000000	-0.000000	-0.000000	-0.000000	0.000000	-0.000000	-0.000000	0.000000	0.000000	0.000000	-0.000000	-0.000000	0.000000
2.670000	-0.000000	0.000000	-0.000000	-0.000000	0.000000	-0.000000	-0.000000	-0.000000	-0.000000	-0.000000	0.000000	-0.000000	-0.000000	0.000000	0.000000	0.000000	-0.000000	-0.000000	0.000000
2.680000	-0.000000	0.000000	-0.000000	-0.000000	0.000000	-0.000000	-0.000000	-0.000000	-0.000000	-0.000000	0.000000	-0.000000	-0.000000	0.000000	0.000000	0.000000	-0.000000	-0.000000	0.000000
2.690000	-0.000000	0.000000	-0.000000	-0.000000	0.000000	-0.000000	-0.000000	-0.000000	-0.000000	-0.000000	0.000000	-0.000000	-0.000000	0.000000	0.000000	0.000000	-0.000000	-0.000000	0.000000
2.700000	-0.000000	0.000000	-0.000000	-0.000000	0.000000	-0.000000	-0.000000	-0.000000	-0.000000	-0.000000	0.000000	-0.000000	-0.000000	0.000000	0.000000	0.000000	-0.000000	-0.000000	0.000000
2.710000	-0.000000	0.000000	-0.000000	-0.000000	0.000000	-0.000000	-0.000000	-0.000000	-0.000000	-0.000000	0.000000	-0.000000	-0.000000	0.000000	0.000000	0.000000	-0.000000	-0.000000	0.000000
2.720000	-0.000000	0.000000	-0.000000	-0.000000	0.000000	-0.000000	-0.000000	-0.000000	-0.000000	-0.000000	0.000000	-0.000000	-0.000000	0.000000	0.000000	0.000000	-0.000000	-0.000000	0.000000
2.730000	-0.000000	0.000000	-0.000000	-0.000000	0.000000	-0.000000	-0.000000	-0.000000	-0.000000	-0.000000	0.000000	-0.000000	-0.000000	0.000000	0.000000	0.000000	-0.000000	-0.000000	0.000000
2.740000	-0.000000	0.000000	-0.000000	-0.000000	0.000000	-0.000000	-0.000000	-0.000000	-0.000000	-0.000000	0.000000	-0.000000	-0.000000	0.000000	0.000000	0.000000	-0.000000	-0.000000	0.000000
2.750000	-0.000000	0.000000	-0.000000	-0.000000	0.000000	-0.000000	-0.000000	-0.000000	-0.000000	-0.000000	0.000000	-0.000000	-0.000000	0.000000	0.000000	0.000000	-0.000000	-0.000000	0.000000
2.760000	-0.000000	0.000000	-0.000000	-0.000000	0.000000	-0.000000	-0.000000	-0.000000	-0.000000	-0.000000	0.000000	-0.000000	-0.000000	0.000000	0.000000	0.000000	-0.000000	-0.000000	0.000000
2.770000	-0.000000	0.000000	-0.000000	-0.000000	0.000000	-0.000000	-0.000000	-0.000000	-0.000000	-0.000000	0.000000	-0.000000	-0.000000	0.000000	0.000000	0.000000	-0.000000	-0.000000	0.000000
2.780000	-0.000000	0.000000	-0.000000	-0.000000	0.000000	-0.000000	-0.000000	-0.000000	-0.000000	-0.000000	0.000000	-0.000000	-0.000000	0.000000	0.000000	0.000000	-0.000000	-0.000000	0.000000
2.790000	-0.000000	0.000000	-0.000000	-0.000000	0.000000	-0.000000	-0.000000	-0.000000	-0.000000	-0.000000	0.000000	-0.000000	-0.000000	0.000000	0.000000	0.000000	-0.000000	-0.000000	0.000000
2.800000	-0.000000	0.000000	-0.000000	-0.000000	0.000000	-0.000000	-0.000000	-0.000000	-0.000000	-0.000000	0.000000	-0.000000	-0.000000	0.000000	0.000000	0.000000	-0.000000	-0.000000	0.000000
2.810000	-0.000000	0.000000	-0.000000	-0.000000	0.000000	-0.000000	-0.000000	-0.000000	-0.000000	-0.000000	0.000000	-0.000000	-0.000000	0.000000	0.000000	0.000000	-0.000000	-0.000000	0.000000
2.820000	-0.000000	0.000000	-0.000000	-0.000000	0.000000	-0.000000	-0.000000	-0.000000	-0.000000	-0.000000	0.000000	-0.000000	-0.000000	0.000000	0.000000	0.000000	-0.000000	-0.000000	0.000000
2.830000	-0.000000	0.000000	-0.000000	-0.000000	0.000000	-0.000000	-0.000000	-0.000000	-0.000000	-0.000000	0.000000	-0.000000	-0.000000	0.000000	0.000000	0.000000	-0.000000	-0.000000	0.000000
2.840000	-0.000000	0.000000	-0.000000	-0.000000	0.000000	-0.000000	-0.000000	-0.000000	-0.000000	-0.000000	0.000000	-0.000000	-0.000000	0.000000	0.000000	0.000000	-0.000000	-0.000000	0.000000
2.850000	-0.000000	0.000000	-0.000000	-0.000000	0.000000	-0.000000	-0.000000	-0.000000	-0.000000	-0.000000	0.000000	-0.000000	-0.000000	0.000000	0.000000	0.000000	-0.000000	-0.000000	0.000000
2.860000	-0.000000	0.000000	-0.000000	-0.000000	0.000000	-0.000000	-0.000000	-0.000000	-0.000000	-0.000000	0.000000	-0.000000	-0.000000	0.000000	0.000000	0.000000	-0.000000	-0.000000	0.000000
