LJogging_XZ.mot
version=1
datacolumns 20
datarows 204
range 0.00000 2.03000
inDegrees=yes
endheader
time	pelvis_tilt	pelvis_list	pelvis_rotation	hip_flexion_r	hip_adduction_r	hip_rotation_r	knee_angle_r	ankle_angle_r	hip_flexion_l	hip_adduction_l	hip_rotation_l	knee_angle_l	ankle_angle_l	pelvis_tx	pelvis_ty	pelvis_tz	lumbar_bending	lumbar_rotation	lumbar_extension
0.000000	26.607667	-7.844954	-172.009963	4.781109	-10.003516	-6.131373	-33.373486	-10.055531	51.350969	13.282662	-3.470212	-50.353576	19.396046	2.448850	0.873733	0.077178	-0.000000	-0.000000	0.000000
0.010000	25.715262	-9.107169	-171.583830	6.143217	-11.744539	-5.466273	-38.159840	-12.150366	48.751744	14.847639	-4.288223	-49.593438	19.788815	2.434500	0.874942	0.077007	-0.000000	-0.000000	0.000000
0.020000	25.213276	-9.975557	-171.280590	10.013313	-13.492764	-4.049446	-45.797731	-13.077646	46.382643	16.140139	-5.557961	-49.721538	21.282519	2.408983	0.874557	0.078224	-0.000000	-0.000000	0.000000
0.030000	25.170516	-9.773984	-171.405552	11.940935	-13.570093	-3.567939	-48.534734	-12.446798	45.856417	15.998542	-5.736468	-50.085865	21.846515	2.398742	0.873805	0.079060	-0.000000	-0.000000	0.000000
0.040000	25.130460	-9.425494	-171.618302	14.278819	-13.509539	-3.045273	-51.685448	-11.509584	45.246417	15.688572	-5.842601	-50.499509	22.420127	2.386652	0.872904	0.080052	-0.000000	-0.000000	0.000000
0.050000	25.108121	-8.948670	-171.922396	16.983647	-13.310886	-2.486477	-55.149208	-10.295434	44.546292	15.219524	-5.885875	-50.898509	22.956666	2.372965	0.871950	0.081135	-0.000000	-0.000000	0.000000
0.060000	25.121772	-8.367544	-172.325026	19.979716	-12.971033	-1.888934	-58.755864	-8.847745	43.766448	14.597623	-5.889488	-51.223408	23.431953	2.358082	0.871055	0.082238	-0.000000	-0.000000	0.000000
0.070000	25.176434	-7.708969	-172.837862	23.169274	-12.481547	-1.251641	-62.305894	-7.228875	42.909365	13.825887	-5.890218	-51.425466	23.849737	2.342406	0.870348	0.083296	-0.000000	-0.000000	0.000000
0.080000	25.263611	-6.992653	-173.472905	26.446243	-11.823280	-0.589991	-65.601884	-5.502237	41.965181	12.901877	-5.939310	-51.468158	24.229334	2.326266	0.869969	0.084267	-0.000000	-0.000000	0.000000
0.090000	25.366738	-6.223530	-174.234354	29.706290	-10.968707	0.052918	-68.477432	-3.701649	40.913437	11.819689	-6.084407	-51.323920	24.588443	2.309883	0.870057	0.085139	-0.000000	-0.000000	0.000000
0.100000	25.464138	-5.398106	-175.112497	32.850611	-9.900259	0.610853	-70.817486	-1.820727	39.721472	10.581104	-6.343789	-50.965921	24.925695	2.293366	0.870725	0.085919	-0.000000	-0.000000	0.000000
0.110000	25.531276	-4.518873	-176.084734	35.790740	-8.630812	1.018162	-72.562737	0.166140	38.344458	9.207843	-6.699654	-50.360684	25.211580	2.276717	0.872033	0.086631	-0.000000	-0.000000	0.000000
0.120000	25.542972	-3.602560	-177.122036	38.454782	-7.207750	1.234187	-73.697390	2.265420	36.731010	7.744073	-7.107885	-49.468977	25.394994	2.259854	0.873980	0.087297	-0.000000	-0.000000	0.000000
0.130000	25.478154	-2.677869	-178.194698	40.793791	-5.700950	1.252353	-74.227365	4.428386	34.836144	6.249166	-7.512352	-48.254586	25.414940	2.242645	0.876522	0.087931	-0.000000	-0.000000	0.000000
0.140000	25.326710	-1.775527	-179.274787	42.785406	-4.183206	1.095059	-74.159864	6.541661	32.636877	4.784101	-7.859374	-46.694624	25.209094	2.224952	0.879598	0.088526	-0.000000	-0.000000	0.000000
0.150000	25.088525	-0.915352	-180.337495	44.425198	-2.709752	0.802852	-73.490712	8.449410	30.136264	3.394269	-8.108947	-44.785935	24.719831	2.206670	0.883170	0.089064	-0.000000	-0.000000	0.000000
0.160000	24.765460	-0.098459	-181.361444	45.710377	-1.306777	0.425521	-72.201861	9.991307	27.356241	2.097966	-8.242052	-42.547694	23.901929	2.187751	0.887240	0.089509	-0.000000	-0.000000	0.000000
0.170000	24.362319	0.689173	-182.326061	46.637045	0.023667	0.014330	-70.270632	11.042409	24.337858	0.889789	-8.263154	-40.022418	22.728564	2.168207	0.891844	0.089821	-0.000000	-0.000000	0.000000
0.180000	23.897080	1.464239	-183.208164	47.213108	1.286964	-0.388800	-67.686740	11.541144	21.150040	-0.243644	-8.195078	-37.273853	21.183628	2.148088	0.897012	0.089967	-0.000000	-0.000000	0.000000
0.190000	23.400104	2.232741	-183.982105	47.464323	2.478981	-0.759099	-64.469186	11.497854	17.884896	-1.305921	-8.066831	-34.380203	19.248483	2.127455	0.902735	0.089922	-0.000000	-0.000000	0.000000
0.200000	22.901518	2.982188	-184.625071	47.428887	3.578567	-1.086471	-60.676918	10.986567	14.638433	-2.280069	-7.901413	-31.425092	16.902325	2.106367	0.908936	0.089683	-0.000000	-0.000000	0.000000
0.210000	22.424469	3.681318	-185.125307	47.154678	4.552060	-1.364806	-56.409785	10.125920	11.496688	-3.128320	-7.709476	-28.490370	14.135686	2.084873	0.915469	0.089260	-0.000000	-0.000000	0.000000
0.220000	21.982927	4.287481	-185.486801	46.694246	5.364169	-1.578967	-51.798578	9.056177	8.527980	-3.801347	-7.488960	-25.652356	10.962232	2.063002	0.922133	0.088670	-0.000000	-0.000000	0.000000
0.230000	21.577599	4.759313	-185.725509	46.091728	5.987531	-1.698848	-46.987347	7.919351	5.776421	-4.252917	-7.229762	-22.981450	7.423238	2.040770	0.928709	0.087931	-0.000000	-0.000000	0.000000
0.240000	21.197191	5.067566	-185.861950	45.375462	6.407977	-1.687614	-42.116588	6.847608	3.264475	-4.453082	-6.920330	-20.545825	3.596340	2.018183	0.934989	0.087052	-0.000000	-0.000000	0.000000
0.250000	20.827703	5.199288	-185.918387	44.564121	6.627189	-1.521660	-37.313323	5.955061	1.005047	-4.395404	-6.553089	-18.416626	-0.391788	1.995246	0.940798	0.086041	-0.000000	-0.000000	0.000000
0.260000	20.461021	5.157618	-185.919743	43.677096	6.663686	-1.208705	-32.688660	5.327819	-0.987819	-4.098602	-6.125928	-16.670301	-4.363595	1.971975	0.946000	0.084905	-0.000000	-0.000000	0.000000
0.270000	20.096739	4.960043	-185.893268	42.739599	6.551237	-0.787451	-28.340871	5.019068	-2.696311	-3.603996	-5.637433	-15.386995	-8.103146	1.948407	0.950502	0.083656	-0.000000	-0.000000	0.000000
0.280000	19.741284	4.635146	-185.866744	41.783368	6.334977	-0.310732	-24.358853	5.048470	-4.100117	-2.969456	-5.082757	-14.644236	-11.384616	1.924609	0.954252	0.082315	-0.000000	-0.000000	0.000000
0.290000	19.406494	4.218338	-185.866156	40.843988	6.065808	0.174284	-20.821008	5.394139	-5.179065	-2.260281	-4.457539	-14.505442	-14.014644	1.900672	0.957236	0.080902	-0.000000	-0.000000	0.000000
0.300000	19.107248	3.747198	-185.913388	39.956428	5.793280	0.637557	-17.791568	5.978987	-5.916377	-1.538315	-3.769183	-15.007210	-15.868472	1.876696	0.959468	0.079443	-0.000000	-0.000000	0.000000
0.310000	18.859600	3.257688	-186.024108	39.152172	5.559359	1.065190	-15.319241	6.672698	-6.300108	-0.853729	-3.048724	-16.151328	-16.906119	1.852783	0.960977	0.077961	-0.000000	-0.000000	0.000000
0.320000	18.675769	2.783531	-186.204084	38.453777	5.395197	1.454150	-13.438286	7.321748	-6.326599	-0.244839	-2.351382	-17.904526	-17.171941	1.829019	0.961796	0.076478	-0.000000	-0.000000	0.000000
0.330000	18.557762	2.357515	-186.444638	37.868449	5.319779	1.805383	-12.168315	7.788880	-6.004556	0.255619	-1.743147	-20.205474	-16.782980	1.805479	0.961949	0.075011	-0.000000	-0.000000	0.000000
0.340000	18.497514	2.011193	-186.722269	37.389224	5.340489	2.112892	-11.511451	7.982269	-5.352862	0.614787	-1.283277	-22.975352	-15.909192	1.782227	0.961451	0.073575	-0.000000	-0.000000	0.000000
0.350000	18.483100	1.772035	-187.006258	37.003468	5.457435	2.357497	-11.449758	7.874542	-4.394215	0.799107	-1.012241	-26.126905	-14.748709	1.759307	0.960313	0.072183	-0.000000	-0.000000	0.000000
0.360000	18.504078	1.659087	-187.269999	36.701459	5.668466	2.514348	-11.946189	7.510248	-3.151125	0.779497	-0.948033	-29.570477	-13.499224	1.736747	0.958542	0.070846	-0.000000	-0.000000	0.000000
0.370000	18.552729	1.678446	-187.496428	36.480754	5.968365	2.567261	-12.949537	6.995062	-1.645420	0.540100	-1.085517	-33.219059	-12.325394	1.714567	0.956156	0.069571	-0.000000	-0.000000	0.000000
0.380000	18.623752	1.820324	-187.675387	36.347348	6.343404	2.515134	-14.402069	6.468944	0.102228	0.086133	-1.394646	-36.993747	-11.325521	1.692780	0.953189	0.068359	-9.659864	5.059969	11.354126
0.390000	18.712806	2.059762	-187.799177	36.312791	6.768295	2.372896	-16.248580	6.081971	2.072268	-0.553225	-1.826597	-40.827973	-10.514944	1.671398	0.949687	0.067193	-9.094689	5.484672	11.493468
0.400000	18.813080	2.361122	-187.859711	36.386316	7.207637	2.172707	-18.443218	5.981337	4.244541	-1.328014	-2.330569	-44.668997	-9.838674	1.650422	0.945711	0.066038	-7.890243	6.167847	11.443930
0.410000	18.913175	2.684993	-187.846724	36.566201	7.620545	1.954814	-20.947192	6.288048	6.598081	-2.175446	-2.864356	-48.477565	-9.200105	1.629848	0.941328	0.064848	-7.367333	6.591765	11.404454
0.420000	18.999941	2.996563	-187.747535	36.835467	7.967889	1.747398	-23.715583	7.060744	9.114951	-3.030576	-3.391094	-52.225775	-8.490193	1.609656	0.936612	0.063578	-6.793968	6.975485	11.356706
0.430000	19.066737	3.273529	-187.549560	37.163968	8.220811	1.549413	-26.680294	8.274055	11.786775	-3.837601	-3.870740	-55.891256	-7.613477	1.589810	0.931651	0.062202	-6.192413	7.280773	11.296604
0.440000	19.122315	3.509097	-187.246097	37.514364	8.366530	1.328185	-29.738641	9.827037	14.618756	-4.557068	-4.255523	-59.447829	-6.505170	1.570252	0.926558	0.060722	-5.586789	7.492863	11.227956
0.450000	19.191280	3.706904	-186.843403	37.844636	8.407222	1.038681	-32.754558	11.578225	17.623283	-5.164496	-4.498299	-62.855464	-5.136664	1.550903	0.921489	0.059168	-4.987314	7.617710	11.171141
0.460000	19.304488	3.871403	-186.364339	38.105088	8.353713	0.652496	-35.572228	13.386505	20.803418	-5.644264	-4.569810	-66.052739	-3.515507	1.531670	0.916637	0.057587	-4.382678	7.668865	11.159340
0.470000	19.485778	3.999434	-185.844210	38.234635	8.217531	0.175136	-38.036140	15.136739	24.136036	-5.983986	-4.471379	-68.955881	-1.682342	1.512456	0.912227	0.056024	-3.744985	7.653717	11.226529
0.480000	19.740393	4.074740	-185.319012	38.160104	8.001200	-0.354027	-40.011423	16.749090	27.562628	-6.168852	-4.238822	-71.466279	0.298214	1.493164	0.908494	0.054503	-3.044460	7.563650	11.392639
0.490000	20.053282	4.067300	-184.812036	37.804637	7.690824	-0.880054	-41.398569	18.173677	30.995216	-6.177898	-3.934377	-73.483454	2.346959	1.473694	0.905648	0.053029	-2.265578	7.371565	11.655636
0.500000	20.399119	3.940580	-184.326009	37.104493	7.258532	-1.363404	-42.138410	19.372129	34.335848	-5.986436	-3.626006	-74.918393	4.372321	1.453940	0.903849	0.051583	-1.416754	7.039507	11.995284
0.510000	20.747968	3.665018	-183.844180	36.016200	6.675247	-1.797695	-42.207944	20.302612	37.489557	-5.573535	-3.368178	-75.703803	6.276853	1.433790	0.903189	0.050150	-0.529574	6.532554	12.376017
0.520000	21.065050	3.229023	-183.339984	34.513287	5.925944	-2.201476	-41.611405	20.921031	40.367552	-4.930191	-3.194136	-75.799579	7.977083	1.413152	0.903694	0.048727	0.351780	5.831412	12.748970
0.530000	21.321520	2.640468	-182.790769	32.592727	5.018919	-2.601395	-40.372174	21.188801	42.899121	-4.064055	-3.113820	-75.191939	9.420225	1.391961	0.905326	0.047339	1.186041	4.937668	13.068686
0.540000	21.506395	1.922203	-182.186125	30.281989	3.985672	-3.017870	-38.528609	21.076870	45.043267	-2.998466	-3.114044	-73.886611	10.582349	1.370176	0.908005	0.046030	1.947218	3.871972	13.311253
0.550000	21.618745	1.105484	-181.528122	27.626748	2.871598	-3.452380	-36.135630	20.567489	46.778767	-1.766855	-3.165420	-71.899417	11.455180	1.347786	0.911619	0.044856	2.630663	2.667955	13.470297
0.560000	21.653830	0.219920	-180.830396	24.676133	1.720547	-3.884610	-33.272477	19.652476	48.087472	-0.405771	-3.235336	-69.248779	12.034519	1.324805	0.916037	0.043870	3.255404	1.362633	13.543360
0.570000	21.606138	-0.715090	-180.117664	21.487966	0.561517	-4.285826	-30.049691	18.322177	48.956971	1.049501	-3.298014	-65.954211	12.315887	1.301259	0.921117	0.043107	3.860481	-0.011978	13.531996
0.580000	21.483182	-1.688247	-179.422680	18.142746	-0.592590	-4.637598	-26.605043	16.548559	49.396958	2.562961	-3.335468	-62.042196	12.299897	1.277168	0.926705	0.042575	4.492537	-1.428440	13.451788
0.590000	21.310088	-2.684885	-178.782028	14.744274	-1.733380	-4.940746	-23.086826	14.277539	49.446761	4.090354	-3.331495	-57.556763	12.006487	1.252544	0.932638	0.042257	5.190342	-2.855453	13.334784
0.600000	21.117210	-3.677533	-178.232258	11.400959	-2.843857	-5.210138	-19.634031	11.450571	49.164133	5.574230	-3.262587	-52.569651	11.486765	1.227410	0.938746	0.042126	5.973571	-4.250864	13.217245
0.610000	20.923167	-4.624233	-177.803721	8.202304	-3.892230	-5.463134	-16.363538	8.055122	48.607558	6.947744	-3.092720	-47.186294	10.820812	1.201820	0.944855	0.042155	6.836737	-5.561096	13.123979
0.620000	20.734177	-5.471114	-177.511509	5.213477	-4.831128	-5.712568	-13.367583	4.164414	47.834310	8.143741	-2.784771	-41.546689	10.106184	1.175858	0.950794	0.042328	7.748386	-6.725515	13.068850
0.630000	20.555899	-6.158569	-177.349440	2.485687	-5.601830	-5.963837	-10.720808	-0.059050	46.910644	9.103783	-2.323548	-35.820175	9.445626	1.149628	0.956399	0.042640	8.658760	-7.685452	13.066305
0.640000	20.395113	-6.632036	-177.291698	0.059401	-6.144787	-6.209408	-8.493819	-4.380602	45.909996	9.785974	-1.725698	-30.193662	8.932607	1.123237	0.961532	0.043097	9.512766	-8.394479	13.130893
0.650000	20.251032	-6.854098	-177.299794	-2.041552	-6.414397	-6.423596	-6.765313	-8.526411	44.898191	10.171801	-1.030170	-24.855351	8.632086	1.096792	0.966090	0.043701	10.260361	-8.825373	13.265835
0.660000	20.112040	-6.814280	-177.331541	-3.810426	-6.393546	-6.565631	-5.625701	-12.233027	43.922697	10.270409	-0.284895	-19.977698	8.562439	1.070388	0.970018	0.044445	10.863026	-8.974782	13.457541
0.670000	19.960983	-6.532315	-177.350640	-5.250067	-6.100559	-6.591475	-5.170591	-15.294390	43.011904	10.116835	0.460886	-15.704531	8.692269	1.044085	0.973305	0.045301	11.298424	-8.864612	13.680097
0.680000	19.782329	-6.053248	-177.334174	-6.365649	-5.585098	-6.467544	-5.484302	-17.592259	42.179527	9.764561	1.160695	-12.144101	8.956860	1.017911	0.975965	0.046229	11.562593	-8.538073	13.903243
0.690000	19.568176	-5.439218	-177.275009	-7.161486	-4.918353	-6.180391	-6.617336	-19.108983	41.430190	9.277428	1.775401	-9.365307	9.281479	0.991863	0.978022	0.047178	11.668958	-8.053914	14.099608
0.700000	19.321875	-4.761493	-177.179183	-7.640928	-4.182164	-5.740375	-8.567122	-19.921673	40.764259	8.723091	2.280359	-7.395580	9.598581	0.965919	0.979484	0.048096	11.644818	-7.481120	14.249522
0.710000	19.057978	-4.092063	-177.060057	-7.808173	-3.457884	-5.179709	-11.270497	-20.177436	40.180874	8.167173	2.670523	-6.221435	9.852264	0.940065	0.980343	0.048934	11.525283	-6.892197	14.343260
0.720000	18.801257	-3.495809	-176.931663	-7.668285	-2.818106	-4.547447	-14.611342	-20.054632	39.681552	7.668851	2.957499	-5.792140	9.991730	0.914298	0.980576	0.049652	11.345865	-6.356342	14.383530
0.730000	18.585297	-3.025425	-176.805224	-7.224243	-2.323766	-3.902696	-18.442203	-19.718691	39.274267	7.277682	3.159630	-6.027174	9.964627	0.888631	0.980165	0.050225	11.137291	-5.934723	14.387489
0.740000	18.445990	-2.717433	-176.689167	-6.476527	-2.022277	-3.303010	-22.613390	-19.281797	38.973814	7.029648	3.287205	-6.829420	9.715450	0.863088	0.979109	0.050643	10.922573	-5.674994	14.382749
0.750000	18.409348	-2.587652	-176.587917	-5.429385	-1.942620	-2.791708	-26.998081	-18.781752	38.797152	6.943765	3.332388	-8.103536	9.198674	0.837710	0.977425	0.050908	10.712569	-5.603178	14.396250
0.760000	18.479258	-2.630547	-176.498192	-4.101062	-2.092240	-2.399037	-31.503909	-18.195408	38.755190	7.023079	3.281578	-9.773163	8.422139	0.812556	0.975130	0.051038	10.501086	-5.718681	14.440388
0.770000	18.633457	-2.826327	-176.408019	-2.529004	-2.462203	-2.152133	-36.071218	-17.475183	38.845754	7.260096	3.138906	-11.788976	7.493089	0.787701	0.972232	0.051052	10.265947	-5.998600	14.504767
0.780000	18.833953	-3.150781	-176.304326	-0.760558	-3.036414	-2.061711	-40.664577	-16.576053	39.055577	7.640282	2.922021	-14.124530	6.607296	0.763216	0.968718	0.050968	9.980632	-6.408516	14.562320
0.790000	19.044215	-3.580412	-176.184869	1.164583	-3.794205	-2.094075	-45.262085	-15.465518	39.367510	8.140043	2.635804	-16.762911	5.983021	0.739148	0.964578	0.050803	9.629724	-6.911373	14.585057
0.800000	19.237420	-4.092386	-176.062437	3.221916	-4.705414	-2.180250	-49.842882	-14.135584	39.759463	8.725022	2.272130	-19.679880	5.800315	0.715513	0.959833	0.050570	9.214365	-7.470529	14.554042
0.810000	19.395958	-4.662818	-175.960618	5.398669	-5.727173	-2.256248	-54.375549	-12.613966	40.197018	9.352843	1.831509	-22.828799	6.168430	0.692289	0.954553	0.050282	8.747581	-8.050197	14.461887
0.820000	19.511332	-5.264950	-175.908023	7.690056	-6.806060	-2.284426	-58.811567	-10.957960	40.631465	9.977876	1.327003	-26.131590	7.107737	0.669422	0.948875	0.049957	8.247853	-8.615996	14.314838
0.830000	19.582741	-5.867122	-175.930657	10.093740	-7.881898	-2.252772	-63.083069	-9.238500	41.002943	10.556381	0.775122	-29.479557	8.552146	0.646827	0.942993	0.049622	7.730532	-9.133967	14.131819
0.840000	19.613148	-6.432309	-176.042977	12.601300	-8.892366	-2.170366	-67.103340	-7.528657	41.245350	11.051670	0.191549	-32.744452	10.376820	0.624412	0.937140	0.049317	7.198124	-9.569076	13.938767
0.850000	19.606297	-6.921899	-176.242927	15.192147	-9.779538	-2.059454	-70.771503	-5.896060	41.293022	11.437752	-0.410964	-35.794234	12.433277	0.602086	0.931569	0.049078	6.635930	-9.886992	13.761765
0.860000	19.565305	-7.303059	-176.514856	17.833098	-10.496493	-1.943759	-73.982425	-4.396516	41.087091	11.699169	-1.025479	-38.506693	14.575585	0.579766	0.926525	0.048923	6.016984	-10.059510	13.620828
0.870000	19.495425	-7.555064	-176.839169	20.487076	-11.010284	-1.835144	-76.640254	-3.068962	40.583626	11.826310	-1.655405	-40.777769	16.672602	0.557380	0.922234	0.048847	5.314655	-10.070310	13.528809
0.880000	19.408582	-7.668808	-177.201746	23.124442	-11.297690	-1.724018	-78.669772	-1.931166	39.761302	11.808554	-2.314912	-42.525360	18.609247	0.534872	0.918888	0.048816	4.514334	-9.914789	13.494699
0.890000	19.320082	-7.639298	-177.599229	25.722217	-11.335723	-1.581947	-80.019991	-0.977335	38.618729	11.628692	-3.015614	-43.691045	20.286887	0.512215	0.916642	0.048792	3.618399	-9.591886	13.521828
0.900000	19.240822	-7.458418	-178.039978	28.253988	-11.096281	-1.376768	-80.660895	-0.178586	37.165251	11.262536	-3.747790	-44.241119	21.628314	0.489417	0.915609	0.048740	2.645873	-9.095899	13.602689
0.910000	19.175756	-7.114060	-178.539143	30.683389	-10.551887	-1.092023	-80.577434	0.512046	35.416998	10.686353	-4.473188	-44.167179	22.582556	0.466513	0.915867	0.048646	1.627676	-8.415805	13.720155
0.920000	19.126652	-6.596443	-179.111987	32.963571	-9.689220	-0.740493	-79.765163	1.147913	33.397077	9.888515	-5.134040	-43.485941	23.125095	0.443536	0.917455	0.048505	0.601011	-7.542468	13.853288
0.930000	19.093272	-5.906996	-179.770459	35.040547	-8.520742	-0.365141	-78.230249	1.772981	31.134622	8.878281	-5.672027	-42.238600	23.253355	0.420489	0.920368	0.048325	-0.394022	-6.478700	13.982272
0.940000	19.071305	-5.060997	-180.519471	36.856353	-7.086507	-0.027970	-75.989932	2.404855	28.661090	7.686939	-6.046250	-40.489862	22.975182	0.397324	0.924541	0.048107	-1.320963	-5.243223	14.090361
0.950000	19.051487	-4.083096	-181.351361	38.354042	-5.446805	0.210122	-73.069529	3.022669	26.008146	6.361844	-6.246353	-38.324473	22.286869	0.373945	0.929841	0.047847	-2.157406	-3.867200	14.165649
0.960000	19.024050	-3.005359	-182.243451	39.489227	-3.673564	0.313076	-69.499013	3.574193	23.211225	4.959823	-6.299986	-35.839905	21.149727	0.350222	0.936067	0.047526	-2.901171	-2.392137	14.205821
0.970000	18.980951	-1.871411	-183.158528	40.237908	-1.847453	0.283558	-65.312711	4.002276	20.310814	3.545314	-6.263696	-33.137346	19.487102	0.326028	0.942965	0.047104	-3.571338	-0.872780	14.218777
0.980000	18.910509	-0.740013	-184.044983	40.592553	-0.060139	0.156527	-60.552765	4.270171	17.346503	2.191023	-6.195364	-30.313737	17.212665	0.301269	0.950255	0.046523	-4.207731	0.620144	14.214215
0.990000	18.793681	0.316621	-184.841971	40.558442	1.586884	-0.017513	-55.277745	4.371790	14.353106	0.975339	-6.130038	-27.455270	14.269747	0.275909	0.957657	0.045716	-4.863683	2.002139	14.196030
1.000000	18.610726	1.219750	-185.495759	40.161278	2.994303	-0.181390	-49.574156	4.330029	11.365704	-0.025664	-6.078951	-24.632433	10.654218	0.249974	0.964911	0.044615	-5.587481	3.184191	14.165661
1.010000	18.351398	1.896547	-185.978446	39.455815	4.083855	-0.273767	-43.562398	4.189795	8.424965	-0.749573	-6.040264	-21.899757	6.429927	0.223534	0.971790	0.043174	-6.403030	4.089212	14.129988
1.020000	18.018436	2.295756	-186.293951	38.522779	4.812641	-0.238365	-37.391554	4.011256	5.575058	-1.158709	-6.003145	-19.302332	1.746522	0.196690	0.978107	0.041382	-7.303621	4.670174	14.103312
1.030000	17.626536	2.399702	-186.469512	37.458404	5.177642	-0.038902	-31.225568	3.864044	2.860231	-1.246958	-5.949096	-16.886587	-3.162625	0.169556	0.983717	0.039266	-8.258691	4.921524	14.105262
1.040000	17.200062	2.227720	-186.542510	36.362532	5.213176	0.332531	-25.226859	3.813209	0.323728	-1.040735	-5.855411	-14.711101	-8.004611	0.142236	0.988517	0.036890	-9.224491	4.879536	14.157484
1.050000	16.768616	1.830343	-186.550036	35.326415	4.983002	0.857971	-19.543850	3.898803	-1.993495	-0.594153	-5.699441	-12.853047	-12.459852	0.114809	0.992448	0.034342	-10.153387	4.612002	14.277895
1.060000	16.361654	1.276852	-186.523657	34.423266	4.568247	1.500810	-14.306470	4.129739	-4.054393	0.021019	-5.467299	-11.405933	-16.231658	0.087338	0.995493	0.031718	-11.000934	4.201529	14.474516
1.070000	16.003709	0.642216	-186.488535	33.702518	4.054959	2.212813	-9.626229	4.495581	-5.828001	0.727088	-5.164150	-10.467832	-19.105959	0.059872	0.997674	0.029107	-11.731289	3.729907	14.741462
1.080000	15.710619	-0.003304	-186.463269	33.187060	3.522461	2.939778	-5.594780	4.976010	-7.292180	1.450845	-4.815144	-10.124548	-20.989539	0.032463	0.999036	0.026582	-12.321871	3.267331	15.058675
1.090000	15.487630	-0.602189	-186.457385	32.873781	3.032522	3.626084	-2.279428	5.539059	-8.435830	2.131002	-4.453499	-10.433493	-21.910999	0.005169	0.999633	0.024194	-12.767201	2.866014	15.396417
1.100000	15.329821	-1.113626	-186.467653	32.737084	2.623041	4.221187	0.281582	6.140357	-9.260384	2.720384	-4.105115	-11.412164	-21.996380	-0.021953	0.999500	0.021962	-13.080273	2.558659	15.722488
1.110000	15.223965	-1.512929	-186.477585	32.735060	2.308658	4.688730	2.079862	6.729645	-9.780335	3.184748	-3.780848	-13.034416	-21.436104	-0.048857	0.998645	0.019871	-13.288624	2.360575	16.008395
1.120000	15.151902	-1.788548	-186.462550	32.818941	2.087352	5.012159	3.133718	7.251703	-10.021060	3.501856	-3.478208	-15.235401	-20.446423	-0.075517	0.997045	0.017884	-13.424976	2.273102	16.233272
1.130000	15.095706	-1.937005	-186.400316	32.944245	1.952528	5.194236	3.483785	7.637722	-10.013819	3.660076	-3.190503	-17.922246	-19.232630	-0.101929	0.994663	0.015956	-13.515278	2.289246	16.385484
1.140000	15.042209	-1.956647	-186.283501	33.080048	1.906649	5.253431	3.186763	7.802785	-9.790309	3.655223	-2.920498	-20.987043	-17.965864	-0.128098	0.991468	0.014045	-13.568367	2.401217	16.461247
1.150000	14.984426	-1.844642	-186.125590	33.214486	1.967100	5.216778	2.305874	7.657086	-9.378312	3.487246	-2.688622	-24.320976	-16.767126	-0.154025	0.987471	0.012129	-13.573161	2.604930	16.461540
1.160000	14.920749	-1.599145	-185.955449	33.356339	2.160201	5.110339	0.900108	7.128856	-8.798191	3.157474	-2.527161	-27.827705	-15.692435	-0.179689	0.982740	0.010205	-13.505842	2.898968	16.390215
1.170000	14.854633	-1.223125	-185.804665	33.533028	2.509372	4.953735	-0.984303	6.201826	-8.059921	2.665460	-2.464957	-31.432263	-14.730047	-0.205048	0.977409	0.008276	-13.342275	3.281218	16.254569
1.180000	14.794101	-0.726698	-185.696237	33.784145	3.024919	4.760972	-3.318118	4.956814	-7.162463	2.007526	-2.515776	-35.083168	-13.819161	-0.230059	0.971663	0.006346	-13.067643	3.745766	16.066009
1.190000	14.750171	-0.127913	-185.638499	34.150878	3.698143	4.541157	-6.085553	3.581187	-6.095705	1.180043	-2.675837	-38.748416	-12.884370	-0.254688	0.965704	0.004417	-12.679999	4.280513	15.839739
1.200000	14.736392	0.547202	-185.623001	34.664881	4.499127	4.293833	-9.269995	2.326785	-4.841825	0.186493	-2.923463	-42.407495	-11.867080	-0.278928	0.959727	0.002479	-12.190020	4.866289	15.595987
1.210000	14.766498	1.266551	-185.626096	35.335539	5.378393	4.006620	-12.832475	1.449370	-3.378968	-0.955425	-3.218523	-46.041787	-10.742666	-0.302791	0.953895	0.000519	-11.618320	5.477744	15.359400
1.220000	14.847908	1.997726	-185.614575	36.135870	6.274177	3.661235	-16.690092	1.156742	-1.689286	-2.211355	-3.507014	-49.627191	-9.523502	-0.326292	0.948341	-0.001474	-10.990693	6.086819	15.153027
1.230000	14.978837	2.716005	-185.554501	36.997895	7.125325	3.239820	-20.702005	1.558290	0.236213	-3.535054	-3.731685	-53.131666	-8.246875	-0.349429	0.943170	-0.003502	-10.332184	6.669337	14.993595
1.240000	15.150993	3.409034	-185.421159	37.821985	7.884528	2.727318	-24.672916	2.631607	2.396788	-4.875969	-3.845775	-56.514549	-6.956624	-0.372182	0.938484	-0.005549	-9.660403	7.209789	14.891306
1.250000	15.351170	4.073687	-185.205025	38.492952	8.523719	2.114009	-28.378931	4.234743	4.778349	-6.182246	-3.825905	-59.723942	-5.693139	-0.394515	0.934391	-0.007589	-8.980661	7.698291	14.849668
1.260000	15.560051	4.706084	-184.909448	38.897204	9.028700	1.399161	-31.608733	6.158123	7.347384	-7.397668	-3.677946	-62.693464	-4.491992	-0.416402	0.931018	-0.009592	-8.286600	8.120900	14.864435
1.270000	15.751205	5.290106	-184.541983	38.938479	9.387858	0.595490	-34.204639	8.188136	10.047369	-8.456833	-3.432121	-65.342526	-3.381003	-0.437851	0.928496	-0.011535	-7.566060	8.449691	14.923327
1.280000	15.894438	5.790297	-184.106092	38.551386	9.582679	-0.266686	-36.088380	10.156714	12.803407	-9.283471	-3.129229	-67.583782	-2.369579	-0.458917	0.926951	-0.013411	-6.808295	8.639176	15.008619
1.290000	15.966262	6.153945	-183.598341	37.713664	9.585918	-1.141451	-37.264083	11.960789	15.538506	-9.796192	-2.804510	-69.338013	-1.435579	-0.479710	0.926470	-0.015233	-6.009822	8.633377	15.104172
1.300000	15.960402	6.324933	-183.011918	36.450233	9.370076	-1.977641	-37.799499	13.549066	18.191828	-9.924581	-2.477697	-70.549283	-0.523829	-0.500376	0.927087	-0.017022	-5.177406	8.382946	15.201121
1.310000	15.887194	6.264299	-182.345104	34.820657	8.922859	-2.730093	-37.794177	14.889043	20.723403	-9.630885	-2.154845	-71.190428	0.435965	-0.521066	0.928773	-0.018791	-4.324907	7.863977	15.294648
1.320000	15.763365	5.965669	-181.610989	32.896344	8.260289	-3.366579	-37.347737	15.935518	23.104797	-8.925653	-1.839488	-71.255588	1.498885	-0.541897	0.931454	-0.020531	-3.463648	7.087630	15.376152
1.330000	15.603515	5.458204	-180.842097	30.742988	7.429678	-3.872701	-36.538574	16.617516	25.308792	-7.869410	-1.543061	-70.745926	2.680184	-0.562944	0.935034	-0.022209	-2.593277	6.097379	15.431187
1.340000	15.417050	4.797849	-180.084922	28.413089	6.500340	-4.252392	-35.416994	16.849737	27.304092	-6.558876	-1.284964	-69.657975	3.953974	-0.584235	0.939424	-0.023768	-1.700678	4.957895	15.443782
1.350000	15.207063	4.052252	-179.384282	25.944205	5.545494	-4.521074	-34.010950	16.559808	29.052961	-5.101766	-1.081929	-67.979402	5.271769	-0.605779	0.944552	-0.025146	-0.769202	3.741692	15.400920
1.360000	14.972985	3.285117	-178.764476	23.363319	4.622766	-4.698603	-32.338890	15.713131	30.514293	-3.589389	-0.935522	-65.690614	6.577824	-0.627583	0.950356	-0.026284	0.206667	2.517541	15.297464
1.370000	14.718786	2.543343	-178.220259	20.698511	3.761726	-4.808040	-30.424587	14.322395	31.653977	-2.078418	-0.827978	-62.769127	7.808046	-0.649667	0.956761	-0.027137	1.212900	1.340143	15.143002
1.380000	14.458798	1.851425	-177.725273	17.989134	2.965719	-4.876530	-28.308883	12.438865	32.455355	-0.592009	-0.728702	-59.197275	8.881164	-0.672074	0.963651	-0.027684	2.219249	0.243564	14.963004
1.390000	14.212482	1.217372	-177.250425	15.283904	2.227480	-4.931714	-26.054330	10.133055	32.922020	0.860598	-0.603877	-54.976258	9.702220	-0.694851	0.970851	-0.027931	3.184380	-0.755083	14.787615
1.400000	13.992537	0.646474	-176.780377	12.630508	1.548259	-4.990858	-23.743196	7.480958	33.075008	2.259725	-0.423075	-50.145769	10.188643	-0.718024	0.978124	-0.027903	4.053136	-1.641974	14.635004
1.410000	13.796976	0.152920	-176.324396	10.068410	0.948643	-5.046175	-21.472282	4.566530	32.949738	3.560264	-0.165336	-44.800353	10.305155	-0.741584	0.985187	-0.027646	4.749843	-2.392329	14.501265
1.420000	13.610162	-0.238395	-175.918161	7.629882	0.464613	-5.058808	-19.346384	1.491186	32.594606	4.694142	0.171192	-39.092082	10.084125	-0.765482	0.991744	-0.027211	5.172703	-2.965528	14.361185
1.430000	13.411352	-0.498482	-175.612064	5.345477	0.133489	-4.972202	-17.470118	-1.629468	32.070711	5.588441	0.558695	-33.216614	9.622338	-0.789632	0.997533	-0.026658	5.448347	-3.373700	14.216084
1.440000	13.184517	-0.602133	-175.449991	3.246541	-0.018421	-4.736647	-15.939191	-4.680279	31.449483	6.187347	0.940488	-27.388876	9.055385	-0.813941	1.002363	-0.026052	6.087447	-3.735530	14.129039
1.450000	12.923410	-0.532968	-175.449855	1.362165	0.019269	-4.328925	-14.835100	-7.553687	30.805471	6.466445	1.250524	-21.818111	8.519316	-0.838316	1.006140	-0.025461	-0.000000	-0.000000	0.000000
1.460000	12.631200	-0.286279	-175.597142	-0.284813	0.241089	-3.761995	-14.224923	-10.149992	30.206880	6.434860	1.438624	-16.689216	8.120475	-0.862672	1.008858	-0.024950	-0.000000	-0.000000	0.000000
1.470000	12.316952	0.128202	-175.853705	-1.679514	0.625985	-3.086671	-14.160982	-12.383205	29.707338	6.128864	1.485555	-12.151050	7.922788	-0.886928	1.010578	-0.024569	-0.000000	-0.000000	0.000000
1.480000	11.990503	0.683190	-176.173274	-2.816239	1.135941	-2.386943	-14.674875	-14.191764	29.339017	5.603984	1.406252	-8.308371	7.944663	-0.911008	1.011396	-0.024350	-0.000000	-0.000000	0.000000
1.490000	11.657966	1.333086	-176.514866	-3.699778	1.715607	-1.764361	-15.767896	-15.546322	29.108077	4.928436	1.243394	-5.215878	8.157711	-0.934850	1.011418	-0.024306	-0.000000	-0.000000	0.000000
1.500000	11.321069	2.018481	-176.850525	-4.344217	2.296178	-1.306337	-17.405487	-16.450741	28.996596	4.176635	1.051980	-2.877165	8.484782	-0.958427	1.010737	-0.024432	-0.000000	-0.000000	0.000000
1.510000	10.979149	2.675300	-177.165435	-4.770521	2.804027	-1.056301	-19.521024	-16.937787	28.970934	3.422248	0.882068	-1.252270	8.803306	-0.981751	1.009414	-0.024714	-0.000000	-0.000000	0.000000
1.520000	10.630856	3.243830	-177.451382	-5.004181	3.170404	-1.008878	-22.029019	-17.059739	28.993237	2.733124	0.766252	-0.274052	8.960708	-1.004870	1.007472	-0.025135	-0.000000	-0.000000	0.000000
1.530000	10.277613	3.673467	-177.700260	-5.068675	3.337260	-1.124068	-24.843576	-16.872101	29.035906	2.169577	0.709870	0.130712	8.799010	-1.027835	1.004903	-0.025683	-0.000000	-0.000000	0.000000
1.540000	9.928018	3.923729	-177.902124	-4.976177	3.258767	-1.349101	-27.894140	-16.416491	29.094423	1.784455	0.688681	0.021642	8.187253	-1.050673	1.001681	-0.026356	-0.000000	-0.000000	0.000000
1.550000	9.598056	3.964257	-178.046696	-4.724068	2.901010	-1.641246	-31.130906	-15.714993	29.190107	1.623153	0.658548	-0.567208	7.058114	-1.073369	0.997783	-0.027156	-0.000000	-0.000000	0.000000
1.560000	9.305870	3.774666	-178.127223	-4.301050	2.241045	-1.977023	-34.518475	-14.781830	29.360184	1.722419	0.567996	-1.627689	5.434611	-1.095863	0.993216	-0.028073	-0.000000	-0.000000	0.000000
1.570000	9.064326	3.344814	-178.144595	-3.698417	1.267307	-2.350938	-38.024106	-13.639404	29.640468	2.106781	0.373139	-3.168132	3.448206	-1.118073	0.988046	-0.029078	-0.000000	-0.000000	0.000000
1.580000	8.878123	2.676394	-178.108966	-2.915902	-0.017321	-2.773987	-41.608727	-12.322774	30.052302	2.783380	0.053245	-5.199069	1.348944	-1.139911	0.982412	-0.030122	-0.000000	-0.000000	0.000000
1.590000	8.750369	1.784677	-178.039267	-1.954490	-1.592431	-3.263474	-45.224540	-10.874139	30.602224	3.737680	-0.391060	-7.715391	-0.523634	-1.161310	0.976528	-0.031149	-0.000000	-0.000000	0.000000
1.600000	8.689967	0.699428	-177.961842	-0.804613	-3.417795	-3.824003	-48.818576	-9.339701	31.286232	4.930053	-0.951438	-10.676049	-1.824764	-1.182228	0.970658	-0.032103	-0.000000	-0.000000	0.000000
1.610000	8.707252	-0.534694	-177.907360	0.554929	-5.430613	-4.432284	-52.337983	-7.777634	32.085056	6.293757	-1.610682	-13.987627	-2.309840	-1.202634	0.965079	-0.032958	-0.000000	-0.000000	0.000000
1.620000	8.804593	-1.858791	-177.907245	2.150789	-7.543924	-5.032411	-55.734140	-6.262211	32.956106	7.737484	-2.330076	-17.500796	-1.906734	-1.222493	0.960030	-0.033718	-0.000000	-0.000000	0.000000
1.630000	8.975156	-3.200882	-177.990681	4.012179	-9.647102	-5.543935	-58.964563	-4.861805	33.836626	9.152341	-3.048786	-21.027057	-0.717836	-1.241761	0.955685	-0.034414	-0.000000	-0.000000	0.000000
1.640000	9.203797	-4.476553	-178.179315	6.161859	-11.607851	-5.880880	-61.988404	-3.606066	34.653456	10.421279	-3.697038	-24.374962	1.043354	-1.260396	0.952137	-0.035089	-0.000000	-0.000000	0.000000
1.650000	9.461305	-5.592481	-178.481182	8.592858	-13.279720	-5.975820	-64.754988	-2.473425	35.327352	11.431078	-4.210785	-27.391427	3.137822	-1.278379	0.949409	-0.035778	-0.000000	-0.000000	0.000000
1.660000	9.700234	-6.458328	-178.887550	11.246576	-14.522036	-5.800962	-67.193147	-1.400218	35.774946	12.088773	-4.544666	-29.987376	5.363537	-1.295730	0.947485	-0.036511	-0.000000	-0.000000	0.000000
1.670000	9.863140	-7.006139	-179.370126	14.011875	-15.231317	-5.376030	-69.208081	-0.304257	35.916187	12.342249	-4.683283	-32.135553	7.576485	-1.312536	0.946357	-0.037313	-0.000000	-0.000000	0.000000
1.680000	9.901211	-7.209161	-179.879996	16.750379	-15.370854	-4.755999	-70.686654	0.873542	35.685876	12.196635	-4.648143	-33.843209	9.676916	-1.328973	0.946071	-0.038217	-0.000000	-0.000000	0.000000
1.690000	9.793464	-7.092389	-180.354880	19.337813	-14.983379	-4.004359	-71.510362	2.120519	35.044322	11.716702	-4.499996	-35.115647	11.582269	-1.345298	0.946748	-0.039266	-0.000000	-0.000000	0.000000
1.700000	9.555776	-6.728667	-180.732850	21.697259	-14.179584	-3.170988	-71.575181	3.328436	33.983829	11.012932	-4.332109	-35.933119	13.209289	-1.361813	0.948558	-0.040511	-0.000000	-0.000000	0.000000
1.710000	9.234137	-6.218187	-180.965344	23.804177	-13.106859	-2.287944	-70.816570	4.319371	32.530950	10.215119	-4.247892	-36.256290	14.474285	-1.378784	0.951647	-0.041989	-0.000000	-0.000000	0.000000
1.720000	8.890516	-5.662054	-181.025204	25.669561	-11.916716	-1.378651	-69.239073	4.919936	30.753429	9.444862	-4.330442	-36.057824	15.308937	-1.396315	0.956034	-0.043705	-0.000000	-0.000000	0.000000
1.730000	8.592411	-5.142856	-180.909156	27.317585	-10.746881	-0.474057	-66.946482	5.050023	28.777120	8.797554	-4.613803	-35.365811	15.681989	-1.414202	0.961516	-0.045602	-0.000000	-0.000000	0.000000
1.740000	8.407903	-4.714083	-180.639447	28.764866	-9.716655	0.366274	-64.165124	4.777139	26.805774	8.331435	-5.055395	-34.304957	15.614044	-1.431783	0.967599	-0.047529	-0.000000	-0.000000	0.000000
1.750000	8.404066	-4.395731	-180.265114	30.002618	-8.930484	1.031893	-61.255901	4.315817	25.133423	8.060316	-5.510404	-33.124379	15.184751	-1.447800	0.973483	-0.049206	-0.000000	-0.000000	0.000000
1.760000	8.644850	-4.176302	-179.855649	30.981050	-8.489798	1.349116	-58.710929	3.990220	24.140462	7.957425	-5.718888	-32.199080	14.535796	-1.460341	0.978072	-0.050203	-0.000000	-0.000000	0.000000
1.770000	9.250352	-3.974193	-179.349199	31.912519	-8.359322	1.245009	-56.222699	3.979238	23.873809	7.965374	-5.494098	-31.593546	13.597762	-1.471195	0.981724	-0.050398	-0.000000	-0.000000	0.000000
1.780000	10.553655	-3.603755	-178.404330	33.533373	-8.336887	0.773483	-51.900121	4.201464	23.896749	8.038986	-4.779314	-30.780235	11.742484	-1.489196	0.987487	-0.050183	-0.000000	-0.000000	0.000000
1.790000	-0.000000	0.000000	-0.000000	-0.000000	0.000000	-0.000000	-0.000000	-0.000000	-0.000000	-0.000000	0.000000	-0.000000	-0.000000	0.000000	0.000000	0.000000	-0.000000	-0.000000	0.000000
1.800000	-0.000000	0.000000	-0.000000	-0.000000	0.000000	-0.000000	-0.000000	-0.000000	-0.000000	-0.000000	0.000000	-0.000000	-0.000000	0.000000	0.000000	0.000000	-0.000000	-0.000000	0.000000
1.810000	-0.000000	0.000000	-0.000000	-0.000000	0.000000	-0.000000	-0.000000	-0.000000	-0.000000	-0.000000	0.000000	-0.000000	-0.000000	0.000000	0.000000	0.000000	-0.000000	-0.000000	0.000000
1.820000	-0.000000	0.000000	-0.000000	-0.000000	0.000000	-0.000000	-0.000000	-0.000000	-0.000000	-0.000000	0.000000	-0.000000	-0.000000	0.000000	0.000000	0.000000	-0.000000	-0.000000	0.000000
1.830000	-0.000000	0.000000	-0.000000	-0.000000	0.000000	-0.000000	-0.000000	-0.000000	-0.000000	-0.000000	0.000000	-0.000000	-0.000000	0.000000	0.000000	0.000000	-0.000000	-0.000000	0.000000
1.840000	-0.000000	0.000000	-0.000000	-0.000000	0.000000	-0.000000	-0.000000	-0.000000	-0.000000	-0.000000	0.000000	-0.000000	-0.000000	0.000000	0.000000	0.000000	-0.000000	-0.000000	0.000000
1.850000	-0.000000	0.000000	-0.000000	-0.000000	0.000000	-0.000000	-0.000000	-0.000000	-0.000000	-0.000000	0.000000	-0.000000	-0.000000	0.000000	0.000000	0.000000	-0.000000	-0.000000	0.000000
1.860000	-0.000000	0.000000	-0.000000	-0.000000	0.000000	-0.000000	-0.000000	-0.000000	-0.000000	-0.000000	0.000000	-0.000000	-0.000000	0.000000	0.000000	0.000000	-0.000000	-0.000000	0.000000
1.870000	-0.000000	0.000000	-0.000000	-0.000000	0.000000	-0.000000	-0.000000	-0.000000	-0.000000	-0.000000	0.000000	-0.000000	-0.000000	0.000000	0.000000	0.000000	-0.000000	-0.000000	0.000000
1.880000	-0.000000	0.000000	-0.000000	-0.000000	0.000000	-0.000000	-0.000000	-0.000000	-0.000000	-0.000000	0.000000	-0.000000	-0.000000	0.000000	0.000000	0.000000	-0.000000	-0.000000	0.000000
1.890000	-0.000000	0.000000	-0.000000	-0.000000	0.000000	-0.000000	-0.000000	-0.000000	-0.000000	-0.000000	0.000000	-0.000000	-0.000000	0.000000	0.000000	0.000000	-0.000000	-0.000000	0.000000
1.900000	-0.000000	0.000000	-0.000000	-0.000000	0.000000	-0.000000	-0.000000	-0.000000	-0.000000	-0.000000	0.000000	-0.000000	-0.000000	0.000000	0.000000	0.000000	-0.000000	-0.000000	0.000000
1.910000	-0.000000	0.000000	-0.000000	-0.000000	0.000000	-0.000000	-0.000000	-0.000000	-0.000000	-0.000000	0.000000	-0.000000	-0.000000	0.000000	0.000000	0.000000	-0.000000	-0.000000	0.000000
1.920000	-0.000000	0.000000	-0.000000	-0.000000	0.000000	-0.000000	-0.000000	-0.000000	-0.000000	-0.000000	0.000000	-0.000000	-0.000000	0.000000	0.000000	0.000000	-0.000000	-0.000000	0.000000
1.930000	-0.000000	0.000000	-0.000000	-0.000000	0.000000	-0.000000	-0.000000	-0.000000	-0.000000	-0.000000	0.000000	-0.000000	-0.000000	0.000000	0.000000	0.000000	-0.000000	-0.000000	0.000000
1.940000	-0.000000	0.000000	-0.000000	-0.000000	0.000000	-0.000000	-0.000000	-0.000000	-0.000000	-0.000000	0.000000	-0.000000	-0.000000	0.000000	0.000000	0.000000	-0.000000	-0.000000	0.000000
1.950000	-0.000000	0.000000	-0.000000	-0.000000	0.000000	-0.000000	-0.000000	-0.000000	-0.000000	-0.000000	0.000000	-0.000000	-0.000000	0.000000	0.000000	0.000000	-0.000000	-0.000000	0.000000
1.960000	-0.000000	0.000000	-0.000000	-0.000000	0.000000	-0.000000	-0.000000	-0.000000	-0.000000	-0.000000	0.000000	-0.000000	-0.000000	0.000000	0.000000	0.000000	-0.000000	-0.000000	0.000000
1.970000	-0.000000	0.000000	-0.000000	-0.000000	0.000000	-0.000000	-0.000000	-0.000000	-0.000000	-0.000000	0.000000	-0.000000	-0.000000	0.000000	0.000000	0.000000	-0.000000	-0.000000	0.000000
1.980000	-0.000000	0.000000	-0.000000	-0.000000	0.000000	-0.000000	-0.000000	-0.000000	-0.000000	-0.000000	0.000000	-0.000000	-0.000000	0.000000	0.000000	0.000000	-0.000000	-0.000000	0.000000
1.990000	-0.000000	0.000000	-0.000000	-0.000000	0.000000	-0.000000	-0.000000	-0.000000	-0.000000	-0.000000	0.000000	-0.000000	-0.000000	0.000000	0.000000	0.000000	-0.000000	-0.000000	0.000000
2.000000	-0.000000	0.000000	-0.000000	-0.000000	0.000000	-0.000000	-0.000000	-0.000000	-0.000000	-0.000000	0.000000	-0.000000	-0.000000	0.000000	0.000000	0.000000	-0.000000	-0.000000	0.000000
2.010000	-0.000000	0.000000	-0.000000	-0.000000	0.000000	-0.000000	-0.000000	-0.000000	-0.000000	-0.000000	0.000000	-0.000000	-0.000000	0.000000	0.000000	0.000000	-0.000000	-0.000000	0.000000
2.020000	-0.000000	0.000000	-0.000000	-0.000000	0.000000	-0.000000	-0.000000	-0.000000	-0.000000	-0.000000	0.000000	-0.000000	-0.000000	0.000000	0.000000	0.000000	-0.000000	-0.000000	0.000000
2.030000	-0.000000	0.000000	-0.000000	-0.000000	0.000000	-0.000000	-0.000000	-0.000000	-0.000000	-0.000000	0.000000	-0.000000	-0.000000	0.000000	0.000000	0.000000	-0.000000	-0.000000	0.000000
