LSLDJ_XZ.mot
version=1
datacolumns 20
datarows 274
range 0.00000 2.73000
inDegrees=yes
endheader
time	pelvis_tilt	pelvis_list	pelvis_rotation	hip_flexion_r	hip_adduction_r	hip_rotation_r	knee_angle_r	ankle_angle_r	hip_flexion_l	hip_adduction_l	hip_rotation_l	knee_angle_l	ankle_angle_l	pelvis_tx	pelvis_ty	pelvis_tz	lumbar_bending	lumbar_rotation	lumbar_extension
0.000000	-14.525655	-1.677801	3.499425	41.640388	-2.010959	1.522666	-49.262020	4.546996	20.243856	4.251594	-7.922702	-29.049824	16.346951	-0.038530	1.266502	0.177915	-0.000000	-0.000000	0.000000
0.010000	-14.098683	-1.312590	3.368843	41.438603	-2.285282	2.335125	-49.406634	4.163784	20.033497	4.509210	-7.269928	-29.726862	16.237182	-0.037275	1.265109	0.178138	-0.000000	-0.000000	0.000000
0.020000	-13.958295	-1.076912	3.205551	41.657791	-2.443328	2.538154	-49.703063	3.972175	20.292876	4.598193	-6.772462	-31.099786	16.800730	-0.033678	1.262515	0.178702	-0.000000	-0.000000	0.000000
0.030000	-14.010073	-1.081044	3.159765	41.830522	-2.440251	2.381992	-49.740468	4.001392	20.450872	4.554808	-6.788661	-31.583523	17.151782	-0.031811	1.261539	0.178929	-0.000000	-0.000000	0.000000
0.040000	-14.090719	-1.090495	3.109108	42.050681	-2.442089	2.181077	-49.742029	4.042287	20.630054	4.507634	-6.854561	-32.101916	17.563052	-0.029530	1.260437	0.179181	-0.000000	-0.000000	0.000000
0.050000	-14.201565	-1.098796	3.049780	42.318402	-2.453427	1.952024	-49.690897	4.080845	20.819407	4.465325	-6.966163	-32.618372	18.012468	-0.026893	1.259259	0.179443	-0.000000	-0.000000	0.000000
0.060000	-14.332641	-1.105876	2.973237	42.619825	-2.466545	1.717947	-49.569643	4.097265	20.994640	4.426423	-7.107860	-33.091835	18.473344	-0.023990	1.258060	0.179706	-0.000000	-0.000000	0.000000
0.070000	-14.466971	-1.115089	2.869231	42.933998	-2.467062	1.501938	-49.366199	4.074328	21.126030	4.382991	-7.256806	-33.487897	18.921998	-0.020912	1.256890	0.179963	-0.000000	-0.000000	0.000000
0.080000	-14.588494	-1.129553	2.730511	43.242361	-2.442483	1.317655	-49.078455	4.005007	21.189041	4.326173	-7.392951	-33.785214	19.342208	-0.017731	1.255779	0.180219	-0.000000	-0.000000	0.000000
0.090000	-14.683851	-1.152128	2.555546	43.529732	-2.385661	1.170470	-48.713208	3.888250	21.167098	4.247071	-7.504258	-33.976742	19.721219	-0.014494	1.254750	0.180485	-0.000000	-0.000000	0.000000
0.100000	-14.744614	-1.188245	2.349801	43.784830	-2.294079	1.061382	-48.282305	3.721322	21.053700	4.135165	-7.587787	-34.067345	20.044556	-0.011214	1.253825	0.180772	-0.000000	-0.000000	0.000000
0.110000	-14.772575	-1.246893	2.126163	44.004862	-2.169505	0.986357	-47.799913	3.498493	20.856759	3.979274	-7.647909	-34.069369	20.296793	-0.007878	1.253036	0.181090	-0.000000	-0.000000	0.000000
0.120000	-14.782850	-1.337518	1.903437	44.199061	-2.018909	0.932231	-47.281611	3.217387	20.599823	3.771773	-7.692401	-33.997847	20.469486	-0.004448	1.252432	0.181447	-0.000000	-0.000000	0.000000
0.130000	-14.795013	-1.465547	1.701735	44.380572	-1.853327	0.881003	-46.743736	2.884893	20.310422	3.512309	-7.725874	-33.865942	20.563184	-0.000878	1.252069	0.181847	-0.000000	-0.000000	0.000000
0.140000	-14.816141	-1.630006	1.535930	44.550081	-1.683293	0.824085	-46.202123	2.515586	20.000857	3.207820	-7.744136	-33.682006	20.576596	0.002861	1.252007	0.182295	-0.000000	-0.000000	0.000000
0.150000	-14.836791	-1.824065	1.410995	44.692932	-1.514854	0.767272	-45.671774	2.127733	19.664981	2.869975	-7.738784	-33.451406	20.498895	0.006776	1.252296	0.182793	-0.000000	-0.000000	0.000000
0.160000	-14.843533	-2.037698	1.322298	44.792776	-1.349758	0.719719	-45.167614	1.743468	19.294249	2.512513	-7.708745	-33.182461	20.314359	0.010863	1.252972	0.183334	-0.000000	-0.000000	0.000000
0.170000	-14.828732	-2.261275	1.260200	44.841416	-1.187605	0.683464	-44.704508	1.388097	18.890992	2.148224	-7.664008	-32.892207	20.007109	0.015118	1.254055	0.183908	-0.000000	-0.000000	0.000000
0.180000	-14.787111	-2.488800	1.215764	44.834473	-1.026770	0.653932	-44.296104	1.084994	18.467119	1.785112	-7.618281	-32.610101	19.559576	0.019536	1.255551	0.184505	-0.000000	-0.000000	0.000000
0.190000	-14.709956	-2.718136	1.185751	44.765254	-0.866597	0.625590	-43.954444	0.849531	18.039513	1.426164	-7.579494	-32.379719	18.951660	0.024101	1.257450	0.185123	-0.000000	-0.000000	0.000000
0.200000	-14.591341	-2.947300	1.174816	44.631699	-0.711657	0.597940	-43.690209	0.680138	17.636487	1.074487	-7.545836	-32.257266	18.159567	0.028793	1.259725	0.185771	-0.000000	-0.000000	0.000000
0.210000	-14.440955	-3.171717	1.192854	44.449200	-0.572042	0.577458	-43.511404	0.552995	17.309110	0.736753	-7.509080	-32.307009	17.155024	0.033591	1.262331	0.186461	-0.000000	-0.000000	0.000000
0.220000	-14.283807	-3.385324	1.251670	44.248186	-0.459849	0.572643	-43.420551	0.432277	17.127237	0.422128	-7.459315	-32.594564	15.909687	0.038480	1.265206	0.187207	-0.000000	-0.000000	0.000000
0.230000	-14.145288	-3.582826	1.364389	44.056499	-0.386910	0.589266	-43.412761	0.287006	17.159442	0.140586	-7.386303	-33.178767	14.399793	0.043437	1.268271	0.188018	-0.000000	-0.000000	0.000000
0.240000	-14.041448	-3.762678	1.544007	43.889328	-0.361680	0.629839	-43.476786	0.100121	17.458442	-0.100146	-7.282659	-34.105002	12.612224	0.048421	1.271433	0.188896	-0.000000	-0.000000	0.000000
0.250000	-13.981637	-3.929552	1.798449	43.754790	-0.384326	0.694630	-43.600228	-0.130263	18.059693	-0.298337	-7.150678	-35.401368	10.557930	0.053390	1.274579	0.189835	-0.000000	-0.000000	0.000000
0.260000	-13.967870	-4.092764	2.124261	43.657406	-0.443995	0.785515	-43.776161	-0.395240	18.976472	-0.458832	-7.003048	-37.075109	8.285541	0.058298	1.277573	0.190824	-0.000000	-0.000000	0.000000
0.270000	-13.985653	-4.263342	2.504763	43.590434	-0.519542	0.909899	-44.005722	-0.682558	20.187395	-0.592208	-6.854072	-39.109182	5.889852	0.063096	1.280253	0.191847	-0.000000	-0.000000	0.000000
0.280000	-14.007312	-4.452260	2.916459	43.537748	-0.585262	1.073621	-44.296665	-0.977936	21.640453	-0.712676	-6.713961	-41.461546	3.518772	0.067738	1.282447	0.192893	-0.000000	-0.000000	0.000000
0.290000	-14.012497	-4.667013	3.337089	43.491841	-0.619811	1.267309	-44.660233	-1.261051	23.276699	-0.832670	-6.591855	-44.065621	1.371418	0.072196	1.283980	0.193953	-0.000000	-0.000000	0.000000
0.300000	-13.996679	-4.907212	3.748492	43.458713	-0.611163	1.466149	-45.105125	-1.508394	25.040862	-0.958004	-6.495943	-46.829541	-0.326802	0.076468	1.284705	0.195030	-0.000000	-0.000000	0.000000
0.310000	-13.963813	-5.162038	4.137727	43.447238	-0.558891	1.642262	-45.631808	-1.701461	26.876220	-1.084116	-6.428824	-49.635417	-1.375233	0.080572	1.284519	0.196137	-0.000000	-0.000000	0.000000
0.320000	-13.927588	-5.410190	4.498868	43.470258	-0.477917	1.772853	-46.232526	-1.829255	28.730032	-1.191446	-6.389213	-52.339904	-1.661593	0.084536	1.283375	0.197289	-0.000000	-0.000000	0.000000
0.330000	-13.912979	-5.624463	4.832530	43.547464	-0.397074	1.843787	-46.893829	-1.885324	30.558843	-1.247253	-6.377634	-54.776120	-1.210321	0.088400	1.281275	0.198490	-0.000000	-0.000000	0.000000
0.340000	-13.944106	-5.781142	5.141611	43.693884	-0.347620	1.853218	-47.597498	-1.865258	32.318001	-1.218543	-6.397841	-56.758790	-0.191309	0.092206	1.278257	0.199723	-0.000000	-0.000000	0.000000
0.350000	-14.037656	-5.868580	5.423465	43.915006	-0.348399	1.810363	-48.322720	-1.766810	33.956543	-1.087883	-6.457388	-58.095682	1.116682	0.096002	1.274377	0.200948	-0.000000	-0.000000	0.000000
0.360000	-14.205904	-5.889413	5.662525	44.212942	-0.396104	1.730636	-49.050917	-1.592796	35.422983	-0.862686	-6.568822	-58.606537	2.398372	0.099852	1.269683	0.202108	-0.000000	-0.000000	0.000000
0.370000	-14.450078	-5.857213	5.830771	44.581786	-0.464626	1.630276	-49.770254	-1.352593	36.663242	-0.574710	-6.743974	-58.147146	3.378797	0.103837	1.264199	0.203142	-0.000000	-0.000000	0.000000
0.380000	-14.746662	-5.793685	5.897492	44.993729	-0.512231	1.517272	-50.477608	-1.058374	37.613486	-0.272064	-6.980298	-56.634682	3.868528	0.108034	1.257913	0.203993	-0.000000	-0.000000	0.000000
0.390000	-15.044918	-5.729086	5.840087	45.396194	-0.490681	1.385576	-51.178614	-0.720035	38.204284	-0.009863	-7.252766	-54.067848	3.776409	0.112499	1.250775	0.204612	-0.000000	-0.000000	0.000000
0.400000	-15.284731	-5.701006	5.647038	45.731178	-0.352978	1.221842	-51.887896	-0.343830	38.381897	0.157385	-7.523483	-50.535325	3.102753	0.117268	1.242704	0.204960	-0.000000	-0.000000	0.000000
0.410000	-15.423345	-5.749218	5.314238	45.964365	-0.060022	1.013424	-52.628889	0.067693	38.134272	0.181600	-7.759154	-46.209611	1.906268	0.122357	1.233606	0.205015	-0.000000	-0.000000	0.000000
0.420000	-15.447025	-5.910097	4.841407	46.097027	0.415668	0.747564	-53.429952	0.515926	37.498446	0.023282	-7.939527	-41.328888	0.253363	0.127764	1.223390	0.204776	-0.000000	-0.000000	0.000000
0.430000	-15.367817	-6.210953	4.231067	46.161414	1.087556	0.410134	-54.318629	1.003910	36.550999	-0.347291	-8.057653	-36.172773	-1.811351	0.133459	1.211989	0.204270	-0.000000	-0.000000	0.000000
0.440000	-15.217787	-6.662279	3.490730	46.213798	1.948394	-0.009929	-55.318512	1.532415	35.395586	-0.943677	-8.116260	-31.037344	-4.248868	0.139388	1.199371	0.203546	-1.431750	1.875807	2.067693
0.450000	-15.038150	-7.251763	2.637603	46.321769	2.962404	-0.515116	-56.447963	2.098618	34.145597	-1.755296	-8.118341	-26.210298	-6.980793	0.145469	1.185535	0.202675	-0.704805	2.461892	1.823758
0.460000	-14.867521	-7.945319	1.701423	46.549409	4.064612	-1.100681	-57.717780	2.700426	32.906191	-2.745406	-8.056833	-21.944671	-9.854852	0.151595	1.170508	0.201729	0.049248	3.214617	1.825272
0.470000	-14.737732	-8.691604	0.721585	46.949585	5.167340	-1.760500	-59.127579	3.342459	31.763637	-3.853387	-7.911888	-18.432469	-12.641783	0.157656	1.154337	0.200776	0.986971	4.003128	1.806855
0.480000	-14.674125	-9.424916	-0.258674	47.561030	6.168818	-2.487658	-60.662328	4.038888	30.780899	-4.996737	-7.657908	-15.786554	-15.059278	0.163556	1.137101	0.199862	1.921342	4.783529	1.846099
0.490000	-14.695046	-10.068043	-1.194208	48.405780	6.961036	-3.269604	-62.290594	4.811703	29.999311	-6.072562	-7.276552	-14.041037	-16.810582	0.169227	1.118921	0.199022	2.807007	5.474607	1.938606
0.500000	-14.810746	-10.535896	-2.036126	49.488083	7.436477	-4.080671	-63.965619	5.681721	29.447360	-6.960026	-6.770775	-13.170939	-17.626597	0.174626	1.099974	0.198285	3.596613	5.986677	2.074997
0.510000	-15.023916	-10.741838	-2.732015	50.796702	7.497569	-4.874105	-65.629244	6.655130	29.154423	-7.528421	-6.173790	-13.122436	-17.309741	0.179726	1.080502	0.197685	4.241398	6.227664	2.244188
0.520000	-15.330744	-10.611729	-3.231291	52.308288	7.074125	-5.582020	-67.217247	7.712112	29.162822	-7.656311	-5.546818	-13.842444	-15.776432	0.184500	1.060800	0.197268	4.696959	6.116434	2.433962
0.530000	-15.722102	-10.103471	-3.496386	53.991057	6.146883	-6.128316	-68.665237	8.801524	29.532478	-7.259638	-4.964523	-15.298198	-13.089380	0.188910	1.041193	0.197081	4.933275	5.601763	2.629599
0.540000	-16.186428	-9.224802	-3.517740	55.810077	4.768984	-6.449887	-69.914596	9.844553	30.336721	-6.322031	-4.493386	-17.482009	-9.468989	0.192911	1.021991	0.197160	4.945038	4.680621	2.814689
0.550000	-16.711621	-8.042666	-3.326640	57.730232	3.075575	-6.514780	-70.917341	10.747870	31.645812	-4.918131	-4.172942	-20.398727	-5.269813	0.196461	1.003465	0.197517	4.757278	3.409535	2.973713
0.560000	-17.280911	-6.677740	-2.997667	59.711281	1.271671	-6.325231	-71.640281	11.425210	33.495788	-3.216505	-4.008243	-24.035707	-0.918803	0.199538	0.985832	0.198131	4.422490	1.902121	3.091509
0.570000	-17.862136	-5.282041	-2.634679	61.695431	-0.405297	-5.910680	-72.069411	11.819455	35.849250	-1.452496	-3.974024	-28.322556	3.171379	0.202147	0.969266	0.198955	4.007751	0.309253	3.146640
0.580000	-18.398514	-4.004249	-2.344222	63.596617	-1.739713	-5.326742	-72.214598	11.913761	38.566352	0.126365	-4.025772	-33.098125	6.691324	0.204328	0.953927	0.199927	3.576795	-1.214983	3.103669
0.590000	-18.814390	-2.955904	-2.205822	65.306887	-2.591371	-4.656675	-72.113781	11.732651	41.411455	1.325091	-4.113717	-38.107389	9.495959	0.206158	0.939972	0.200991	3.173841	-2.548989	2.916952
0.600000	-19.042565	-2.192541	-2.247124	66.729349	-2.929956	-3.998402	-71.834867	11.335860	44.108936	2.051718	-4.198009	-43.039312	11.610211	0.207756	0.927548	0.202110	2.812434	-3.625804	2.554496
0.610000	-19.058846	-1.711611	-2.435669	67.823485	-2.835344	-3.435718	-71.472641	10.798500	46.424640	2.333539	-4.260800	-47.590772	13.175298	0.209287	0.916762	0.203266	2.475103	-4.436828	2.029747
0.620000	-18.896077	-1.463072	-2.695741	68.627692	-2.461290	-3.014245	-71.138148	10.186756	48.223732	2.292445	-4.306498	-51.525879	14.368055	0.210949	0.907650	0.204457	2.126622	-5.019157	1.413578
0.630000	-18.623470	-1.370405	-2.942525	69.236505	-1.979479	-2.739681	-70.940934	9.550747	49.474020	2.091991	-4.347677	-54.708745	15.340291	0.212938	0.900167	0.205688	1.733402	-5.431174	0.810621
0.640000	-18.306916	-1.355320	-3.117402	69.749239	-1.527063	-2.591037	-70.968234	8.931783	50.207781	1.880296	-4.388363	-57.105883	16.195106	0.215406	0.894213	0.206953	1.281253	-5.728114	0.314595
0.650000	-17.985137	-1.357450	-3.208319	70.233075	-1.175666	-2.534738	-71.268250	8.368692	50.485161	1.750308	-4.416945	-58.767484	16.986578	0.218425	0.889675	0.208236	0.784646	-5.947608	-0.020854
0.660000	-17.676245	-1.345444	-3.245952	70.721489	-0.930362	-2.537364	-71.843887	7.899819	50.383283	1.727800	-4.408963	-59.798878	17.728703	0.221989	0.886457	0.209512	0.281212	-6.104890	-0.178121
0.670000	-17.393105	-1.316275	-3.282936	71.228696	-0.752187	-2.576024	-72.658045	7.554699	49.993081	1.784233	-4.336251	-60.327801	18.403794	0.226033	0.884501	0.210748	-0.183552	-6.197188	-0.158229
0.680000	-17.146229	-1.284450	-3.371104	71.757106	-0.588496	-2.643069	-73.647461	7.338041	49.403968	1.862160	-4.178888	-60.472392	18.968647	0.230442	0.883797	0.211921	-0.570964	-6.215013	0.027671
0.690000	-16.937753	-1.271888	-3.545973	72.296474	-0.396251	-2.745584	-74.739703	7.227781	48.682476	1.898019	-3.933329	-60.318123	19.367850	0.235082	0.884365	0.213013	-0.857920	-6.150123	0.358237
0.700000	-16.758230	-1.301891	-3.822159	72.824086	-0.151415	-2.900295	-75.867961	7.191269	47.858725	1.835612	-3.614318	-59.907343	19.554080	0.239824	0.886250	0.214019	-1.038212	-5.997506	0.802458
0.710000	-16.588390	-1.393195	-4.197415	73.308963	0.152063	-3.123981	-76.980865	7.201291	46.924074	1.633520	-3.252775	-59.239669	19.502772	0.244574	0.889496	0.214942	-1.118550	-5.756893	1.322946
0.720000	-16.403105	-1.555723	-4.659138	73.717612	0.507319	-3.423352	-78.047158	7.242339	45.838015	1.269105	-2.889129	-58.281317	19.214287	0.249284	0.894137	0.215796	-1.114034	-5.433815	1.880320
0.730000	-16.177843	-1.790579	-5.190297	74.021117	0.900747	-3.789700	-79.055433	7.306432	44.543212	0.738154	-2.563360	-56.980062	18.704175	0.253957	0.900179	0.216600	-1.044454	-5.038100	2.439384
0.740000	-15.897106	-2.093726	-5.774810	74.203216	1.318424	-4.201532	-80.009656	7.382050	42.985188	0.049897	-2.308063	-55.281002	17.987736	0.258631	0.907587	0.217373	-0.929941	-4.579697	2.976253
0.750000	-15.561306	-2.461663	-6.399960	74.265970	1.749841	-4.634606	-80.923365	7.450932	41.129839	-0.779050	-2.147797	-53.139680	17.071865	0.263368	0.916292	0.218127	-0.787435	-4.062730	3.482666
0.760000	-15.190049	-2.896548	-7.054236	74.231312	2.187178	-5.073445	-81.815075	7.497569	38.974741	-1.728782	-2.102108	-50.530166	15.955860	0.268234	0.926188	0.218859	-0.630132	-3.480075	3.966347
0.770000	-14.819542	-3.408566	-7.724143	74.136961	2.623529	-5.516525	-82.704675	7.514944	36.551528	-2.779465	-2.186065	-47.447562	14.626044	0.273286	0.937148	0.219556	-0.468008	-2.811316	4.446700
0.780000	-14.491874	-4.014410	-8.392137	74.025126	3.051170	-5.973251	-83.611151	7.500629	33.918467	-3.913561	-2.405200	-43.909645	13.042304	0.278553	0.949031	0.220195	-0.308930	-2.026501	4.944596
0.790000	-14.243330	-4.731670	-9.034324	73.932037	3.457645	-6.457717	-84.553102	7.453787	31.152836	-5.114280	-2.751675	-39.963318	11.133435	0.284028	0.961687	0.220755	-0.162388	-1.095417	5.473402
0.800000	-14.097909	-5.571852	-9.620048	73.883139	3.823193	-6.983227	-85.549437	7.375499	28.347896	-6.362344	-3.203191	-35.693845	8.809655	0.289668	0.974956	0.221224	-0.043248	0.001851	6.036220
0.810000	-14.063488	-6.534950	-10.117207	73.889666	4.125369	-7.555377	-86.617097	7.271096	25.608132	-7.635031	-3.723230	-31.230614	5.991898	0.295402	0.988669	0.221608	0.030250	1.266798	6.625282
0.820000	-14.133542	-7.603412	-10.502680	73.950738	4.349005	-8.162946	-87.767539	7.156757	23.043795	-8.904406	-4.270587	-26.744613	2.656306	0.301137	1.002650	0.221936	0.045478	2.675823	7.225542
0.830000	-14.292006	-8.737966	-10.771346	74.058193	4.494753	-8.778396	-89.002395	7.059146	20.761956	-10.133954	-4.804298	-22.434358	-1.126363	0.306775	1.016730	0.222264	0.005745	4.176942	7.819118
0.840000	-14.514248	-9.881697	-10.936325	74.195461	4.580354	-9.371492	-90.308407	7.000990	18.850740	-11.280102	-5.272821	-18.502422	-5.180992	0.312217	1.030758	0.222662	-0.065661	5.694476	8.383062
0.850000	-14.770003	-10.968384	-11.020997	74.338961	4.632716	-9.912247	-91.657129	6.993440	17.368492	-12.296967	-5.620050	-15.129660	-9.250849	0.317365	1.044613	0.223203	-0.129685	7.138742	8.888656
0.860000	-15.029828	-11.931889	-11.049018	74.464865	4.676592	-10.356670	-93.010972	7.043471	16.340878	-13.141075	-5.813580	-12.451914	-13.049823	0.322135	1.058197	0.223953	-0.141230	8.418554	9.306102
0.870000	-15.267640	-12.719653	-11.035578	74.551307	4.726352	-10.648207	-94.330542	7.157531	15.758964	-13.779869	-5.854095	-10.542263	-16.329341	0.326459	1.071426	0.224953	-0.062454	9.458555	9.607229
0.880000	-15.461622	-13.305735	-10.983942	74.577828	4.784239	-10.747697	-95.579904	7.336717	15.581263	-14.202251	-5.759717	-9.401091	-18.925013	0.330295	1.084204	0.226217	0.125280	10.216812	9.767873
0.890000	-15.596884	-13.696438	-10.890943	74.526238	4.847257	-10.660208	-96.728213	7.574695	15.740866	-14.424874	-5.555796	-8.954929	-20.768038	0.333624	1.096425	0.227725	0.418115	10.694607	9.772429
0.900000	-15.666341	-13.927563	-10.755354	74.380376	4.917152	-10.432507	-97.748438	7.860979	16.153883	-14.490386	-5.278414	-9.066264	-21.875205	0.336466	1.107971	0.229432	0.794341	10.934632	9.615983
0.910000	-15.670554	-14.053465	-10.581308	74.127678	5.004007	-10.127539	-98.616470	8.184430	16.731955	-14.456639	-4.975443	-9.555714	-22.329368	0.338869	1.118734	0.231281	1.221262	11.006906	9.304494
0.920000	-15.618945	-14.130722	-10.377058	73.765454	5.122394	-9.796162	-99.312390	8.533127	17.398390	-14.380935	-4.698254	-10.231475	-22.254991	0.340899	1.128629	0.233212	1.662460	10.986887	8.855534
0.930000	-15.528549	-14.204012	-10.151749	73.304838	5.284488	-9.462380	-99.822802	8.891896	18.098517	-14.306525	-4.491548	-10.917487	-21.792971	0.342633	1.137600	0.235175	2.084638	10.935479	8.296022
0.940000	-15.419435	-14.300188	-9.911926	72.768156	5.494090	-9.127815	-100.142601	9.242155	18.800622	-14.256802	-4.386054	-11.474337	-21.078319	0.344142	1.145615	0.237136	2.462000	10.889650	7.656920
0.950000	-15.310720	-14.430788	-9.660102	72.182667	5.744919	-8.786578	-100.275286	9.567586	19.491675	-14.238148	-4.394359	-11.810202	-20.227202	0.345494	1.152656	0.239074	2.777947	10.865512	6.969456
0.960000	-15.217614	-14.596615	-9.396510	71.574177	6.022943	-8.435429	-100.232988	9.863751	20.170367	-14.245264	-4.511023	-11.882213	-19.338283	0.346750	1.158709	0.240979	3.026244	10.866256	6.263409
0.970000	-15.149052	-14.788430	-9.122424	70.963371	6.308899	-8.076245	-100.037284	10.143010	20.840047	-14.262668	-4.717168	-11.691627	-18.496488	0.347963	1.163758	0.242853	3.211944	10.886436	5.565981
0.980000	-15.108042	-14.988091	-8.842056	70.366077	6.580487	-7.716067	-99.718475	10.427954	21.505665	-14.267107	-4.987569	-11.276509	-17.765616	0.349176	1.167789	0.244697	3.349183	10.914845	4.901466
0.990000	-15.094157	-15.175544	-8.561079	69.794624	6.815955	-7.365745	-99.311189	10.737115	22.174123	-14.236223	-5.297542	-10.702525	-17.175831	0.350421	1.170792	0.246515	3.454942	10.940422	4.290591
1.000000	-15.105302	-15.336053	-8.283603	69.258707	6.997998	-7.035185	-98.848755	11.072155	22.854070	-14.156924	-5.627232	-10.050992	-16.721331	0.351726	1.172772	0.248311	3.542783	10.956492	3.748286
1.010000	-15.138351	-15.462040	-8.011295	68.766364	7.116664	-6.727210	-98.359254	11.413773	23.553796	-14.027412	-5.962774	-9.405341	-16.372120	0.353109	1.173741	0.250094	3.621005	10.959733	3.281216
1.020000	-15.189380	-15.552811	-7.744666	68.323897	7.170973	-6.440049	-97.862916	11.728266	24.278492	-13.856073	-6.294578	-8.839487	-16.087886	0.354580	1.173719	0.251875	3.694355	10.948539	2.886404
1.030000	-15.254206	-15.614902	-7.484165	67.934795	7.168468	-6.177347	-97.370572	11.981773	25.029149	-13.659950	-6.613633	-8.410616	-15.827381	0.356136	1.172727	0.253665	3.765834	10.923634	2.552036
1.040000	-15.330125	-15.661309	-7.231953	67.599696	7.123922	-5.950979	-96.884086	12.155569	25.803657	-13.462631	-6.908985	-8.156354	-15.556720	0.357764	1.170787	0.255467	3.838449	10.888590	2.261206
1.050000	-15.417425	-15.707980	-6.995475	67.317444	7.058829	-5.774003	-96.399610	12.254824	26.596845	-13.291366	-7.168127	-8.094053	-15.255197	0.359446	1.167912	0.257273	3.917977	10.848085	1.996865
1.060000	-15.518431	-15.768455	-6.788705	67.085626	6.998778	-5.653787	-95.913163	12.306771	27.397880	-13.171676	-7.377361	-8.220313	-14.917955	0.361166	1.164104	0.259073	4.013589	10.804695	1.745199
1.070000	-15.634515	-15.849120	-6.627301	66.900299	6.965905	-5.590694	-95.426490	12.350103	28.188130	-13.119396	-7.519714	-8.512423	-14.559560	0.362918	1.159357	0.260850	4.133510	10.756442	1.496485
1.080000	-15.763717	-15.946631	-6.521984	66.756606	6.971041	-5.578036	-94.950552	12.421167	28.942426	-13.134572	-7.573397	-8.934216	-14.219390	0.364709	1.153650	0.262581	4.280196	10.696040	1.244664
1.090000	-15.901048	-16.049615	-6.475501	66.650763	7.011962	-5.604183	-94.504709	12.542016	29.633998	-13.202631	-7.515369	-9.446308	-13.956468	0.366555	1.146956	0.264249	4.449834	10.613293	0.987456
1.100000	-16.040522	-16.145368	-6.482573	66.581524	7.077503	-5.663088	-94.111575	12.713307	30.241063	-13.302878	-7.329719	-10.018135	-13.822094	0.368486	1.139246	0.265838	4.634747	10.501238	0.727131
1.110000	-16.177112	-16.225783	-6.532223	66.551015	7.153480	-5.760829	-93.791524	12.915758	30.751764	-13.417375	-7.015171	-10.636964	-13.829912	0.370531	1.130493	0.267337	4.827114	10.360514	0.470943
1.120000	-16.308760	-16.287269	-6.614136	66.566780	7.228638	-5.905160	-93.560469	13.120248	31.165889	-13.535145	-6.586749	-11.310130	-13.947274	0.372713	1.120672	0.268743	5.024200	10.197267	0.231142
1.130000	-16.438225	-16.326759	-6.725065	66.643549	7.298263	-6.093692	-93.429597	13.298848	31.494345	-13.651550	-6.072191	-12.061001	-14.095117	0.375045	1.109763	0.270066	5.231074	10.017053	0.024115
1.140000	-16.572800	-16.336862	-6.866564	66.801256	7.359776	-6.312788	-93.404794	13.433092	31.758360	-13.760837	-5.506001	-12.921748	-14.143428	0.377518	1.097761	0.271325	5.454199	9.818298	-0.132534
1.150000	-16.720995	-16.301027	-7.032738	67.058450	7.399979	-6.534988	-93.485446	13.522379	31.989312	-13.841945	-4.922934	-13.926159	-13.917803	0.380103	1.084701	0.272554	5.687203	9.586651	-0.224807
1.160000	-16.889494	-16.189381	-7.198662	67.425629	7.383512	-6.715059	-93.662324	13.586855	32.230098	-13.845020	-4.353800	-15.105655	-13.224741	0.382748	1.070670	0.273793	5.899976	9.291582	-0.245647
1.170000	-17.084612	-15.958237	-7.320817	67.904198	7.253871	-6.797983	-93.914670	13.657483	32.539096	-13.689523	-3.825238	-16.490918	-11.889240	0.385389	1.055829	0.275086	6.041091	8.888032	-0.193073
1.180000	-17.315737	-15.557548	-7.349334	68.489434	6.949068	-6.732348	-94.208006	13.761269	32.993384	-13.279049	-3.360773	-18.118335	-9.804282	0.387961	1.040401	0.276476	6.052872	8.326424	-0.066117
1.190000	-17.597878	-14.945246	-7.244157	69.174688	6.423851	-6.479636	-94.494878	13.911877	33.687444	-12.528072	-2.980664	-20.036937	-6.981580	0.390403	1.024660	0.277990	5.890387	7.568481	0.138429
1.200000	-17.952428	-14.102764	-6.989427	69.955125	5.670094	-6.025856	-94.719114	14.104842	34.724016	-11.391937	-2.700858	-22.308620	-3.574060	0.392660	1.008892	0.279638	5.537163	6.602285	0.427621
1.210000	-18.397420	-13.047724	-6.601546	70.820249	4.730724	-5.394312	-94.822205	14.315072	36.186629	-9.893118	-2.530791	-24.994262	0.149831	0.394687	0.993374	0.281402	5.014171	5.452465	0.804238
1.220000	-18.928895	-11.838625	-6.127178	71.736237	3.700206	-4.644367	-94.751712	14.500123	38.099605	-8.133383	-2.469317	-28.125144	3.870301	0.396436	0.978352	0.283246	4.377479	4.181500	1.250770
1.230000	-19.514348	-10.565612	-5.631621	72.640945	2.705351	-3.849847	-94.471398	14.613700	40.405771	-6.280039	-2.501478	-31.671505	7.291668	0.397877	0.964033	0.285122	3.702316	2.878082	1.725641
1.240000	-20.103721	-9.330096	-5.180358	73.458317	1.871435	-3.073264	-93.968986	14.623268	42.974509	-4.526316	-2.598460	-35.525093	10.202279	0.399009	0.950594	0.286986	3.060395	1.636552	2.176158
1.250000	-20.642238	-8.222857	-4.818622	74.114951	1.287410	-2.357941	-93.257257	14.518420	45.626080	-3.040330	-2.720597	-39.506470	12.502900	0.399868	0.938182	0.288805	2.501043	0.536822	2.551688
1.260000	-21.076862	-7.308137	-4.558105	74.548816	0.984605	-1.733521	-92.369835	14.312349	48.161512	-1.923546	-2.828625	-43.397388	14.204007	0.400515	0.926922	0.290559	2.043167	-0.368630	2.808838
1.270000	-21.363730	-6.616520	-4.377594	74.717446	0.936055	-1.217409	-91.355010	14.041592	50.399844	-1.195256	-2.901606	-46.987947	15.400749	0.401018	0.916906	0.292236	1.678788	-1.058587	2.917147
1.280000	-21.482282	-6.144406	-4.236531	74.612120	1.073384	-0.813281	-90.269330	13.756560	52.218041	-0.804740	-2.946227	-50.119741	16.234834	0.401446	0.908181	0.293828	1.384803	-1.540567	2.872179
1.290000	-21.444350	-5.858383	-4.095118	74.265147	1.313830	-0.515113	-89.170612	13.505825	53.571154	-0.661060	-2.991256	-52.707377	16.855741	0.401878	0.900737	0.295330	1.138721	-1.844936	2.704011
1.300000	-21.286467	-5.706325	-3.930791	73.737317	1.586731	-0.315273	-88.110126	13.326458	54.480337	-0.666523	-3.074401	-54.735358	17.393136	0.402396	0.894529	0.296739	0.930574	-2.014878	2.467892
1.310000	-21.053537	-5.632446	-3.742602	73.096015	1.847771	-0.209192	-87.125896	13.241605	55.005177	-0.739871	-3.226936	-56.240575	17.941853	0.403071	0.889490	0.298052	0.764095	-2.094155	2.224417
1.320000	-20.787181	-5.587721	-3.545354	72.401120	2.078476	-0.192093	-86.239795	13.260433	55.221049	-0.823640	-3.459570	-57.291240	18.553947	0.403946	0.885540	0.299268	0.650231	-2.119409	2.023853
1.330000	-20.521466	-5.532757	-3.360994	71.701644	2.277782	-0.251992	-85.458502	13.377820	55.206043	-0.881532	-3.754709	-57.967592	19.234808	0.405028	0.882597	0.300391	0.600506	-2.119143	1.899333
1.340000	-20.282255	-5.439067	-3.209364	71.036360	2.450864	-0.367605	-84.776218	13.574526	55.033590	-0.892932	-4.068592	-58.346489	19.944992	0.406283	0.880577	0.301434	0.620851	-2.114038	1.866326
1.350000	-20.087248	-5.291333	-3.099154	70.434296	2.598366	-0.513709	-84.178687	13.818974	54.767344	-0.847194	-4.344284	-58.491092	20.611591	0.407647	0.879405	0.302415	0.705306	-2.116569	1.925432
1.360000	-19.946109	-5.086562	-3.025481	69.915457	2.712437	-0.668152	-83.648378	14.069673	54.456597	-0.740107	-4.531019	-58.446172	21.149547	0.409038	0.879021	0.303350	0.835339	-2.133494	2.066636
1.370000	-19.858048	-4.830801	-2.975937	69.488321	2.782260	-0.813864	-83.168872	14.284023	54.129716	-0.574330	-4.601677	-58.239289	21.491929	0.410369	0.879380	0.304253	0.987106	-2.169251	2.270615
1.380000	-19.806829	-4.537222	-2.937631	69.143180	2.802032	-0.936641	-82.726873	14.434132	53.787481	-0.360331	-4.561613	-57.886260	21.618143	0.411561	0.880450	0.305133	1.139555	-2.225573	2.505880
1.390000	-19.764176	-4.224108	-2.898867	68.854541	2.772767	-1.026491	-82.312321	14.510232	53.409225	-0.113002	-4.442219	-57.396690	21.552106	0.412549	0.882203	0.305996	1.276403	-2.299219	2.733004
1.400000	-19.705718	-3.911512	-2.846042	68.597719	2.697510	-1.084271	-81.917219	14.505282	52.973912	0.154835	-4.281765	-56.776576	21.327232	0.413295	0.884595	0.306849	1.382441	-2.381076	2.920804
1.410000	-19.623727	-3.618193	-2.761354	68.362087	2.576928	-1.123377	-81.534417	14.405884	52.476004	0.436296	-4.109817	-56.029455	20.958809	0.413793	0.887560	0.307708	1.440815	-2.457171	3.059387
1.420000	-19.525587	-3.359035	-2.626974	68.149639	2.410745	-1.160747	-81.157903	14.202090	51.923475	0.728434	-3.945465	-55.157589	20.450307	0.414070	0.891008	0.308596	1.436953	-2.511912	3.158985
1.430000	-19.424104	-3.143608	-2.434254	67.965775	2.203646	-1.206674	-80.784006	13.899999	51.326437	1.026137	-3.803684	-54.163042	19.814902	0.414177	0.894832	0.309537	1.366786	-2.531795	3.240145
1.440000	-19.326787	-2.977065	-2.189729	67.808998	1.969340	-1.263211	-80.412194	13.525462	50.686207	1.317451	-3.700791	-53.048823	19.086417	0.414178	0.898924	0.310544	1.241000	-2.507070	3.321833
1.450000	-19.230467	-2.861670	-1.912902	67.666137	1.728650	-1.329004	-80.045238	13.119223	49.992317	1.584433	-3.652400	-51.820987	18.313058	0.414144	0.903182	0.311611	1.081156	-2.432061	3.413734
1.460000	-19.125078	-2.797026	-1.630047	67.517749	1.504666	-1.403753	-79.688559	12.725607	49.230446	1.807114	-3.665708	-50.491977	17.542935	0.414141	0.907529	0.312719	0.912421	-2.305668	3.517075
1.470000	-18.999663	-2.779301	-1.369667	67.346031	1.319434	-1.488891	-79.348256	12.380986	48.392012	1.966338	-3.736094	-49.083685	16.814491	0.414226	0.911909	0.313840	0.758832	-2.132033	3.627983
1.480000	-18.845802	-2.800726	-1.159108	67.139386	1.191725	-1.584529	-79.028377	12.106049	47.478805	2.045583	-3.848863	-47.627355	16.152462	0.414429	0.916292	0.314951	0.640610	-1.920547	3.739439
1.490000	-18.660041	-2.850894	-1.020090	66.894866	1.134314	-1.686051	-78.728893	11.902408	46.503906	2.032854	-3.982003	-46.158767	15.564481	0.414745	0.920656	0.316039	0.571304	-1.683965	3.843747
1.500000	-18.446214	-2.920121	-0.964252	66.619717	1.151521	-1.784074	-78.445866	11.754197	45.490265	1.922012	-4.110788	-44.710216	15.039793	0.415139	0.924982	0.317105	0.555586	-1.434482	3.936299
1.510000	-18.218119	-3.002079	-0.991258	66.333565	1.238433	-1.867437	-78.174504	11.632496	44.469318	1.713638	-4.213112	-43.303610	14.551943	0.415561	0.929239	0.318160	0.589449	-1.180550	4.020692
1.520000	-17.997619	-3.092485	-1.090204	66.066554	1.381894	-1.927361	-77.914185	11.505695	43.476404	1.416759	-4.275493	-41.948518	14.067949	0.415960	0.933385	0.319221	0.662969	-0.927807	4.109470
1.530000	-17.804089	-3.185490	-1.241582	65.847432	1.561306	-1.961644	-77.671463	11.356985	42.539137	1.051468	-4.299122	-40.644610	13.561896	0.416297	0.937366	0.320309	0.762784	-0.682661	4.215544
1.540000	-17.644374	-3.273456	-1.418091	65.689721	1.749384	-1.975804	-77.456877	11.190425	41.667414	0.648617	-4.297940	-39.385163	13.021490	0.416543	0.941134	0.321447	0.872258	-0.452782	4.343097
1.550000	-17.510292	-3.351197	-1.588144	65.585408	1.916956	-1.978455	-77.277920	11.024021	40.851535	0.242641	-4.290906	-38.159849	12.448807	0.416687	0.944659	0.322653	0.973022	-0.243289	4.485004
1.560000	-17.380085	-3.419678	-1.723648	65.505194	2.041198	-1.974391	-77.134506	10.888739	40.064128	-0.138803	-4.298778	-36.956548	11.863634	0.416724	0.947938	0.323939	1.050018	-0.053836	4.622971
1.570000	-17.227370	-3.484251	-1.807453	65.410256	2.110689	-1.962393	-77.018827	10.819053	39.270445	-0.480345	-4.338343	-35.762731	11.296809	0.416658	0.950987	0.325308	1.096133	0.118882	4.734505
1.580000	-17.037439	-3.548191	-1.837286	65.273878	2.124903	-1.938500	-76.918088	10.828218	38.447423	-0.777448	-4.411607	-34.567965	10.770947	0.416497	0.953830	0.326759	1.114277	0.274811	4.807740
1.590000	-16.815204	-3.609426	-1.825041	65.093201	2.092163	-1.899965	-76.818466	10.899193	37.594586	-1.033458	-4.505359	-33.367899	10.291520	0.416260	0.956491	0.328289	1.116806	0.408402	4.849185
1.600000	-16.579680	-3.664405	-1.790441	64.884070	2.027190	-1.847810	-76.708668	10.996055	36.730681	-1.258341	-4.601166	-32.167717	9.852806	0.415968	0.958983	0.329893	1.120770	0.513997	4.878942
1.610000	-16.351419	-3.713585	-1.751067	64.666592	1.945980	-1.787790	-76.582428	11.083909	35.881800	-1.466431	-4.685528	-30.982685	9.447575	0.415645	0.961312	0.331565	1.139940	0.592503	4.918917
1.620000	-16.139835	-3.763427	-1.715148	64.450002	1.860599	-1.728633	-76.439259	11.149172	35.067172	-1.672760	-4.756989	-29.834928	9.074811	0.415306	0.963478	0.333298	1.179147	0.653652	4.980314
1.630000	-15.942453	-3.823020	-1.682469	64.231288	1.778079	-1.678320	-76.283058	11.196287	34.295140	-1.889662	-4.824838	-28.747380	8.737884	0.414964	0.965480	0.335088	1.235552	0.711898	5.062421
1.640000	-15.752860	-3.898328	-1.649233	64.004088	1.701160	-1.641046	-76.119864	11.226911	33.567601	-2.124090	-4.900173	-27.736981	8.435798	0.414633	0.967321	0.336930	1.303156	0.779342	5.159867
1.650000	-15.560874	-3.990462	-1.609738	63.758235	1.628143	-1.616829	-75.955613	11.236893	32.877665	-2.377032	-4.989371	-26.809779	8.160323	0.414325	0.969008	0.338828	1.374662	0.862643	5.262400
1.660000	-15.353555	-4.097325	-1.556954	63.479442	1.553918	-1.603664	-75.793914	11.221158	32.210177	-2.644930	-5.093114	-25.960062	7.899492	0.414047	0.970553	0.340784	1.442577	0.963824	5.356143
1.670000	-15.127889	-4.214742	-1.484933	63.162056	1.472696	-1.599902	-75.634300	11.164980	31.555878	-2.921128	-5.207553	-25.172839	7.640190	0.413808	0.971970	0.342802	1.501657	1.081074	5.437083
1.680000	-14.895463	-4.338174	-1.389652	62.813768	1.379997	-1.603564	-75.472124	11.044101	30.917686	-3.197427	-5.326279	-24.426929	7.370124	0.413629	0.973274	0.344888	1.549680	1.210320	5.516533
1.690000	-14.670615	-4.464712	-1.267019	62.443925	1.272484	-1.608742	-75.300850	10.842345	30.300396	-3.465659	-5.442950	-23.698669	7.081336	0.413528	0.974484	0.347048	1.585478	1.347246	5.609326
1.700000	-14.460992	-4.592875	-1.111179	62.055397	1.146387	-1.603501	-75.114894	10.560413	29.703567	-3.718071	-5.553009	-22.967316	6.772477	0.413509	0.975620	0.349290	1.606685	1.487310	5.723198
1.710000	-14.268615	-4.721390	-0.915379	61.646753	0.997095	-1.571600	-74.910594	10.208957	29.124279	-3.947871	-5.653181	-22.219365	6.448552	0.413566	0.976701	0.351625	1.609743	1.624859	5.858129
1.720000	-14.093421	-4.849165	-0.673978	61.215134	0.820452	-1.497160	-74.685487	9.800300	28.560546	-4.150756	-5.739301	-21.449333	6.119528	0.413689	0.977742	0.354056	1.591915	1.753600	6.009127
1.730000	-13.933558	-4.976258	-0.382905	60.754962	0.613443	-1.370774	-74.437364	9.345492	28.011012	-4.326145	-5.804565	-20.658554	5.798097	0.413870	0.978751	0.356584	1.552854	1.868571	6.167855
1.740000	-13.783369	-5.104840	-0.038815	60.254793	0.374193	-1.194482	-74.163685	8.855384	27.472976	-4.477863	-5.839905	-19.854118	5.496831	0.414102	0.979726	0.359203	1.494815	1.968724	6.323548
1.750000	-13.632993	-5.239679	0.360998	59.697071	0.103108	-0.982387	-73.861416	8.343284	26.942068	-4.614670	-5.835853	-19.047629	5.225549	0.414383	0.980653	0.361907	1.422176	2.059135	6.465231
1.760000	-13.471016	-5.387608	0.817862	59.062497	-0.195339	-0.754645	-73.527695	7.827638	26.414358	-4.749754	-5.784035	-18.252949	4.989311	0.414710	0.981511	0.364691	1.340324	2.151291	6.584818
1.770000	-13.288097	-5.555505	1.332245	58.336467	-0.513312	-0.527508	-73.161268	7.331227	25.889281	-4.897376	-5.677676	-17.483768	4.787233	0.415082	0.982279	0.367551	1.253341	2.260154	6.678670
1.780000	-13.079886	-5.747307	1.906045	57.514572	-0.843695	-0.306006	-72.763806	6.874543	25.372098	-5.066976	-5.512187	-16.751952	4.612102	0.415491	0.982938	0.370485	1.161239	2.398495	6.747456
1.790000	-12.848019	-5.961559	2.543672	56.604227	-1.184070	-0.083734	-72.339342	6.465772	24.873633	-5.258707	-5.287575	-16.065813	4.451640	0.415926	0.983475	0.373494	1.059585	2.571219	6.795293
1.800000	-12.598599	-6.190896	3.249739	55.621356	-1.536745	0.148174	-71.891166	6.087846	24.406676	-5.463820	-5.013161	-15.428776	4.293127	0.416370	0.983889	0.376578	0.942531	2.772683	6.828727
1.810000	-12.340016	-6.424023	4.024601	54.584680	-1.904390	0.392848	-71.418207	5.698271	23.982455	-5.669318	-4.710469	-14.840019	4.127367	0.416805	0.984186	0.379741	0.807025	2.988497	6.856873
1.820000	-12.080806	-6.648861	4.861073	53.509582	-2.285351	0.651113	-70.913390	5.251018	23.608418	-5.863325	-4.409716	-14.296653	3.949012	0.417219	0.984375	0.382989	0.655423	3.200220	6.891550
1.830000	-11.826712	-6.854016	5.745344	52.402273	-2.674017	0.924945	-70.363227	4.708568	23.286035	-6.036906	-4.142416	-13.796212	3.758714	0.417603	0.984461	0.386327	0.494944	3.389213	6.944509
1.840000	-11.579633	-7.028144	6.661145	51.258279	-3.065468	1.215341	-69.748822	4.039460	23.010961	-6.181925	-3.935155	-13.338246	3.564197	0.417957	0.984447	0.389756	0.335276	3.538104	7.023877
1.850000	-11.340682	-7.159392	7.593499	50.067732	-3.459651	1.524451	-69.049778	3.229805	22.776891	-6.288534	-3.805768	-12.923406	3.373036	0.418283	0.984329	0.393270	0.186810	3.631148	7.133834
1.860000	-11.113158	-7.236752	8.530843	48.821709	-3.861946	1.858101	-68.248405	2.295569	22.578660	-6.345731	-3.761310	-12.550661	3.185297	0.418592	0.984106	0.396859	0.059595	3.655325	7.275941
1.870000	-10.901699	-7.254169	9.466118	47.514177	-4.278949	2.221925	-67.331114	1.274775	22.412020	-6.346289	-3.797039	-12.215595	2.994925	0.418894	0.983778	0.400507	-0.038407	3.603847	7.449632
1.880000	-10.709478	-7.215208	10.397147	46.140866	-4.711942	2.615919	-66.287759	0.211397	22.273002	-6.292713	-3.896132	-11.911787	2.796169	0.419207	0.983348	0.404203	-0.104108	3.480490	7.652551
1.890000	-10.536975	-7.132994	11.326465	44.699486	-5.154156	3.032891	-65.112279	-0.855642	22.159259	-6.197459	-4.030854	-11.634515	2.588489	0.419543	0.982824	0.407940	-0.141654	3.299641	7.881572
1.900000	-10.383693	-7.023378	12.259963	43.192709	-5.595540	3.461630	-63.805446	-1.896747	22.072455	-6.074780	-4.166425	-11.383882	2.377249	0.419907	0.982204	0.411721	-0.161694	3.079489	8.134227
1.910000	-10.250642	-6.896887	13.203348	41.631357	-6.029986	3.891654	-62.377646	-2.892229	22.018900	-5.931726	-4.267553	-11.165313	2.171453	0.420290	0.981481	0.415555	-0.176107	2.833476	8.409201
1.920000	-10.140359	-6.756447	14.157078	40.033827	-6.456691	4.315597	-60.848719	-3.831167	22.006734	-5.767461	-4.305688	-10.987476	1.981453	0.420668	0.980643	0.419453	-0.190435	2.567087	8.704780
1.930000	-10.054975	-6.600509	15.112967	38.421906	-6.875855	4.728215	-59.244122	-4.707464	22.041545	-5.579073	-4.264339	-10.858668	1.817764	0.421010	0.979681	0.423422	-0.198722	2.279994	9.016482
1.940000	-9.994783	-6.426721	16.055886	36.815795	-7.285183	5.123474	-57.589295	-5.514621	22.123835	-5.366204	-4.140415	-10.783414	1.690178	0.421284	0.978596	0.427475	-0.184644	1.969032	9.335732
1.950000	-9.958479	-6.233625	16.970874	35.230766	-7.680867	5.491456	-55.904530	-6.245096	22.250176	-5.131115	-3.941677	-10.760875	1.605520	0.421470	0.977400	0.431632	-0.128778	1.629839	9.650391
1.960000	-9.944639	-6.021424	17.851617	33.675974	-8.060396	5.816763	-54.201510	-6.895087	22.416992	-4.876715	-3.682275	-10.785499	1.563974	0.421556	0.976111	0.435925	-0.017896	1.258191	9.947242
1.970000	-9.953062	-5.793387	18.704637	32.155024	-8.422331	6.079790	-52.482433	-7.468989	22.624340	-4.606612	-3.378780	-10.849389	1.557163	0.421542	0.974752	0.440404	0.149580	0.852531	10.215650
1.980000	-9.984740	-5.555704	19.546821	30.667468	-8.764889	6.261547	-50.742690	-7.979312	22.876306	-4.325419	-3.048082	-10.944841	1.570035	0.421433	0.973340	0.445119	0.365065	0.415362	10.450132
1.990000	-10.040443	-5.314353	20.398216	29.210486	-9.086668	6.350962	-48.975962	-8.442688	23.177176	-4.036788	-2.707326	-11.065205	1.585450	0.421235	0.971880	0.450116	0.616879	-0.048325	10.650071
2.000000	-10.118717	-5.073135	21.273549	27.780151	-9.385901	6.351195	-47.178403	-8.873102	23.526526	-3.743165	-2.375017	-11.204001	1.589622	0.420946	0.970367	0.455415	0.898345	-0.532156	10.817453
2.010000	-10.214505	-4.834578	22.176776	26.371950	-9.657543	6.280821	-45.350306	-9.272289	23.916799	-3.448172	-2.071094	-11.353695	1.575755	0.420560	0.968789	0.461006	1.211328	-1.027836	10.954051
2.020000	-10.319740	-4.600713	23.101670	24.981109	-9.892846	6.168462	-43.496659	-9.619238	24.334752	-3.157200	-1.813686	-11.505667	1.543032	0.420067	0.967134	0.466859	1.562316	-1.525925	11.059072
2.030000	-10.426482	-4.372781	24.036769	23.604480	-10.082250	6.043385	-41.627864	-9.864692	24.766268	-2.875577	-1.612655	-11.651296	1.491157	0.419459	0.965394	0.472933	1.953979	-2.018546	11.128909
2.040000	-10.531856	-4.151279	24.970515	22.245319	-10.219213	5.926101	-39.761152	-9.936169	25.202764	-2.606321	-1.462899	-11.783029	1.415261	0.418729	0.963568	0.479196	2.378585	-2.502214	11.160145
2.050000	-10.641782	-3.936712	25.894349	20.918690	-10.302979	5.822835	-37.922173	-9.753816	25.645907	-2.348685	-1.343331	-11.895242	1.306548	0.417875	0.961657	0.485632	2.817575	-2.979226	11.153745
2.060000	-10.770203	-3.730894	26.803421	19.652637	-10.338227	5.726191	-36.144682	-9.249816	26.107121	-2.099082	-1.224915	-11.984132	1.157738	0.416901	0.959664	0.492245	3.247762	-3.456153	11.116902
2.070000	-10.934305	-3.539629	27.696383	18.483855	-10.330992	5.617975	-34.466153	-8.381032	26.602627	-1.854915	-1.079267	-12.045155	0.968185	0.415817	0.957601	0.499048	3.649946	-3.938682	11.062572
2.080000	-11.146907	-3.374222	28.574849	17.448061	-10.283791	5.473481	-32.919390	-7.135998	27.145384	-1.618468	-0.884708	-12.069747	0.744733	0.414633	0.955490	0.506050	4.015437	-4.425546	11.005795
2.090000	-11.406962	-3.247611	29.442214	16.565928	-10.193813	5.272112	-31.523075	-5.544011	27.734641	-1.397487	-0.636407	-12.044997	0.497392	0.413356	0.953364	0.513247	4.348178	-4.905663	10.954874
2.100000	-11.694801	-3.168865	30.303229	15.833664	-10.053932	5.008228	-30.276524	-3.682253	28.351231	-1.203486	-0.350726	-11.956934	0.234737	0.411975	0.951261	0.520624	4.660308	-5.359090	10.904639
2.110000	-11.977750	-3.141339	31.163505	15.227155	-9.855020	4.692538	-29.162642	-1.670424	28.964030	-1.050051	-0.054629	-11.794426	-0.035819	0.410468	0.949222	0.528156	4.964719	-5.761425	10.839175
2.120000	-12.222380	-3.163876	32.026510	14.716227	-9.589630	4.344840	-28.156912	0.349685	29.541748	-0.951230	0.226952	-11.550784	-0.303463	0.408809	0.947284	0.535813	5.271245	-6.090801	10.740664
2.130000	-12.405397	-3.234122	32.891143	14.278697	-9.254920	3.983272	-27.236784	2.243679	30.062975	-0.919960	0.476242	-11.222947	-0.548832	0.406981	0.945476	0.543560	5.585898	-6.333019	10.597818
2.140000	-12.516528	-3.351290	33.754015	13.904164	-8.853203	3.616431	-26.386561	3.910407	30.518701	-0.965932	0.685000	-10.809817	-0.744450	0.404985	0.943819	0.551353	5.909039	-6.481924	10.408398
2.150000	-12.552637	-3.514707	34.614046	13.585789	-8.390913	3.244144	-25.596490	5.294999	30.905912	-1.093118	0.857728	-10.312012	-0.861485	0.402839	0.942321	0.559147	6.233528	-6.536645	10.174178
2.160000	-12.511365	-3.720644	35.473530	13.311799	-7.876743	2.864306	-24.859205	6.392186	31.221542	-1.298979	1.008986	-9.734672	-0.874286	0.400568	0.940983	0.566897	6.546817	-6.498917	9.896160
2.170000	-12.391499	-3.961096	36.335779	13.066166	-7.320865	2.478198	-24.167006	7.238203	31.464224	-1.574565	1.151740	-9.091041	-0.761607	0.398201	0.939797	0.574566	6.836379	-6.373250	9.575947
2.180000	-12.197468	-4.224066	37.203687	12.834383	-6.736241	2.091268	-23.510505	7.885274	31.639154	-1.903857	1.287807	-8.403085	-0.512459	0.395764	0.938753	0.582131	7.094371	-6.169472	9.218859
2.190000	-11.941501	-4.495630	38.081475	12.607534	-6.138938	1.710726	-22.879178	8.379023	31.760547	-2.264406	1.410078	-7.700037	-0.131111	0.393286	0.937838	0.589576	7.318958	-5.903274	8.833967
2.200000	-11.641489	-4.764342	38.977964	12.383674	-5.544977	1.342043	-22.264591	8.762255	31.851637	-2.631166	1.512830	-7.017670	0.370094	0.390794	0.937043	0.596902	7.512389	-5.592542	8.432081
2.210000	-11.318824	-5.024957	39.907204	12.169389	-4.967650	0.986001	-21.663861	9.083738	31.943315	-2.980138	1.598389	-6.396811	0.981310	0.388314	0.936360	0.604115	7.679167	-5.254210	8.025231
2.220000	-10.998477	-5.278383	40.886524	11.980695	-4.419621	0.636741	-21.079829	9.387565	32.071181	-3.287460	1.674415	-5.879956	1.695131	0.385873	0.935795	0.611227	7.824244	-4.905253	7.627981
2.230000	-10.707677	-5.528169	41.934262	11.839259	-3.917027	0.283112	-20.518466	9.699648	32.269803	-3.526196	1.746006	-5.507895	2.499105	0.383494	0.935365	0.618242	7.950066	-4.565096	7.257275
2.240000	-10.471940	-5.776053	43.065696	11.765158	-3.480385	-0.085742	-19.985980	10.025048	32.564823	-3.666539	1.808088	-5.316499	3.368159	0.381196	0.935104	0.625161	8.055599	-4.256556	6.929635
2.250000	-10.311130	-6.019521	44.286630	11.770945	-3.130981	-0.473220	-19.486416	10.349593	32.966527	-3.681358	1.841383	-5.332675	4.260714	0.378990	0.935052	0.631979	8.139385	-4.004589	6.657635
2.260000	-10.237230	-6.252438	45.588070	11.858900	-2.885677	-0.870264	-19.019737	10.645240	33.467791	-3.553717	1.815049	-5.570756	5.124568	0.376875	0.935248	0.638683	8.203931	-3.832659	6.447159
2.270000	-10.252643	-6.467557	46.946255	12.020266	-2.752725	-1.255179	-18.580845	10.881137	34.046344	-3.282159	1.697537	-6.031761	5.913936	0.374840	0.935723	0.645247	8.257361	-3.756788	6.295386
2.280000	-10.347665	-6.659833	48.328677	12.235784	-2.727625	-1.599153	-18.159978	11.036833	34.670235	-2.883349	1.472027	-6.706827	6.609607	0.372856	0.936488	0.651635	8.311167	-3.778308	6.190268
2.290000	-10.499741	-6.829476	49.703380	12.479012	-2.790452	-1.876684	-17.744100	11.108861	35.305796	-2.390914	1.148098	-7.582914	7.226708	0.370877	0.937531	0.657812	8.375810	-3.879983	6.113656
2.300000	-10.678480	-6.982506	51.048186	12.722516	-2.910066	-2.076585	-17.318949	11.104709	35.925750	-1.846651	0.761687	-8.646645	7.799776	0.368853	0.938816	0.663752	8.455867	-4.030736	6.047588
2.310000	-10.855815	-7.128321	52.355104	12.945298	-3.055111	-2.206912	-16.872100	11.031844	36.514518	-1.287048	0.360299	-9.884211	8.355823	0.366740	0.940296	0.669447	8.547838	-4.197596	5.980582
2.320000	-11.016012	-7.277813	53.627280	13.139838	-3.203913	-2.293665	-16.396040	10.888712	37.070865	-0.734491	-0.020183	-11.279135	8.893379	0.364511	0.941919	0.674900	8.642264	-4.356907	5.912372
2.330000	-11.159469	-7.442781	54.871798	13.314238	-3.347304	-2.374574	-15.888806	10.661717	37.606590	-0.197751	-0.372575	-12.810523	9.379736	0.362168	0.943640	0.680124	8.727670	-4.498856	5.854926
2.340000	-11.299093	-7.632664	56.093441	13.485127	-3.487124	-2.485059	-15.352004	10.336487	38.138525	0.322883	-0.717116	-14.453493	9.770488	0.359737	0.945418	0.685140	8.793248	-4.626420	5.826755
2.350000	-11.453370	-7.849502	57.292053	13.666426	-3.634430	-2.642527	-14.788454	9.916037	38.678327	0.831462	-1.085218	-16.182171	10.035351	0.357262	0.947218	0.689972	8.829602	-4.751791	5.843919
2.360000	-11.639772	-8.087321	58.462758	13.863664	-3.805829	-2.842164	-14.201032	9.426419	39.228543	1.332623	-1.503092	-17.973818	10.168101	0.354786	0.949003	0.694647	8.829246	-4.890672	5.915105
2.370000	-11.869572	-8.336275	59.597006	14.075048	-4.017146	-3.065489	-13.592746	8.907907	39.784847	1.827036	-1.983637	-19.811657	10.180187	0.352339	0.950734	0.699185	8.788542	-5.055601	6.041895
2.380000	-12.144196	-8.585129	60.683985	14.292490	-4.277977	-3.290881	-12.967334	8.403639	40.336882	2.308513	-2.523800	-21.684655	10.092428	0.349926	0.952372	0.703601	8.710294	-5.251580	6.218611
2.390000	-12.454450	-8.821694	61.712761	14.501939	-4.589240	-3.501158	-12.329702	7.949879	40.867181	2.764480	-3.105988	-23.584016	9.930856	0.347532	0.953885	0.707898	8.604993	-5.475733	6.431728
2.400000	-12.784037	-9.036858	62.675703	14.688850	-4.943040	-3.691182	-11.686175	7.565792	41.355197	3.179124	-3.705660	-25.498543	9.722705	0.345133	0.955252	0.712065	8.488783	-5.719983	6.664810
2.410000	-13.113041	-9.226128	63.573104	14.840671	-5.324638	-3.868211	-11.043907	7.251593	41.779946	3.537565	-4.294799	-27.411495	9.494636	0.342710	0.956464	0.716085	8.378072	-5.974176	6.902164
2.420000	-13.419214	-9.385753	64.416486	14.942965	-5.716081	-4.042223	-10.408934	6.997157	42.117640	3.829559	-4.836774	-29.300022	9.275051	0.340255	0.957525	0.719939	8.283689	-6.228075	7.127119
2.430000	-13.682523	-9.517542	65.226655	14.986631	-6.098927	-4.222521	-9.784963	6.783864	42.350487	4.050208	-5.291189	-31.137563	9.090665	0.337768	0.958445	0.723619	8.208558	-6.472753	7.329405
2.440000	-13.890657	-9.639922	66.025610	14.983219	-6.453687	-4.423203	-9.174211	6.580594	42.482749	4.194995	-5.631037	-32.898231	8.957282	0.335265	0.959241	0.727114	8.151048	-6.700828	7.518463
2.450000	-14.037890	-9.785078	66.827787	14.963819	-6.758814	-4.662582	-8.578652	6.350243	42.539809	4.253593	-5.851209	-34.560798	8.877258	0.332765	0.959922	0.730414	8.110832	-6.905125	7.721235
2.460000	-14.119365	-9.981835	67.638854	14.959723	-6.994079	-4.956087	-8.000006	6.064293	42.550049	4.211348	-5.962581	-36.110875	8.845313	0.330282	0.960494	0.733522	8.089650	-7.077640	7.964446
2.470000	-14.128830	-10.242686	68.461806	14.986382	-7.147203	-5.312831	-7.439158	5.712707	42.530865	4.058324	-5.984307	-37.541179	8.854641	0.327813	0.960952	0.736451	8.086246	-7.210677	8.261118
2.480000	-14.061049	-10.560351	69.301682	15.038932	-7.218557	-5.733167	-6.895766	5.304896	42.484624	3.797292	-5.939169	-38.850142	8.900231	0.325341	0.961284	0.739224	8.093128	-7.299483	8.606679
2.490000	-13.914276	-10.908979	70.164540	15.093729	-7.220121	-6.202244	-6.367572	4.863583	42.398599	3.444512	-5.849302	-40.040151	8.981391	0.322837	0.961475	0.741866	8.099155	-7.343186	8.978908
2.500000	-13.692440	-11.253248	71.053620	15.118115	-7.170088	-6.688192	-5.849711	4.415036	42.252696	3.024723	-5.735556	-41.116017	9.101713	0.320273	0.961517	0.744406	8.094600	-7.343761	9.345190
2.510000	-13.406786	-11.561473	71.967655	15.083524	-7.087817	-7.148974	-5.334572	3.981396	42.030863	2.565460	-5.617652	-42.082090	9.263666	0.317633	0.961408	0.746861	8.074061	-7.305045	9.674073
2.520000	-13.074326	-11.812632	72.902369	14.971516	-6.990693	-7.542228	-4.812407	3.578464	41.725587	2.092244	-5.509381	-42.938205	9.462199	0.314914	0.961163	0.749238	8.036416	-7.231911	9.941907
2.530000	-12.713932	-11.998517	73.852313	14.775251	-6.891568	-7.835271	-4.272903	3.216237	41.337353	1.623445	-5.413448	-43.676526	9.684492	0.312132	0.960806	0.751535	7.984195	-7.129506	10.136533
2.540000	-12.342549	-12.125083	74.811339	14.501683	-6.796740	-8.013935	-3.708177	2.898400	40.874287	1.165818	-5.322311	-44.280768	9.916054	0.309309	0.960374	0.753741	7.923321	-7.003048	10.261519
2.550000	-11.972965	-12.211458	75.771494	14.173327	-6.705711	-8.086792	-3.117380	2.620708	40.351440	0.712896	-5.225379	-44.728215	10.146793	0.306476	0.959907	0.755843	7.863401	-6.858496	10.337444
2.560000	-11.613763	-12.283135	76.721521	13.823914	-6.614545	-8.081340	-2.510074	2.371425	39.786007	0.248607	-5.116998	-44.993681	10.372606	0.303660	0.959440	0.757828	7.817570	-6.704142	10.395077
2.570000	-11.271128	-12.360650	77.648540	13.486406	-6.522599	-8.034599	-1.905220	2.136601	39.188827	-0.243181	-4.998958	-45.053612	10.591695	0.300879	0.959001	0.759693	7.798711	-6.552314	10.461626
2.580000	-10.950779	-12.453449	78.541913	13.184294	-6.437093	-7.986609	-1.327185	1.908343	38.561327	-0.769485	-4.878733	-44.890078	10.798293	0.298142	0.958607	0.761439	7.813528	-6.418986	10.551314
2.590000	-10.657188	-12.561418	79.394695	12.930813	-6.370539	-7.973473	-0.801211	1.691805	37.899653	-1.326960	-4.765397	-44.495456	10.980138	0.295440	0.958267	0.763065	7.860135	-6.319759	10.664860
2.600000	-10.390008	-12.678979	80.203525	12.730831	-6.333745	-8.017725	-0.349011	1.507085	37.200354	-1.906972	-4.662336	-43.876710	11.120914	0.292748	0.957983	0.764571	7.929317	-6.263952	10.793995
2.610000	-10.141516	-12.805552	80.970963	12.589723	-6.329778	-8.133184	0.014052	1.382324	36.472368	-2.500605	-4.562209	-43.057836	11.201635	0.290019	0.957751	0.765945	8.005701	-6.251120	10.934166
2.620000	-9.897533	-12.954249	81.709308	12.521633	-6.353071	-8.334304	0.279549	1.341123	35.746467	-3.099808	-4.448185	-42.078542	11.200473	0.287191	0.957560	0.767174	8.069056	-6.272723	11.095383
2.630000	-9.641626	-13.143081	82.441195	12.540582	-6.395149	-8.625564	0.445805	1.392888	35.063874	-3.694769	-4.299412	-40.987262	11.095540	0.284194	0.957392	0.768252	8.098266	-6.317438	11.294009
2.640000	-9.361083	-13.378298	83.194850	12.644507	-6.452327	-8.988837	0.517503	1.529362	34.453350	-4.271046	-4.100870	-39.829292	10.871198	0.280965	0.957222	0.769193	8.077376	-6.376393	11.535184
2.650000	-9.051273	-13.646592	83.995398	12.809709	-6.528424	-9.389444	0.504246	1.726540	33.915895	-4.810973	-3.854555	-38.634437	10.525123	0.277460	0.957024	0.770034	8.001023	-6.444829	11.803715
2.660000	-8.716051	-13.918720	84.855407	12.997286	-6.631116	-9.790386	0.418469	1.950609	33.423677	-5.299618	-3.583484	-37.410800	10.073263	0.273668	0.956774	0.770813	7.876882	-6.519521	12.067191
2.670000	-8.365575	-14.159238	85.767231	13.164772	-6.765746	-10.157050	0.274391	2.165988	32.931616	-5.731050	-3.325940	-36.150704	9.555048	0.269631	0.956464	0.771558	7.724728	-6.595037	12.286421
2.680000	-8.013447	-14.337826	86.698003	13.278494	-6.929056	-10.450666	0.088307	2.343316	32.398600	-6.111721	-3.125625	-34.850522	9.039951	0.265454	0.956102	0.772276	7.573234	-6.661374	12.428462
2.690000	-7.674021	-14.439544	87.586295	13.324767	-7.103193	-10.617223	-0.120413	2.465434	31.812873	-6.460769	-3.024094	-33.539446	8.633558	0.261337	0.955723	0.772950	7.456200	-6.703114	12.479011
2.700000	-7.361925	-14.466592	88.337166	13.312197	-7.252138	-10.559877	-0.327566	2.531811	31.206818	-6.807683	-3.059753	-32.306449	8.491508	0.257602	0.955378	0.773545	7.411776	-6.700326	12.445889
2.710000	-7.095024	-14.429155	88.815007	13.262026	-7.322748	-10.087092	-0.503031	2.562816	30.651902	-7.188537	-3.274985	-31.314545	8.847914	0.254715	0.955140	0.774023	7.486775	-6.631424	12.350194
2.720000	-6.814285	-14.321963	89.029040	13.174606	-7.288594	-8.852567	-0.673615	2.589307	30.054071	-7.739242	-3.774377	-30.440595	10.036170	0.252282	0.955001	0.774490	7.746283	-6.458971	12.180536
2.730000	-6.308930	-14.089396	89.225812	12.995017	-7.160802	-6.143964	-0.981086	2.629301	28.959500	-8.816944	-4.859298	-28.985832	12.717753	0.248297	0.954826	0.775311	8.330720	-6.082656	11.843559
