LWalking1_XZ.mot
version=1
datacolumns 20
datarows 380
range 0.00000 3.79000
inDegrees=yes
endheader
time	pelvis_tilt	pelvis_list	pelvis_rotation	hip_flexion_r	hip_adduction_r	hip_rotation_r	knee_angle_r	ankle_angle_r	hip_flexion_l	hip_adduction_l	hip_rotation_l	knee_angle_l	ankle_angle_l	pelvis_tx	pelvis_ty	pelvis_tz	lumbar_bending	lumbar_rotation	lumbar_extension
0.000000	13.724145	-2.897747	178.400060	6.349505	-3.328164	-0.877545	-0.513130	2.750234	6.143125	4.068829	-0.740938	-2.124655	2.864648	2.427930	0.956072	0.068718	-0.000000	-0.000000	0.000000
0.010000	14.167943	-2.962232	178.179424	6.754597	-3.386052	-1.859509	-0.471770	2.211125	6.505854	4.143814	-0.866620	-2.195049	1.753584	2.426188	0.955766	0.068445	-0.000000	-0.000000	0.000000
0.020000	14.272316	-2.777328	177.952508	6.607056	-3.144636	-2.277080	-0.237457	2.142509	6.413223	3.880583	-1.069989	-2.260708	1.817784	2.423768	0.955457	0.067266	-0.000000	-0.000000	0.000000
0.030000	14.310906	-2.659229	177.951762	6.523211	-2.980918	-2.259592	-0.155805	2.313232	6.413556	3.706882	-1.032417	-2.352078	2.217687	2.422777	0.955356	0.066499	-0.000000	-0.000000	0.000000
0.040000	14.404714	-2.534882	177.970849	6.482010	-2.797557	-2.268469	-0.081651	2.516255	6.489660	3.516867	-0.938269	-2.501272	2.668646	2.421552	0.955215	0.065536	-0.000000	-0.000000	0.000000
0.050000	14.562648	-2.421508	178.002661	6.504224	-2.612804	-2.319878	-0.028464	2.735858	6.663536	3.332646	-0.787742	-2.726927	3.134747	2.420107	0.955018	0.064406	-0.000000	-0.000000	0.000000
0.060000	14.771202	-2.334379	178.034405	6.587768	-2.444589	-2.399314	-0.009108	2.978992	6.932569	3.174516	-0.598135	-3.047193	3.619139	2.418485	0.954750	0.063153	-0.000000	-0.000000	0.000000
0.070000	14.993431	-2.285408	178.051016	6.703169	-2.309820	-2.471669	-0.033030	3.268833	7.265448	3.059092	-0.397431	-3.476685	4.148946	2.416743	0.954405	0.061826	-0.000000	-0.000000	0.000000
0.080000	15.179112	-2.281372	178.040895	6.802409	-2.221576	-2.502532	-0.104712	3.625828	7.612159	2.996648	-0.211496	-4.023802	4.749101	2.414931	0.953988	0.060465	-0.000000	-0.000000	0.000000
0.090000	15.286976	-2.322807	177.999429	6.842784	-2.185525	-2.478369	-0.224022	4.051537	7.929140	2.988370	-0.052466	-4.690842	5.426253	2.413086	0.953517	0.059096	-0.000000	-0.000000	0.000000
0.100000	15.305277	-2.404947	177.930703	6.810247	-2.198892	-2.416457	-0.386821	4.518704	8.204773	3.026533	0.090216	-5.477462	6.162767	2.411227	0.953026	0.057721	-0.000000	-0.000000	0.000000
0.110000	15.259832	-2.520303	177.848835	6.729394	-2.252434	-2.362470	-0.585360	4.969112	8.472011	3.098130	0.247896	-6.385502	6.914732	2.409354	0.952559	0.056321	-0.000000	-0.000000	0.000000
0.120000	15.205619	-2.662080	177.776173	6.655302	-2.334761	-2.375683	-0.809165	5.326964	8.801116	3.190487	0.455171	-7.421903	7.619414	2.407461	0.952157	0.054864	-0.000000	-0.000000	0.000000
0.130000	15.200222	-2.827103	177.736347	6.645128	-2.437583	-2.506335	-1.046419	5.526760	9.268631	3.296970	0.728487	-8.596952	8.215428	2.405535	0.951860	0.053321	-0.000000	-0.000000	0.000000
0.140000	15.274216	-3.016710	177.745148	6.726497	-2.559277	-2.777292	-1.286009	5.539111	9.920376	3.420049	1.055802	-9.919316	8.664167	2.403565	0.951690	0.051670	-0.000000	-0.000000	0.000000
0.150000	15.421152	-3.235275	177.804006	6.887212	-2.704787	-3.178986	-1.519148	5.379074	10.756543	3.569255	1.402441	-11.392653	8.959694	2.401547	0.951660	0.049914	-0.000000	-0.000000	0.000000
0.160000	15.606246	-3.487930	177.898895	7.084902	-2.883101	-3.674166	-1.739421	5.099863	11.740048	3.755936	1.721549	-13.016101	9.127474	2.399483	0.951769	0.048078	-0.000000	-0.000000	0.000000
0.170000	15.784957	-3.779135	178.005606	7.267697	-3.104254	-4.210193	-1.942670	4.775152	12.818811	3.988324	1.960573	-14.787260	9.210224	2.397382	0.952009	0.046204	-0.000000	-0.000000	0.000000
0.180000	15.927383	-4.111367	178.100041	7.401616	-3.375597	-4.739130	-2.127447	4.468592	13.955756	4.267957	2.070768	-16.704937	9.239847	2.395254	0.952367	0.044338	-0.000000	-0.000000	0.000000
0.190000	16.031425	-4.483144	178.168333	7.484776	-3.698272	-5.233710	-2.294444	4.209280	15.145040	4.588302	2.019428	-18.769115	9.217543	2.393109	0.952822	0.042514	-0.000000	-0.000000	0.000000
0.200000	16.113164	-4.886900	178.210207	7.535487	-4.064939	-5.688689	-2.444220	3.992253	16.400239	4.935321	1.797564	-20.977301	9.121538	2.390956	0.953339	0.040751	-0.000000	-0.000000	0.000000
0.210000	16.190110	-5.308206	178.234746	7.572172	-4.459231	-6.113858	-2.574913	3.796240	17.732645	5.289241	1.420656	-23.319239	8.929368	2.388805	0.953871	0.039058	-0.000000	-0.000000	0.000000
0.220000	16.274295	-5.727901	178.253792	7.604483	-4.858843	-6.527215	-2.681685	3.602903	19.141394	5.628454	0.921345	-25.773555	8.633048	2.386658	0.954358	0.037444	-0.000000	-0.000000	0.000000
0.230000	16.369627	-6.125512	178.275896	7.630587	-5.240802	-6.945432	-2.758460	3.412775	20.611781	5.933546	0.337241	-28.308528	8.247169	2.384504	0.954745	0.035931	-0.000000	-0.000000	0.000000
0.240000	16.469462	-6.481754	178.303240	7.636524	-5.585017	-7.371449	-2.801406	3.255703	22.116682	6.189046	-0.299116	-30.885856	7.814482	2.382323	0.954987	0.034554	-0.000000	-0.000000	0.000000
0.250000	16.562931	-6.781096	178.335166	7.605163	-5.876228	-7.791801	-2.811565	3.182143	23.627454	6.384610	-0.963933	-33.463268	7.393548	2.380093	0.955070	0.033348	-0.000000	-0.000000	0.000000
0.260000	16.646219	-7.015025	178.374144	7.529346	-6.105638	-8.185847	-2.794958	3.236926	25.127096	6.516360	-1.638821	-35.993231	7.029822	2.377785	0.955006	0.032329	-0.000000	-0.000000	0.000000
0.270000	16.724520	-7.184271	178.426046	7.414549	-6.271687	-8.531911	-2.761963	3.443429	26.609673	6.586848	-2.303187	-38.419887	6.742459	2.375369	0.954838	0.031472	-0.000000	-0.000000	0.000000
0.280000	16.801381	-7.298411	178.495204	7.267768	-6.379583	-8.805488	-2.726160	3.803226	28.064849	6.604204	-2.928740	-40.677697	6.533503	2.372820	0.954619	0.030717	-0.000000	-0.000000	0.000000
0.290000	16.871230	-7.372506	178.582847	7.088414	-6.439541	-8.980695	-2.701346	4.293804	29.468194	6.581981	-3.483756	-42.694884	6.398075	2.370123	0.954404	0.029982	-0.000000	-0.000000	0.000000
0.300000	16.927057	-7.422070	178.691436	6.874271	-6.463799	-9.038788	-2.698064	4.866889	30.792147	6.538073	-3.946766	-44.403546	6.328056	2.367272	0.954231	0.029193	-0.000000	-0.000000	0.000000
0.310000	16.969823	-7.459604	178.826291	6.630643	-6.463886	-8.974492	-2.720980	5.458118	32.021798	6.490843	-4.317223	-45.752489	6.311980	2.364264	0.954121	0.028298	-0.000000	-0.000000	0.000000
0.320000	17.008608	-7.494707	178.990442	6.371377	-6.449827	-8.797638	-2.766537	6.000402	33.159842	6.454406	-4.615300	-46.715354	6.330779	2.361103	0.954068	0.027277	-0.000000	-0.000000	0.000000
0.330000	17.058359	-7.536320	179.179814	6.116846	-6.431026	-8.536251	-2.821014	6.431355	34.224993	6.436529	-4.875075	-47.290691	6.351186	2.357802	0.954051	0.026137	-0.000000	-0.000000	0.000000
0.340000	17.138489	-7.594920	179.383149	5.891548	-6.417858	-8.237691	-2.861656	6.702218	35.247182	6.440336	-5.135482	-47.495558	6.323962	2.354365	0.954035	0.024907	-0.000000	-0.000000	0.000000
0.350000	17.265063	-7.682405	179.583182	5.715411	-6.422484	-7.958535	-2.862851	6.792747	36.254190	6.466823	-5.427822	-47.356892	6.194941	2.350792	0.953973	0.023629	-0.000000	-0.000000	0.000000
0.360000	17.436710	-7.807471	179.759138	5.588667	-6.456086	-7.745679	-2.803786	6.718967	37.253099	6.515038	-5.761146	-46.905258	5.925868	2.347081	0.953816	0.022357	-0.000000	-0.000000	0.000000
0.370000	17.631420	-7.968651	179.892974	5.487095	-6.522491	-7.621484	-2.672408	6.522829	38.225745	6.580326	-6.117794	-46.172340	5.508724	2.343237	0.953521	0.021156	-0.000000	-0.000000	0.000000
0.380000	17.818992	-8.150970	179.975387	5.373725	-6.613196	-7.582244	-2.464972	6.253164	39.142163	6.652819	-6.463669	-45.190271	4.967527	2.339262	0.953055	0.020083	-0.000000	-0.000000	0.000000
0.390000	17.968841	-8.330253	180.006592	5.207258	-6.709755	-7.608473	-2.183500	5.952645	39.969198	6.719646	-6.760318	-43.990041	4.354193	2.335155	0.952408	0.019177	-0.000000	-0.000000	0.000000
0.400000	18.047994	-8.483849	179.992303	4.942490	-6.793917	-7.676534	-1.834320	5.651963	40.668403	6.771637	-6.975700	-42.597786	3.736263	2.330922	0.951594	0.018456	-0.000000	-0.000000	0.000000
0.410000	18.025314	-8.599024	179.940169	4.538621	-6.856112	-7.764456	-1.429863	5.373946	41.201135	6.808275	-7.096377	-41.031847	3.175992	2.326567	0.950646	0.017917	-0.000000	-0.000000	0.000000
0.420000	17.883337	-8.672102	179.860564	3.974412	-6.894077	-7.853307	-0.991855	5.149424	41.543179	6.836171	-7.131555	-39.304201	2.712892	2.322086	0.949602	0.017545	-0.000000	-0.000000	0.000000
0.430000	17.624349	-8.703705	179.768257	3.254997	-6.907187	-7.925337	-0.550682	5.020757	41.693426	6.865128	-7.107419	-37.423856	2.355092	2.317467	0.948493	0.017315	-0.000000	-0.000000	0.000000
0.440000	17.266026	-8.697844	179.680569	2.405095	-6.895628	-7.960277	-0.137694	5.019992	41.669663	6.907119	-7.058290	-35.397915	2.079640	2.312691	0.947330	0.017196	-0.000000	-0.000000	0.000000
0.450000	16.834132	-8.662814	179.614600	1.456750	-6.862914	-7.936817	0.225694	5.151041	41.499745	6.977186	-7.014403	-33.231921	1.847552	2.307733	0.946116	0.017154	-0.000000	-0.000000	0.000000
0.460000	16.360627	-8.608639	179.586722	0.442938	-6.815102	-7.842605	0.535316	5.391885	41.219277	7.091435	-6.992877	-30.934061	1.628078	2.302559	0.944838	0.017166	-0.000000	-0.000000	0.000000
0.470000	15.883743	-8.542407	179.611983	-0.602989	-6.756178	-7.685130	0.804433	5.702002	40.873378	7.260941	-6.998949	-28.522610	1.413054	2.297125	0.943479	0.017214	-0.000000	-0.000000	0.000000
0.480000	15.440694	-8.465893	179.700448	-1.650862	-6.684397	-7.493813	1.056415	6.034982	40.511596	7.485828	-7.027331	-26.031735	1.215340	2.291392	0.942012	0.017288	-0.000000	-0.000000	0.000000
0.490000	15.055227	-8.377013	179.851337	-2.680554	-6.593335	-7.311024	1.313186	6.360562	40.176032	7.753516	-7.056755	-23.511897	1.060209	2.285345	0.940410	0.017380	-0.000000	-0.000000	0.000000
0.500000	14.733963	-8.272670	180.051091	-3.682067	-6.476087	-7.178117	1.586848	6.676557	39.895204	8.042339	-7.052313	-21.023842	0.972238	2.279001	0.938656	0.017485	-0.000000	-0.000000	0.000000
0.510000	14.474448	-8.150241	180.278950	-4.647936	-6.327941	-7.124022	1.878515	6.995109	39.687202	8.328737	-6.982333	-18.627920	0.957940	2.272396	0.936752	0.017605	-0.000000	-0.000000	0.000000
0.520000	14.272114	-8.008957	180.513535	-5.568856	-6.147818	-7.159364	2.181210	7.319758	39.561249	8.593935	-6.830579	-16.373134	0.997537	2.265566	0.934724	0.017747	-0.000000	-0.000000	0.000000
0.530000	14.119252	-7.852941	180.735406	-6.437676	-5.940910	-7.274369	2.482544	7.639510	39.512980	8.828105	-6.590284	-14.291794	1.057596	2.258537	0.932628	0.017918	-0.000000	-0.000000	0.000000
0.540000	14.000339	-7.693070	180.928027	-7.256496	-5.720331	-7.439702	2.765448	7.939181	39.519937	9.031540	-6.252440	-12.402860	1.113058	2.251319	0.930529	0.018123	-0.000000	-0.000000	0.000000
0.550000	13.893637	-7.544101	181.078613	-8.035561	-5.504458	-7.614448	3.007754	8.204725	39.547485	9.211226	-5.810290	-10.720838	1.155910	2.243912	0.928497	0.018364	-0.000000	-0.000000	0.000000
0.560000	13.780138	-7.419223	181.178001	-8.783672	-5.311356	-7.760088	3.183981	8.418696	39.563073	9.374205	-5.277547	-9.262651	1.186538	2.236301	0.926589	0.018645	-0.000000	-0.000000	0.000000
0.570000	13.649069	-7.327585	181.220397	-9.503156	-5.155633	-7.850968	3.270385	8.561927	39.544270	9.524058	-4.694525	-8.047935	1.205310	2.228466	0.924849	0.018970	-0.000000	-0.000000	0.000000
0.580000	13.499199	-7.275866	181.204497	-10.189921	-5.049747	-7.878966	3.249974	8.624567	39.480050	9.663437	-4.116829	-7.095330	1.214262	2.220388	0.923303	0.019339	-0.000000	-0.000000	0.000000
0.590000	13.339698	-7.270168	181.134808	-10.832492	-5.005978	-7.854306	3.113842	8.609528	39.371641	9.797992	-3.601466	-6.418606	1.219662	2.212050	0.921969	0.019747	-0.000000	-0.000000	0.000000
0.600000	13.187574	-7.314874	181.021778	-11.412431	-5.034669	-7.799821	2.858171	8.521989	39.230996	9.936418	-3.196415	-6.023800	1.228707	2.203437	0.920856	0.020185	-0.000000	-0.000000	0.000000
0.610000	13.065299	-7.408916	180.880230	-11.904083	-5.139916	-7.739503	2.479301	8.359113	39.079843	10.086198	-2.934593	-5.907337	1.247693	2.194535	0.919977	0.020644	-0.000000	-0.000000	0.000000
0.620000	13.001214	-7.543741	180.725583	-12.273448	-5.317722	-7.687207	1.971286	8.111613	38.949987	10.248973	-2.832004	-6.053830	1.285377	2.185325	0.919347	0.021116	-0.000000	-0.000000	0.000000
0.630000	13.023488	-7.705845	180.570447	-12.487506	-5.558049	-7.639790	1.329551	7.770960	38.874107	10.420616	-2.884909	-6.432088	1.349829	2.175775	0.918984	0.021603	-0.000000	-0.000000	0.000000
0.640000	13.149307	-7.880368	180.425606	-12.530458	-5.846635	-7.578743	0.557972	7.332250	38.870957	10.595737	-3.068329	-6.993941	1.433919	2.165839	0.918901	0.022112	-0.000000	-0.000000	0.000000
0.650000	13.380327	-8.052097	180.302713	-12.410369	-6.164870	-7.479392	-0.328691	6.792309	38.939812	10.770765	-3.341634	-7.681293	1.505198	2.155462	0.919097	0.022651	-0.000000	-0.000000	0.000000
0.660000	13.702114	-8.205534	180.212222	-12.155558	-6.491120	-7.319249	-1.310586	6.143436	39.061920	10.942403	-3.656585	-8.438600	1.511552	2.144588	0.919554	0.023230	-0.000000	-0.000000	0.000000
0.670000	14.086224	-8.326503	180.157019	-11.804152	-6.805142	-7.082091	-2.373220	5.367082	39.205664	11.103794	-3.965025	-9.223354	1.398631	2.133188	0.920238	0.023859	-0.000000	-0.000000	0.000000
0.680000	14.497489	-8.405878	180.126828	-11.388779	-7.094470	-6.759654	-3.516639	4.436227	39.335553	11.242336	-4.227253	-10.008572	1.131702	2.121277	0.921110	0.024538	-0.000000	-0.000000	0.000000
0.690000	14.899771	-8.443884	180.096926	-10.927314	-7.360197	-6.352008	-4.757726	3.319508	39.416545	11.341608	-4.417682	-10.775760	0.709556	2.108921	0.922133	0.025260	-0.000000	-0.000000	0.000000
0.700000	15.261417	-8.451639	180.033677	-10.419765	-7.618367	-5.868818	-6.124891	1.977475	39.416443	11.386917	-4.530309	-11.504704	0.161256	2.096235	0.923284	0.026009	-0.000000	-0.000000	0.000000
0.710000	15.564596	-8.447863	179.906472	-9.845538	-7.894780	-5.329774	-7.649839	0.360254	39.313453	11.371727	-4.585576	-12.169224	-0.466537	2.083346	0.924547	0.026766	-0.000000	-0.000000	0.000000
0.720000	15.805699	-8.452958	179.699502	-9.171109	-8.216011	-4.757700	-9.361714	-1.580696	39.096724	11.302487	-4.625798	-12.741167	-1.119394	2.070367	0.925913	0.027515	-0.000000	-0.000000	0.000000
0.730000	15.985867	-8.484924	179.416845	-8.365719	-8.602610	-4.168412	-11.286860	-3.861302	38.758797	11.200794	-4.696339	-13.198558	-1.739037	2.057382	0.927366	0.028245	-0.000000	-0.000000	0.000000
0.740000	16.108555	-8.557735	179.080646	-7.406562	-9.065834	-3.570488	-13.451530	-6.431853	38.297244	11.101315	-4.828292	-13.533436	-2.266760	2.044443	0.928879	0.028947	-0.000000	-0.000000	0.000000
0.750000	16.181788	-8.680343	178.724680	-6.277338	-9.606005	-2.975599	-15.879781	-9.177303	37.721790	11.045239	-5.028283	-13.756144	-2.651811	2.031576	0.930416	0.029611	-0.000000	-0.000000	0.000000
0.760000	16.213175	-8.856440	178.384594	-4.974041	-10.213516	-2.407371	-18.584084	-11.944828	37.051875	11.071510	-5.271056	-13.893802	-2.860726	2.018800	0.931941	0.030227	-0.000000	-0.000000	0.000000
0.770000	16.205051	-9.083809	178.088059	-3.510296	-10.871394	-1.900622	-21.554544	-14.563076	36.309943	11.206914	-5.502637	-13.983508	-2.881178	2.006142	0.933427	0.030785	-0.000000	-0.000000	0.000000
0.780000	16.156642	-9.350536	177.849239	-1.914223	-11.554407	-1.493749	-24.751687	-16.860141	35.517605	11.455539	-5.659818	-14.062960	-2.720826	1.993633	0.934869	0.031283	-0.000000	-0.000000	0.000000
0.790000	16.062911	-9.629734	177.667810	-0.226692	-12.225185	-1.221117	-28.105660	-18.701019	34.686397	11.791293	-5.690867	-14.160648	-2.402622	1.981304	0.936285	0.031726	-0.000000	-0.000000	0.000000
0.800000	15.914191	-9.878104	177.532719	1.503843	-12.833157	-1.104902	-31.526708	-20.014848	33.811588	12.158484	-5.570020	-14.289394	-1.957086	1.969179	0.937715	0.032129	-0.000000	-0.000000	0.000000
0.810000	15.708470	-10.041861	177.430940	3.241202	-13.319276	-1.144007	-34.925580	-20.781962	32.885102	12.482659	-5.310186	-14.447100	-1.414937	1.957261	0.939208	0.032513	-0.000000	-0.000000	0.000000
0.820000	15.461072	-10.070765	177.354083	4.977838	-13.628098	-1.307261	-38.231673	-21.007740	31.911007	12.689977	-4.963179	-14.621792	-0.804635	1.945531	0.940812	0.032890	-0.000000	-0.000000	0.000000
0.830000	15.199565	-9.936625	177.297493	6.732373	-13.726190	-1.536210	-41.398853	-20.714819	30.906130	12.729313	-4.602922	-14.794836	-0.156365	1.933962	0.942554	0.033258	-0.000000	-0.000000	0.000000
0.840000	14.954411	-9.643813	177.259063	8.535885	-13.614500	-1.756115	-44.398675	-19.948923	29.893022	12.586550	-4.304435	-14.942477	0.492751	1.922529	0.944443	0.033594	-0.000000	-0.000000	0.000000
0.850000	14.751420	-9.221639	177.244102	10.413761	-13.321967	-1.900766	-47.207055	-18.784872	28.891576	12.282563	-4.121735	-15.039404	1.100434	1.911228	0.946462	0.033866	-0.000000	-0.000000	0.000000
0.860000	14.605588	-8.705914	177.267926	12.371321	-12.886965	-1.945978	-49.794641	-17.323581	27.911545	11.857060	-4.067588	-15.063304	1.628668	1.900068	0.948579	0.034047	-0.000000	-0.000000	0.000000
0.870000	14.520197	-8.124747	177.347517	14.394162	-12.342173	-1.925427	-52.126037	-15.677795	26.952338	11.349146	-4.111801	-14.997936	2.053290	1.889072	0.950756	0.034133	-0.000000	-0.000000	0.000000
0.880000	14.490971	-7.495726	177.487115	16.459753	-11.710235	-1.914141	-54.164702	-13.955277	26.009834	10.785890	-4.203496	-14.835315	2.367953	1.878253	0.952956	0.034146	-0.000000	-0.000000	0.000000
0.890000	14.508083	-6.832359	177.668983	18.544649	-11.009318	-1.985157	-55.876750	-12.249026	25.080659	10.183342	-4.304234	-14.577643	2.581841	1.867612	0.955146	0.034128	-0.000000	-0.000000	0.000000
0.900000	14.554567	-6.151606	177.857252	20.620352	-10.260769	-2.165743	-57.229684	-10.631234	24.159926	9.555056	-4.411784	-14.238213	2.714067	1.857135	0.957291	0.034127	-0.000000	-0.000000	0.000000
0.910000	14.607042	-5.476109	178.011610	22.647452	-9.491044	-2.429789	-58.189719	-9.142901	23.238294	8.918628	-4.557442	-13.839770	2.788747	1.846801	0.959358	0.034177	-0.000000	-0.000000	0.000000
0.920000	14.641251	-4.830669	178.102938	24.577891	-8.729024	-2.725320	-58.723485	-7.785808	22.303295	8.295905	-4.781538	-13.409503	2.830864	1.836582	0.961315	0.034286	-0.000000	-0.000000	0.000000
0.930000	14.639621	-4.235729	178.127917	26.364021	-8.003912	-3.006836	-58.804536	-6.529028	21.344678	7.710162	-5.107141	-12.973012	2.862389	1.826444	0.963140	0.034435	-0.000000	-0.000000	0.000000
0.940000	14.595174	-3.702858	178.114025	27.968101	-7.344296	-3.252952	-58.421487	-5.330520	20.358831	7.183169	-5.525432	-12.549776	2.900621	1.816349	0.964817	0.034581	-0.000000	-0.000000	0.000000
0.950000	14.508465	-3.235675	178.106048	29.367041	-6.774957	-3.463590	-57.583260	-4.165068	19.346709	6.731694	-5.996921	-12.149226	2.958043	1.806260	0.966336	0.034673	-0.000000	-0.000000	0.000000
0.960000	14.382382	-2.833668	178.144562	30.551852	-6.311934	-3.645803	-56.317774	-3.042789	18.308379	6.364608	-6.464928	-11.767695	3.040864	1.796138	0.967679	0.034666	-0.000000	-0.000000	0.000000
0.970000	14.220104	-2.494389	178.252685	31.525015	-5.959389	-3.802264	-54.665569	-2.007095	17.240378	6.082498	-6.873658	-11.389153	3.148771	1.785943	0.968820	0.034531	-0.000000	-0.000000	0.000000
0.980000	14.025956	-2.213242	178.432664	32.299222	-5.708570	-3.926730	-52.672901	-1.114614	16.136881	5.878823	-7.184460	-10.990062	3.280022	1.775631	0.969712	0.034262	-0.000000	-0.000000	0.000000
0.990000	13.806355	-1.982620	178.667841	32.897580	-5.538520	-4.004219	-50.386915	-0.408341	14.991950	5.740972	-7.385046	-10.545849	3.438765	1.765162	0.970289	0.033875	-0.000000	-0.000000	0.000000
1.000000	13.568870	-1.791166	178.928931	33.351878	-5.418998	-4.015377	-47.852419	0.100459	13.800729	5.650787	-7.488690	-10.037375	3.640096	1.754512	0.970477	0.033399	-0.000000	-0.000000	0.000000
1.010000	13.320124	-1.623939	179.183723	33.697499	-5.315995	-3.945865	-45.109459	0.430554	12.559655	5.585697	-7.524556	-9.455865	3.910736	1.743676	0.970211	0.032866	-0.000000	-0.000000	0.000000
1.020000	13.063772	-1.465531	179.407753	33.965934	-5.200246	-3.795039	-42.191954	0.613479	11.266220	5.522989	-7.524055	-8.804662	4.281916	1.732669	0.969454	0.032302	-0.000000	-0.000000	0.000000
1.030000	12.799593	-1.306511	179.592277	34.178032	-5.056682	-3.575927	-39.128367	0.675741	9.919269	5.446980	-7.509339	-8.098414	4.774338	1.721510	0.968205	0.031719	-0.000000	-0.000000	0.000000
1.040000	12.524387	-1.149961	179.745846	34.342008	-4.890385	-3.306516	-35.945212	0.633872	8.520576	5.355176	-7.488289	-7.360721	5.381409	1.710219	0.966503	0.031109	-0.000000	-0.000000	0.000000
1.050000	12.234292	-1.012779	179.888503	34.457383	-4.724880	-3.000180	-32.672082	0.503442	7.076327	5.259141	-7.457067	-6.619375	6.061193	1.698806	0.964420	0.030440	-0.000000	-0.000000	0.000000
1.060000	11.927738	-0.918657	180.041094	34.522083	-4.591194	-2.662533	-29.344275	0.311302	5.597034	5.178051	-7.408331	-5.899039	6.745531	1.687271	0.962045	0.029672	-0.000000	-0.000000	0.000000
1.070000	11.607937	-0.887210	180.215226	34.539064	-4.513795	-2.295146	-26.001685	0.098881	4.096282	5.129007	-7.340698	-5.214469	7.362895	1.675606	0.959476	0.028774	-0.000000	-0.000000	0.000000
1.080000	11.284155	-0.927100	180.409264	34.520866	-4.503022	-1.901474	-22.687186	-0.086649	2.590271	5.121347	-7.264193	-4.568213	7.861359	1.663797	0.956802	0.027731	-0.000000	-0.000000	0.000000
1.090000	10.971142	-1.034019	180.610717	34.490098	-4.554262	-1.487362	-19.445789	-0.208351	1.098120	5.155129	-7.198147	-3.953327	8.218479	1.651850	0.954090	0.026550	-0.000000	-0.000000	0.000000
1.100000	10.685669	-1.190225	180.801884	34.473996	-4.648736	-1.053003	-16.323843	-0.253617	-0.359217	5.219732	-7.162112	-3.359562	8.435603	1.639788	0.951384	0.025256	-0.000000	-0.000000	0.000000
1.110000	10.443883	-1.366263	180.967266	34.498688	-4.756983	-0.592094	-13.369838	-0.233336	-1.758409	5.293808	-7.166602	-2.782422	8.532990	1.627653	0.948701	0.023881	-4.404427	-2.253092	7.413733
1.120000	10.262251	-1.526714	181.100158	34.588044	-4.846405	-0.107786	-10.637043	-0.164198	-3.070130	5.349519	-7.210575	-2.232556	8.556180	1.615487	0.946043	0.022463	-4.258651	-2.418839	7.610167
1.130000	10.155098	-1.638881	181.203902	34.760512	-4.889360	0.378387	-8.184603	-0.054705	-4.261480	5.360191	-7.284632	-1.739638	8.572559	1.603317	0.943404	0.021039	-4.139921	-2.437609	7.857254
1.140000	10.126992	-1.680642	181.288464	35.020977	-4.868971	0.838179	-6.074138	0.092132	-5.306762	5.307762	-7.375184	-1.347447	8.645509	1.591152	0.940780	0.019640	-4.189415	-2.447338	7.885271
1.150000	10.169222	-1.643557	181.365491	35.356773	-4.780502	1.249407	-4.363438	0.272769	-6.196195	5.186190	-7.467052	-1.102620	8.810093	1.578972	0.938169	0.018293	-4.232054	-2.371093	7.980262
1.160000	10.264050	-1.530849	181.443315	35.742771	-4.627601	1.597309	-3.100782	0.484447	-6.936590	4.999844	-7.544153	-1.042396	9.070915	1.566725	0.935577	0.017011	-4.269200	-2.212554	8.130434
1.170000	10.392045	-1.352850	181.525928	36.150363	-4.417941	1.871305	-2.319547	0.725015	-7.546165	4.758937	-7.589324	-1.186325	9.411736	1.554340	0.933017	0.015798	-4.303203	-1.987306	8.321421
1.180000	10.537304	-1.122187	181.615658	36.553725	-4.160816	2.065536	-2.030595	0.980634	-8.047694	4.474279	-7.584689	-1.534390	9.797648	1.541740	0.930510	0.014640	-4.340233	-1.717522	8.541344
1.190000	10.688817	-0.849995	181.713211	36.931897	-3.863567	2.183104	-2.213972	1.208379	-8.463109	4.152604	-7.513949	-2.071007	10.170485	1.528861	0.928094	0.013511	-4.387248	-1.423275	8.782453
1.200000	10.839813	-0.544330	181.815471	37.268376	-3.528116	2.236276	-2.814018	1.333763	-8.809335	3.794452	-7.365958	-2.773623	10.455179	1.515664	0.925818	0.012374	-4.445999	-1.117630	9.041185
1.210000	10.987185	-0.210431	181.916071	37.549819	-3.151971	2.238953	-3.741257	1.272157	-9.094466	3.395523	-7.136423	-3.623061	10.584127	1.502136	0.923746	0.011183	-4.511678	-0.806643	9.317884
1.220000	11.130360	0.148132	182.007829	37.764771	-2.732588	2.199333	-4.883370	0.956197	-9.316465	2.950427	-6.828118	-4.610705	10.516720	1.488282	0.921942	0.009901	-4.576223	-0.490907	9.615457
1.230000	11.268745	0.527253	182.084059	37.902750	-2.271815	2.120019	-6.124045	0.351193	-9.465620	2.457162	-6.451606	-5.740130	10.233902	1.474121	0.920465	0.008503	-4.632497	-0.168267	9.935958
1.240000	11.399851	0.920841	182.139090	37.954682	-1.777962	2.001708	-7.363901	-0.535004	-9.528020	1.918703	-6.023882	-7.025199	9.721974	1.459686	0.919363	0.006981	-4.677192	0.163441	10.277424
1.250000	11.520004	1.322105	182.168104	37.915122	-1.263745	1.845944	-8.536052	-1.643163	-9.487361	1.340143	-5.564201	-8.485997	8.961535	1.445015	0.918677	0.005341	-4.710087	0.505544	10.633719
1.260000	11.626634	1.725584	182.166904	37.784663	-0.742498	1.657152	-9.610736	-2.862963	-9.325228	0.725284	-5.089549	-10.143674	7.923825	1.430147	0.918437	0.003607	-4.730068	0.857998	10.996834
1.270000	11.720131	2.126735	182.133350	37.570954	-0.226747	1.444315	-10.589382	-4.048220	-9.020870	0.076767	-4.610573	-12.016342	6.573860	1.415119	0.918666	0.001808	-4.732111	1.217099	11.359119
1.280000	11.804381	2.519927	182.069309	37.288248	0.272047	1.221676	-11.493128	-5.046318	-8.551591	-0.601107	-4.128785	-14.116997	4.881325	1.399981	0.919367	-0.000026	-4.707535	1.573495	11.713976
1.290000	11.886128	2.898814	181.982387	36.955423	0.745384	1.006238	-12.350660	-5.732799	-7.894094	-1.301352	-3.638263	-16.453619	2.840781	1.384793	0.920522	-0.001871	-4.648685	1.914882	12.055480
1.300000	11.972612	3.259527	181.887245	36.591944	1.189914	0.811737	-13.188409	-6.039221	-7.026944	-2.015882	-3.134688	-19.030586	0.489807	1.369627	0.922085	-0.003711	-4.556124	2.232459	12.377359
1.310000	12.067949	3.603677	181.802752	36.212898	1.609666	0.644100	-14.024591	-5.963479	-5.934549	-2.737400	-2.624656	-21.849584	-2.086541	1.354565	0.923986	-0.005525	-4.440799	2.525926	12.672080
1.320000	12.170408	3.939197	181.744988	35.824787	2.018331	0.502133	-14.865767	-5.558798	-4.611341	-3.461066	-2.124090	-24.908176	-4.765509	1.339686	0.926133	-0.007295	-4.318545	2.803855	12.931131
1.330000	12.271557	4.277860	181.721847	35.421980	2.437544	0.380848	-15.703504	-4.911169	-3.064783	-4.184595	-1.649182	-28.195476	-7.405694	1.325056	0.928425	-0.009001	-4.202476	3.078982	13.146017
1.340000	12.357662	4.629191	181.730029	34.985240	2.889955	0.275117	-16.511790	-4.116702	-1.317273	-4.904425	-1.213369	-31.685919	-9.861131	1.310717	0.930771	-0.010628	-4.095686	3.360215	13.309614
1.350000	12.413706	4.992612	181.753845	34.484595	3.389145	0.182917	-17.247815	-3.264423	0.593687	-5.608947	-0.832800	-35.332561	-11.988922	1.296683	0.933105	-0.012158	-3.985886	3.644817	13.418270
1.360000	12.428776	5.351966	181.770498	33.886133	3.928523	0.104799	-17.856850	-2.427599	2.619441	-6.273444	-0.524765	-39.063352	-13.663016	1.282944	0.935403	-0.013576	-3.848456	3.914618	13.473743
1.370000	12.400502	5.676560	181.761239	33.160286	4.475106	0.038633	-18.280547	-1.661957	4.709218	-6.860449	-0.293490	-42.784968	-14.793581	1.269471	0.937677	-0.014861	-3.658146	4.138737	13.483326
1.380000	12.336505	5.928669	181.719879	32.290003	4.974232	-0.026051	-18.468847	-1.004521	6.820438	-7.325690	-0.123871	-46.393316	-15.344520	1.256233	0.939970	-0.016001	-3.400344	4.281368	13.457523
1.390000	12.251714	6.073406	181.653216	31.276275	5.364213	-0.110038	-18.393844	-0.471082	8.924096	-7.627793	0.007231	-49.785425	-15.345020	1.243199	0.942326	-0.016991	-3.074755	4.310465	13.405851
1.400000	12.162304	6.087778	181.574159	30.138027	5.595927	-0.240441	-18.060029	-0.055899	11.002729	-7.739886	0.113977	-52.870520	-14.885424	1.230348	0.944767	-0.017837	-2.690796	4.205199	13.332510
1.410000	12.078906	5.966150	181.492656	28.905610	5.648768	-0.440721	-17.505483	0.264367	13.043478	-7.658611	0.188969	-55.578816	-14.091135	1.217669	0.947280	-0.018557	-2.258994	3.960531	13.234124
1.420000	12.002511	5.718851	181.411316	27.610994	5.532801	-0.720992	-16.792711	0.523256	15.031431	-7.404014	0.204865	-57.865154	-13.085638	1.205153	0.949820	-0.019176	-1.785351	3.586043	13.101215
1.430000	11.925512	5.366022	181.328506	26.279671	5.277457	-1.075380	-15.991791	0.754030	16.948406	-7.010502	0.132607	-59.707142	-11.963052	1.192788	0.952334	-0.019722	-1.273207	3.101012	12.923396
1.440000	11.837206	4.931723	181.245346	24.927982	4.916649	-1.486066	-15.163331	0.980289	18.778100	-6.515052	-0.040144	-61.101419	-10.778675	1.180553	0.954777	-0.020223	-0.730241	2.530133	12.695943
1.450000	11.730364	4.439939	181.169600	23.566024	4.478799	-1.930551	-14.349400	1.214059	20.512952	-5.948211	-0.306256	-62.059978	-9.551829	1.168419	0.957113	-0.020700	-0.172481	1.900379	12.424183
1.460000	11.604880	3.913391	181.113519	22.202214	3.985952	-2.389925	-13.573560	1.458407	22.156780	-5.332596	-0.648401	-62.605645	-8.277751	1.156364	0.959311	-0.021172	0.378829	1.239148	12.122947
1.470000	11.466537	3.375154	181.090001	20.844858	3.459307	-2.855184	-12.844905	1.708310	23.721518	-4.687985	-1.047032	-62.766628	-6.946483	1.144374	0.961340	-0.021648	0.902876	0.573978	11.811092
1.480000	11.323682	2.849080	181.109784	19.501366	2.922989	-3.328227	-12.162333	1.952340	25.221629	-4.035555	-1.483606	-62.571932	-5.559167	1.132446	0.963167	-0.022134	1.383912	-0.068990	11.505452
1.490000	11.185206	2.355988	181.177823	18.178383	2.401541	-3.817354	-11.518625	2.177931	26.669831	-3.396711	-1.941528	-62.048065	-4.137666	1.120583	0.964766	-0.022625	1.815804	-0.669616	11.218009
1.500000	11.059808	1.910302	181.289900	16.882910	1.916017	-4.330445	-10.904047	2.376863	28.075372	-2.790362	-2.404308	-61.217615	-2.729736	1.108780	0.966133	-0.023099	2.204143	-1.216172	10.956047
1.510000	10.957017	1.522190	181.431749	15.624823	1.484559	-4.869320	-10.309164	2.550293	29.446204	-2.233849	-2.854939	-60.101005	-1.404250	1.097019	0.967276	-0.023518	2.563756	-1.701238	10.725461
1.520000	10.887161	1.200113	181.580280	14.417488	1.123282	-5.424485	-9.727072	2.712737	30.789394	-1.744278	-3.278304	-58.717378	-0.236246	1.085266	0.968210	-0.023826	2.914780	-2.117499	10.533666
1.530000	10.855189	0.948987	181.708441	13.269676	0.842740	-5.969457	-9.153389	2.888088	32.102008	-1.335037	-3.659517	-57.079531	0.708815	1.073471	0.968941	-0.023968	3.277507	-2.458775	10.385820
1.540000	10.853738	0.768377	181.793815	12.174469	0.645055	-6.462827	-8.583411	3.098078	33.360247	-1.011156	-3.978459	-55.186445	1.390002	1.061582	0.969455	-0.023907	3.664883	-2.722013	10.278735
1.550000	10.862741	0.653682	181.825203	11.105688	0.525875	-6.861795	-8.009101	3.352573	34.518189	-0.769030	-4.208188	-53.020755	1.804233	1.049551	0.969722	-0.023633	4.077748	-2.907462	10.199218
1.560000	10.854885	0.598064	181.803669	10.022609	0.478211	-7.138949	-7.417072	3.646462	35.517005	-0.599450	-4.319863	-50.553747	1.988264	1.037345	0.969702	-0.023168	4.506363	-3.018704	10.126153
1.570000	10.803961	0.593275	181.739778	8.879756	0.494603	-7.292699	-6.787875	3.963503	36.301304	-0.490642	-4.292146	-47.757324	2.005949	1.024953	0.969355	-0.022555	4.935810	-3.063276	10.034916
1.580000	10.691660	0.629981	181.649224	7.637634	0.567751	-7.343690	-6.098906	4.284097	36.835915	-0.430568	-4.120103	-44.619659	1.926469	1.012383	0.968655	-0.021844	5.351452	-3.052081	9.902179
1.590000	10.510021	0.699006	181.548405	6.271334	0.691115	-7.320315	-5.332011	4.591894	37.116179	-0.408789	-3.817526	-41.158776	1.803614	0.999667	0.967590	-0.021084	5.741828	-2.995968	9.710175
1.600000	10.261416	0.791771	181.451309	4.776468	0.857748	-7.246416	-4.482873	4.878155	37.169325	-0.415948	-3.410660	-37.428175	1.667448	0.986846	0.966164	-0.020308	6.098482	-2.902921	9.451366
1.610000	9.957603	0.899499	181.367930	3.171248	1.057759	-7.138245	-3.567493	5.144475	37.047627	-0.441792	-2.927300	-33.512633	1.530160	0.973967	0.964392	-0.019529	6.414389	-2.778533	9.131826
1.620000	9.617903	1.014666	181.303792	1.493966	1.279352	-7.008236	-2.622782	5.403620	36.817315	-0.476679	-2.387764	-29.517800	1.398727	0.961064	0.962302	-0.018749	6.682842	-2.627127	8.770793
1.630000	9.266662	1.133202	181.260809	-0.203926	1.512082	-6.869009	-1.700581	5.678311	36.547118	-0.515243	-1.802189	-25.557945	1.285964	0.948153	0.959927	-0.017958	6.897821	-2.453588	8.396059
1.640000	8.930582	1.252799	181.239193	-1.867192	1.746405	-6.733241	-0.856772	5.996939	36.298679	-0.556515	-1.175628	-21.744729	1.214376	0.935232	0.957309	-0.017147	7.055928	-2.267551	8.037466
1.650000	8.636188	1.367762	181.238634	-3.445243	1.969210	-6.610365	-0.139697	6.385627	36.120209	-0.599689	-0.518975	-18.179261	1.211323	0.922268	0.954500	-0.016320	7.159066	-2.087229	7.721646
1.660000	8.406768	1.465555	181.257380	-4.897577	2.160907	-6.503321	0.417166	6.859325	36.043145	-0.640046	0.140930	-14.948088	1.298410	0.909218	0.951557	-0.015487	7.216200	-1.938144	7.469118
1.670000	8.259272	1.529057	181.289879	-6.195632	2.298503	-6.408106	0.795959	7.416957	36.081573	-0.669259	0.759115	-12.122667	1.483344	0.896033	0.948544	-0.014658	7.242875	-1.845650	7.293725
1.680000	8.201914	1.541985	181.325947	-7.323040	2.361744	-6.317365	0.990747	8.041319	36.233449	-0.677883	1.282779	-9.759960	1.757086	0.882682	0.945528	-0.013834	7.257954	-1.826844	7.202580
1.690000	8.231008	1.492903	181.354314	-8.277897	2.337854	-6.226593	1.002972	8.699781	36.480881	-0.655555	1.673491	-7.901792	2.089886	0.869147	0.942573	-0.012998	7.277739	-1.887156	7.193131
1.700000	8.331097	1.376940	181.367887	-9.072318	2.223735	-6.137670	0.836791	9.350286	36.793702	-0.590424	1.924983	-6.573421	2.432955	0.855430	0.939739	-0.012116	7.311033	-2.021948	7.251809
1.710000	8.483266	1.194445	181.364750	-9.723109	2.023515	-6.056040	0.494126	9.956334	37.139934	-0.470087	2.059800	-5.780774	2.732556	0.841541	0.937081	-0.011150	7.359980	-2.222826	7.360640
1.720000	8.673339	0.947207	181.345414	-10.242350	1.742448	-5.984975	-0.028227	10.496527	37.493807	-0.282978	2.112565	-5.504893	2.939818	0.827480	0.934646	-0.010061	7.424388	-2.485336	7.504890
1.730000	8.892931	0.636818	181.309867	-10.634765	1.383710	-5.921271	-0.739246	10.961197	37.835864	-0.021303	2.114411	-5.696952	3.010584	0.813236	0.932479	-0.008824	7.504387	-2.811512	7.675408
1.740000	9.137159	0.267088	181.256170	-10.897818	0.950642	-5.854395	-1.653442	11.341002	38.150649	0.314442	2.086213	-6.278470	2.902621	0.798786	0.930612	-0.007430	7.599979	-3.205349	7.868821
1.750000	9.401869	-0.152194	181.183283	-11.023851	0.451323	-5.771324	-2.788189	11.609112	38.424885	0.714048	2.043503	-7.148132	2.570302	0.784106	0.929069	-0.005883	7.706786	-3.664749	8.086713
1.760000	9.681587	-0.603347	181.095540	-11.003636	-0.098881	-5.664299	-4.159490	11.708517	38.646532	1.160016	2.001390	-8.195177	1.972346	0.769179	0.927868	-0.004197	7.812102	-4.174954	8.333584
1.770000	9.969073	-1.061756	181.001909	-10.828826	-0.679155	-5.534633	-5.779119	11.554905	38.804810	1.629429	1.969642	-9.316479	1.099180	0.754004	0.927026	-0.002384	7.897801	-4.706942	8.614068
1.780000	10.255481	-1.499239	180.910834	-10.493511	-1.268413	-5.390373	-7.653078	11.048773	38.890412	2.095172	1.946245	-10.431577	-0.006017	0.738602	0.926564	-0.000443	7.947816	-5.221635	8.929338
1.790000	10.531242	-1.889623	180.826428	-9.995023	-1.851025	-5.239855	-9.780492	10.093444	38.896485	2.529464	1.916635	-11.491315	-1.248399	0.723012	0.926505	0.001640	7.953347	-5.679226	9.274301
1.800000	10.787562	-2.215516	180.748539	-9.333330	-2.420457	-5.084150	-12.154363	8.622230	38.819956	2.909649	1.857367	-12.478041	-2.497890	0.707287	0.926866	0.003882	7.913033	-6.050453	9.636978
1.810000	11.017715	-2.474084	180.675439	-8.509197	-2.980033	-4.913932	-14.764252	6.625322	38.662047	3.224802	1.743070	-13.397961	-3.614682	0.691486	0.927642	0.006285	7.829727	-6.325391	10.000291
1.820000	11.219290	-2.680280	180.605750	-7.520534	-3.541967	-4.715120	-17.598119	4.156084	38.429348	3.481548	1.554534	-14.269526	-4.480215	0.675672	0.928802	0.008824	7.708140	-6.517564	10.347219
1.830000	11.397086	-2.866164	180.538355	-6.358575	-4.124965	-4.478316	-20.641862	1.317395	38.135853	3.706270	1.284319	-15.112730	-5.023267	0.659904	0.930291	0.011443	7.554898	-6.662455	10.667737
1.840000	11.562219	-3.074585	180.472520	-5.010161	-4.749315	-4.202468	-23.876947	-1.751503	37.801154	3.941033	0.939655	-15.941455	-5.227970	0.644242	0.932031	0.014066	7.377873	-6.808901	10.961396
1.850000	11.725245	-3.347777	180.409459	-3.468784	-5.429990	-3.892250	-27.275164	-4.884952	37.441191	4.233395	0.544245	-16.757385	-5.122660	0.628740	0.933938	0.016611	7.182942	-7.004561	11.232154
1.860000	11.887197	-3.715028	180.353942	-1.748080	-6.170486	-3.557580	-30.792316	-7.905827	37.055274	4.623405	0.137650	-17.544795	-4.760821	0.613451	0.935939	0.019009	6.970626	-7.281155	11.479250
1.870000	12.034698	-4.184375	180.313224	0.112181	-6.960245	-3.217252	-34.366588	-10.644103	36.617319	5.131606	-0.231772	-18.267764	-4.205254	0.598419	0.937983	0.021220	6.736839	-7.645932	11.691082
1.880000	12.144887	-4.740184	180.292258	2.055515	-7.775396	-2.893920	-37.925160	-12.957002	36.080209	5.750568	-0.524272	-18.872724	-3.520726	0.583676	0.940050	0.023234	6.478953	-8.081663	11.848786
1.890000	12.198743	-5.344672	180.289698	4.030064	-8.579075	-2.597138	-41.396383	-14.744786	35.394764	6.442456	-0.731267	-19.299336	-2.771952	0.569227	0.942155	0.025066	6.201016	-8.551720	11.938648
1.900000	12.190748	-5.943487	180.298751	6.004834	-9.322195	-2.316585	-44.721290	-15.952470	34.530011	7.145866	-0.883765	-19.497602	-2.019371	0.555058	0.944329	0.026744	5.912284	-9.007344	11.961081
1.910000	12.127892	-6.476463	180.311804	7.969323	-9.950138	-2.035272	-47.857079	-16.561500	33.482196	7.791490	-1.036818	-19.444190	-1.311500	0.541135	0.946603	0.028301	5.620241	-9.396839	11.928875
1.920000	12.025172	-6.889604	180.325920	9.923506	-10.414402	-1.741528	-50.770027	-16.585944	32.275192	8.319872	-1.247470	-19.151682	-0.678256	0.527416	0.948990	0.029764	5.322769	-9.674171	11.862193
1.930000	11.902410	-7.143350	180.344549	11.868311	-10.681919	-1.431563	-53.423432	-16.079617	30.955298	8.692295	-1.558630	-18.666290	-0.128212	0.513859	0.951486	0.031154	5.006111	-9.803966	11.785142
1.940000	11.778982	-7.216337	180.374341	13.797485	-10.738447	-1.118177	-55.769288	-15.144674	29.577603	8.891640	-1.982086	-18.053799	0.348575	0.500426	0.954067	0.032489	4.650284	-9.763373	11.720008
1.950000	11.668113	-7.106797	180.420607	15.693625	-10.589145	-0.838937	-57.749316	-13.923999	28.189504	8.918062	-2.489121	-17.380146	0.772319	0.487090	0.956708	0.033775	4.237982	-9.544035	11.680364
1.960000	11.575753	-6.832074	180.483054	17.533325	-10.257410	-0.640969	-59.305402	-12.572233	26.821840	8.784062	-3.024968	-16.695662	1.162919	0.473827	0.959388	0.035011	3.763592	-9.154741	11.668542
1.970000	11.503720	-6.423978	180.554316	19.297135	-9.778641	-0.551253	-60.394042	-11.220838	25.490134	8.509583	-3.538256	-16.028850	1.530494	0.460621	0.962092	0.036187	3.237025	-8.620815	11.678237
1.980000	11.453222	-5.921153	180.622551	20.976198	-9.190775	-0.562145	-60.997269	-9.956597	24.200683	8.118509	-4.003418	-15.388816	1.869813	0.447467	0.964811	0.037289	2.680146	-7.979250	11.698972
1.990000	11.425440	-5.361689	180.676296	22.571348	-8.527190	-0.644788	-61.124968	-8.817663	22.954775	7.637384	-4.421942	-14.771576	2.161846	0.434383	0.967533	0.038301	2.119017	-7.271585	11.719222
2.000000	11.418833	-4.775878	180.709708	24.085526	-7.812775	-0.776069	-60.807431	-7.802856	21.748701	7.093363	-4.805787	-14.166892	2.383906	0.421406	0.970236	0.039218	1.575294	-6.534818	11.727439
2.010000	11.426537	-4.181517	180.723476	25.516435	-7.062640	-0.951675	-60.082838	-6.890026	20.572675	6.510558	-5.163302	-13.563417	2.523426	0.408583	0.972874	0.040045	1.062874	-5.794299	11.712933
2.020000	11.436971	-3.587276	180.719878	26.855459	-6.285669	-1.176752	-58.987888	-6.055461	19.411452	5.909660	-5.499266	-12.950081	2.586882	0.395953	0.975382	0.040799	0.592071	-5.065375	11.667969
2.030000	11.436996	-3.001433	180.698442	28.090967	-5.491357	-1.449355	-57.554418	-5.286991	18.246031	5.311522	-5.820876	-12.314165	2.601236	0.383527	0.977672	0.041495	0.173589	-4.361193	11.589844
2.040000	11.415192	-2.438195	180.657209	29.211642	-4.694963	-1.749368	-55.809544	-4.588684	17.055629	4.739925	-6.141341	-11.639633	2.610059	0.371272	0.979650	0.042136	-0.184056	-3.698484	11.480942
2.050000	11.363698	-1.919662	180.598980	30.208336	-3.920569	-2.039343	-53.777227	-3.974537	15.820383	4.222610	-6.477422	-10.909513	2.664628	0.359120	0.981232	0.042706	-0.482159	-3.099253	11.346342
2.060000	11.278546	-1.473516	180.538768	31.074801	-3.202351	-2.280969	-51.479822	-3.454711	14.525480	3.790260	-6.838099	-10.112924	2.810262	0.346980	0.982349	0.043174	-0.739446	-2.588598	11.190610
2.070000	11.159651	-1.125544	180.505364	31.808108	-2.580370	-2.454746	-48.937602	-3.027308	13.166104	3.470221	-7.211908	-9.253066	3.072069	0.334766	0.982967	0.043502	-0.992524	-2.187970	11.016479
2.080000	11.011131	-0.890582	180.531634	32.409043	-2.089650	-2.562904	-46.166357	-2.683092	11.750608	3.276546	-7.565744	-8.351003	3.448066	0.322414	0.983084	0.043665	-1.283938	-1.907594	10.826430
2.090000	10.840874	-0.768208	180.639155	32.881823	-1.749250	-2.615942	-43.177004	-2.413489	10.298974	3.204559	-7.855958	-7.442792	3.914992	0.309894	0.982729	0.043664	-1.643768	-1.744090	10.625141
2.100000	10.658265	-0.744990	180.828460	33.232817	-1.558477	-2.619019	-39.979578	-2.210407	8.836404	3.234367	-8.043501	-6.570408	4.442400	0.297207	0.981947	0.043526	-2.077147	-1.683926	10.420107
2.110000	10.470902	-0.800096	181.079481	33.469147	-1.500392	-2.567824	-36.589044	-2.060091	7.384643	3.339425	-8.106509	-5.769492	5.004743	0.284373	0.980787	0.043297	-2.563591	-1.708350	10.219832
2.120000	10.281710	-0.911879	181.360502	33.598170	-1.550312	-2.453279	-33.030467	-1.939004	5.954893	3.495658	-8.045979	-5.059489	5.585362	0.271411	0.979289	0.043028	-3.066856	-1.797415	10.030494
2.130000	10.088259	-1.063769	181.640533	33.629013	-1.685424	-2.269527	-29.343398	-1.815908	4.545974	3.688054	-7.883430	-4.441053	6.173894	0.258332	0.977489	0.042765	-3.549683	-1.933062	9.853459
2.140000	9.885763	-1.246277	181.897791	33.576492	-1.889222	-2.019360	-25.584611	-1.660478	3.149182	3.910845	-7.653628	-3.901230	6.762675	0.245128	0.975414	0.042535	-3.985445	-2.099975	9.686413
2.150000	9.672304	-1.454436	182.121115	33.465110	-2.149522	-1.713843	-21.827909	-1.452668	1.757057	4.161864	-7.395344	-3.423037	7.345706	0.231781	0.973091	0.042341	-4.362187	-2.284398	9.527801
2.160000	9.452568	-1.683976	182.307098	33.329309	-2.455008	-1.367117	-18.160156	-1.184741	0.370854	4.436730	-7.140909	-2.994658	7.919527	0.218266	0.970545	0.042168	-4.680175	-2.473613	9.380987
2.170000	9.238215	-1.928406	182.457279	33.208332	-2.793508	-0.991429	-14.672671	-0.855919	-0.996626	4.725771	-6.906246	-2.614807	8.484362	0.204563	0.967797	0.041989	-4.946800	-2.656581	9.255270
2.180000	9.045594	-2.176679	182.577553	33.137285	-3.151226	-0.597802	-11.448920	-0.467222	-2.322726	5.012440	-6.685367	-2.293523	9.045214	0.190669	0.964872	0.041773	-5.172258	-2.823665	9.163609
2.190000	8.891327	-2.412219	182.678361	33.137420	-3.512101	-0.200926	-8.553073	-0.023319	-3.580418	5.273001	-6.453496	-2.049463	9.611100	0.176592	0.961798	0.041494	-5.366611	-2.965498	9.117849
2.200000	8.786307	-2.615043	182.773119	33.209340	-3.857953	0.179547	-6.025749	0.459123	-4.746327	5.479361	-6.179698	-1.905074	10.189465	0.162350	0.958610	0.041128	-5.537178	-3.073144	9.122926
2.210000	8.732043	-2.766274	182.875870	33.334698	-4.170314	0.522813	-3.890384	0.946661	-5.805860	5.604951	-5.842959	-1.882225	10.779618	0.147969	0.955353	0.040656	-5.687690	-3.139606	9.174409
2.220000	8.723149	-2.851678	182.999762	33.487872	-4.432661	0.810958	-2.165832	1.394375	-6.750937	5.630278	-5.443389	-2.000414	11.371710	0.133476	0.952079	0.040059	-5.820213	-3.159958	9.262678
2.230000	8.752203	-2.862058	183.153916	33.648869	-4.630206	1.034790	-0.874571	1.749277	-7.575677	5.545247	-5.005465	-2.275729	11.947580	0.118890	0.948845	0.039329	-5.936059	-3.129102	9.379085
2.240000	8.811247	-2.791404	183.338134	33.807966	-4.747326	1.201423	-0.039387	1.941865	-8.276599	5.348010	-4.573097	-2.719225	12.478696	0.104223	0.945713	0.038462	-6.033761	-3.039286	9.517684
2.250000	8.892852	-2.634669	183.541085	33.964468	-4.766196	1.330878	0.328286	1.888302	-8.852768	5.041336	-4.195855	-3.337325	12.929083	0.089475	0.942744	0.037468	-6.108693	-2.879434	9.675331
2.260000	8.994161	-2.387127	183.745333	34.125350	-4.669578	1.438543	0.239832	1.521023	-9.300951	4.628886	-3.910687	-4.135715	13.267440	0.074628	0.939998	0.036362	-6.157238	-2.637250	9.854131
2.270000	9.118614	-2.045536	183.934423	34.302172	-4.445668	1.523125	-0.264827	0.818461	-9.611925	4.113267	-3.728987	-5.123507	13.475221	0.059655	0.937531	0.035154	-6.180937	-2.303131	10.061677
2.280000	9.272677	-1.609528	184.096969	34.505619	-4.090927	1.570615	-1.119485	-0.192527	-9.772616	3.495784	-3.635087	-6.313226	13.539616	0.044523	0.935392	0.033855	-6.186355	-1.873406	10.306821
2.290000	9.461865	-1.083714	184.227857	34.741878	-3.611296	1.563563	-2.242175	-1.448663	-9.770585	2.778808	-3.594151	-7.716233	13.436484	0.029211	0.933619	0.032475	-6.181973	-1.352841	10.595505
2.300000	9.688118	-0.480282	184.327140	35.011866	-3.022430	1.487449	-3.550974	-2.858268	-9.597503	1.970089	-3.563133	-9.338449	13.118609	0.013710	0.932239	0.031023	-6.174627	-0.756323	10.928625
2.310000	9.948223	0.182091	184.397140	35.311267	-2.345921	1.334019	-4.978531	-4.302586	-9.250198	1.083459	-3.499624	-11.180840	12.522329	-0.001966	0.931271	0.029507	-6.167505	-0.105935	11.301180
2.320000	10.233752	0.883219	184.439526	35.630808	-1.603060	1.102489	-6.479286	-5.642927	-8.728878	0.135056	-3.369148	-13.243535	11.584416	-0.017787	0.930721	0.027931	-6.160465	0.576021	11.702793
2.330000	10.532407	1.605003	184.454068	35.957224	-0.812320	0.799667	-8.028106	-6.742539	-8.034362	-0.859047	-3.153028	-15.528487	10.251102	-0.033703	0.930582	0.026301	-6.151443	1.271523	12.119537
2.340000	10.829751	2.332005	184.438794	36.273681	0.009757	0.439632	-9.612328	-7.492062	-7.167683	-1.882478	-2.853452	-18.037257	8.483217	-0.049652	0.930830	0.024622	-6.137374	1.966607	12.535878
2.350000	11.110439	3.051154	184.390583	36.558214	0.848452	0.043884	-11.219439	-7.826831	-6.133144	-2.918032	-2.491734	-20.765407	6.270449	-0.065569	0.931425	0.022902	-6.114372	2.649309	12.935500
2.360000	11.359288	3.751020	184.306715	36.781406	1.690521	-0.357895	-12.824050	-7.736448	-4.942173	-3.946510	-2.101000	-23.696389	3.649011	-0.081392	0.932314	0.021149	-6.078423	3.307736	13.301307
2.370000	11.562759	4.420289	184.186830	36.906131	2.522309	-0.729178	-14.380071	-7.265941	-3.614867	-4.944482	-1.717129	-26.797764	0.711720	-0.097070	0.933444	0.019380	-6.026055	3.928832	13.615859
2.380000	11.712095	5.046729	184.034543	36.892303	3.328300	-1.034821	-15.821900	-6.504664	-2.175673	-5.884164	-1.369605	-30.023771	-2.393611	-0.112557	0.934776	0.017620	-5.954656	4.498716	13.864511
2.390000	11.808258	5.618151	183.858392	36.707004	4.091776	-1.255342	-17.074528	-5.564603	-0.643077	-6.737435	-1.073905	-33.323853	-5.480929	-0.127820	0.936287	0.015898	-5.863200	5.004923	14.041713
2.400000	11.862050	6.124386	183.670055	36.332011	4.797768	-1.394246	-18.069289	-4.555871	0.975705	-7.481253	-0.830461	-36.651777	-8.349029	-0.142836	0.937974	0.014241	-5.751194	5.438450	14.153296
2.410000	11.886216	6.558716	183.481006	35.762741	5.436557	-1.470981	-18.759674	-3.567250	2.678938	-8.101442	-0.630551	-39.971396	-10.802054	-0.157593	0.939840	0.012673	-5.616180	5.793999	14.210367
2.420000	11.888715	6.918288	183.300596	35.005532	6.005035	-1.510454	-19.131553	-2.656110	4.463079	-8.593764	-0.462365	-43.256094	-12.676829	-0.172088	0.941878	0.011214	-5.453129	6.069291	14.223062
2.430000	11.873739	7.202605	183.134764	34.078636	6.504575	-1.538766	-19.204546	-1.848494	6.320587	-8.961189	-0.313979	-46.481368	-13.873004	-0.186332	0.944061	0.009877	-5.255131	6.263686	14.200616
2.440000	11.846026	7.410572	182.984977	33.012475	6.936234	-1.583326	-19.024570	-1.146838	8.239391	-9.208511	-0.175448	-49.614396	-14.369840	-0.200348	0.946347	0.008667	-5.013843	6.376256	14.153971
2.450000	11.811226	7.538977	182.849247	31.843047	7.296358	-1.670917	-18.649945	-0.541281	10.199693	-9.338579	-0.042202	-52.605509	-14.226883	-0.214172	0.948692	0.007578	-4.720732	6.405030	14.094461
2.460000	11.772608	7.583233	182.724831	30.601062	7.574926	-1.821718	-18.135472	-0.021478	12.171012	-9.351932	0.082282	-55.386173	-13.569075	-0.227841	0.951064	0.006600	-4.369115	6.347567	14.029428
2.470000	11.732584	7.537377	182.609896	29.308997	7.755517	-2.047216	-17.521963	0.415009	14.118678	-9.246581	0.190122	-57.875635	-12.562459	-0.241383	0.953458	0.005714	-3.955499	6.200159	13.963504
2.480000	11.697787	7.392361	182.502258	27.986716	7.816727	-2.351845	-16.835920	0.762242	16.016119	-9.016521	0.275469	-59.994653	-11.383336	-0.254816	0.955896	0.004896	-3.478490	5.955071	13.904176
2.490000	11.675630	7.136129	182.396370	26.651314	7.737538	-2.726732	-16.095982	1.013331	17.846743	-8.653545	0.332406	-61.681069	-10.176574	-0.268136	0.958409	0.004121	-2.935732	5.599599	13.858836
2.500000	11.665584	6.757898	182.283943	25.311797	7.504661	-3.144109	-15.319499	1.168637	19.597855	-8.154152	0.346852	-62.900169	-9.024378	-0.281318	0.961020	0.003364	-2.325147	5.120114	13.825519
2.510000	11.659728	6.255111	182.160514	23.971907	7.117222	-3.570280	-14.525380	1.238260	21.262210	-7.526574	0.296024	-63.645940	-7.948883	-0.294315	0.963737	0.002602	-1.653991	4.509990	13.791766
2.520000	11.650787	5.639631	182.031359	22.637881	6.588844	-3.985685	-13.732977	1.239858	22.843585	-6.793588	0.157928	-63.935006	-6.933337	-0.307085	0.966541	0.001818	-0.947082	3.777582	13.741471
2.530000	11.635899	4.939119	181.910453	21.318886	5.947989	-4.390509	-12.958566	1.194895	24.353277	-5.989873	-0.076108	-63.796726	-5.942729	-0.319599	0.969400	0.001004	-0.244669	2.949486	13.659903
2.540000	11.613742	4.191940	181.813879	20.020374	5.234862	-4.795498	-12.211791	1.124777	25.798614	-5.154537	-0.392087	-63.263301	-4.941437	-0.331857	0.972262	0.000170	0.409210	2.066609	13.534709
2.550000	11.581360	3.437869	181.752622	18.740105	4.494437	-5.211313	-11.494749	1.048667	27.174755	-4.321654	-0.751904	-62.363681	-3.906870	-0.343881	0.975068	-0.000662	0.980728	1.174396	13.357154
2.560000	11.535092	2.708848	181.728692	17.471486	3.768359	-5.644703	-10.803637	0.983389	28.466404	-3.513241	-1.102601	-61.122017	-2.839137	-0.355719	0.977750	-0.001465	1.455634	0.311321	13.125399
2.570000	11.472999	2.024297	181.736507	16.208639	3.089588	-6.097852	-10.130442	0.944759	29.655429	-2.738132	-1.393850	-59.558138	-1.768821	-0.367433	0.980231	-0.002213	1.839574	-0.498485	12.846128
2.580000	11.395286	1.393277	181.768155	14.947530	2.481472	-6.566102	-9.463818	0.949859	30.727516	-1.996972	-1.595015	-57.688068	-0.758219	-0.379098	0.982433	-0.002889	2.150079	-1.244463	12.532086
2.590000	11.301490	0.820923	181.817960	13.682218	1.959892	-7.035553	-8.790317	1.016489	31.673186	-1.290255	-1.703183	-55.524681	0.117358	-0.390788	0.984276	-0.003477	2.406777	-1.922677	12.196349
2.600000	11.187299	0.314082	181.882722	12.400550	1.536046	-7.484044	-8.096305	1.156442	32.484423	-0.625064	-1.738777	-53.078138	0.803863	-0.402565	0.985688	-0.003963	2.626492	-2.528509	11.847514
2.610000	11.047320	-0.116348	181.958522	11.087737	1.219065	-7.885277	-7.371244	1.370627	33.154895	-0.017957	-1.731180	-50.355156	1.286779	-0.414476	0.986613	-0.004338	2.824021	-3.052867	11.491986
2.620000	10.881182	-0.455578	182.039230	9.735317	1.018323	-8.213493	-6.611883	1.652301	33.684244	0.507022	-1.701154	-47.359712	1.580339	-0.426551	0.987013	-0.004596	3.013212	-3.481699	11.139509
2.630000	10.693959	-0.686087	182.118993	8.344411	0.945215	-8.447702	-5.824496	1.990941	34.078860	0.923739	-1.649267	-44.098525	1.708414	-0.438801	0.986874	-0.004737	3.204776	-3.796913	10.802048
2.640000	10.491763	-0.789608	182.194140	6.922696	1.013951	-8.574257	-5.023919	2.373497	34.349027	1.208530	-1.557259	-40.589180	1.693647	-0.451218	0.986204	-0.004771	3.404597	-3.978478	10.487479
2.650000	10.278145	-0.751411	182.261880	5.480183	1.238543	-8.587009	-4.230393	2.787040	34.506182	1.343735	-1.400240	-36.865331	1.557969	-0.463782	0.985027	-0.004718	3.615462	-4.009377	10.195505
2.660000	10.052489	-0.566970	182.318393	4.024698	1.624675	-8.487179	-3.464975	3.222297	34.561197	1.322710	-1.160716	-32.977425	1.331852	-0.476472	0.983385	-0.004599	3.839702	-3.883051	9.918053
2.670000	9.810493	-0.247440	182.358529	2.558543	2.160982	-8.284594	-2.744497	3.674515	34.524721	1.154395	-0.837453	-28.991413	1.062282	-0.489273	0.981335	-0.004437	4.079957	-3.609218	9.643497
2.680000	9.547201	0.179965	182.377108	1.079222	2.815725	-7.998998	-2.077994	4.140525	34.410413	0.863662	-0.447170	-24.987917	0.810451	-0.502181	0.978939	-0.004241	4.337522	-3.214308	9.363043
2.690000	9.261736	0.676945	182.370569	-0.415037	3.540822	-7.658942	-1.466461	4.614571	34.239270	0.486598	-0.020524	-21.061072	0.639053	-0.515200	0.976269	-0.004009	4.609788	-2.736735	9.076503
2.700000	8.961461	1.201208	182.337593	-1.917864	4.280064	-7.297587	-0.906214	5.085921	34.041249	0.063440	0.404774	-17.313516	0.595997	-0.528339	0.973401	-0.003731	4.888892	-2.220242	8.794702
2.710000	8.662588	1.712539	182.278430	-3.410519	4.977493	-6.947393	-0.394553	5.539560	33.850811	-0.367465	0.792071	-13.845726	0.702874	-0.541605	0.970415	-0.003393	5.162548	-1.707727	8.536822
2.720000	8.386510	2.176764	182.193731	-4.863220	5.584244	-6.635504	0.064265	5.959757	33.697891	-0.773105	1.114319	-10.742793	0.950554	-0.555004	0.967392	-0.002987	5.416583	-1.236330	8.324072
2.730000	8.154371	2.566908	182.084527	-6.240000	6.062571	-6.380214	0.454698	6.334740	33.600011	-1.125720	1.361390	-8.064594	1.298149	-0.568534	0.964404	-0.002513	5.637814	-0.835140	8.173445
2.740000	7.982703	2.862045	181.954039	-7.504122	6.386455	-6.188598	0.748856	6.659215	33.560410	-1.399746	1.543076	-5.844416	1.674472	-0.582191	0.961515	-0.001978	5.816233	-0.525885	8.094355
2.750000	7.881162	3.046082	181.809654	-8.623116	6.540387	-6.055367	0.910056	6.931845	33.572202	-1.569103	1.684596	-4.096012	1.985859	-0.595965	0.958783	-0.001393	5.946590	-0.324420	8.088511
2.760000	7.851993	3.108603	181.662516	-9.573471	6.518879	-5.963090	0.900535	7.148340	33.624581	-1.608752	1.814814	-2.822862	2.131340	-0.609854	0.956250	-0.000766	6.029761	-0.240503	8.151836
2.770000	7.890034	3.048637	181.524186	-10.344485	6.328778	-5.884691	0.689847	7.294464	33.706365	-1.502142	1.952628	-2.021995	2.021248	-0.623863	0.953950	-0.000100	6.073238	-0.274587	8.276360
2.780000	7.983008	2.878837	181.402773	-10.939802	5.992658	-5.790029	0.259923	7.343359	33.805442	-1.250491	2.098976	-1.679496	1.595889	-0.638008	0.951894	0.000611	6.089407	-0.414248	8.451140
2.790000	8.113209	2.624698	181.301318	-11.374823	5.547657	-5.657647	-0.395357	7.260804	33.906664	-0.875777	2.238280	-1.761664	0.842197	-0.652318	0.950081	0.001376	6.091394	-0.635762	8.663072
2.800000	8.260772	2.317514	181.218480	-11.669853	5.037475	-5.486049	-1.276058	7.015955	33.991745	-0.414651	2.346904	-2.210367	-0.196692	-0.666831	0.948501	0.002208	6.088645	-0.911695	8.898520
2.810000	8.407532	1.985262	181.149953	-11.841139	4.501143	-5.293443	-2.384474	6.585687	34.042597	0.092355	2.402249	-2.948190	-1.429609	-0.681584	0.947150	0.003117	6.084534	-1.219568	9.145597
2.820000	8.541013	1.645095	181.090181	-11.892652	3.962546	-5.105770	-3.730654	5.947363	34.047266	0.612002	2.388569	-3.892010	-2.742880	-0.696597	0.946045	0.004108	6.076557	-1.547876	9.396576
2.830000	8.657781	1.299622	181.033851	-11.811433	3.424253	-4.943909	-5.332508	5.070061	34.005591	1.125955	2.299948	-4.969196	-4.024294	-0.711855	0.945228	0.005182	6.059310	-1.898120	9.649693
2.840000	8.763998	0.939418	180.976671	-11.569121	2.869547	-4.815378	-7.212108	3.915341	33.930646	1.630946	2.141488	-6.129453	-5.172307	-0.727306	0.944755	0.006332	6.029216	-2.281346	9.908952
2.850000	8.871873	0.550598	180.916258	-11.129831	2.271590	-4.710622	-9.391340	2.452326	33.843925	2.132949	1.928908	-7.347131	-6.096905	-0.742865	0.944677	0.007546	5.987928	-2.710696	10.181150
2.860000	8.994188	0.121307	180.852851	-10.461081	1.602796	-4.606705	-11.886642	0.680110	33.766070	2.641640	1.685333	-8.612813	-6.724710	-0.758428	0.945016	0.008809	5.942935	-3.195692	10.471651
2.870000	9.140109	-0.355677	180.788598	-9.543595	0.841026	-4.480709	-14.700193	-1.361713	33.707421	3.167433	1.433286	-9.918171	-7.010494	-0.773893	0.945756	0.010114	5.905840	-3.740075	10.781439
2.880000	9.312011	-0.880851	180.725542	-8.378050	-0.024851	-4.325795	-17.810266	-3.603211	33.661103	3.718125	1.186513	-11.241951	-6.945618	-0.789181	0.946845	0.011452	5.888724	-4.338689	11.105408
2.890000	9.502806	-1.445584	180.663984	-6.987500	-0.990243	-4.158067	-21.168523	-5.959719	33.600490	4.294964	0.950495	-12.543460	-6.558918	-0.804239	0.948217	0.012819	5.899844	-4.972390	11.430975
2.900000	9.696596	-2.032679	180.602293	-5.413205	-2.034580	-4.008263	-24.706980	-8.337168	33.483480	4.891508	0.730280	-13.765265	-5.911036	-0.819031	0.949805	0.014206	5.941514	-5.605523	11.738767
2.910000	9.874330	-2.620489	180.537412	-3.703527	-3.125961	-3.903408	-28.350243	-10.629789	33.263797	5.495756	0.535881	-14.843316	-5.082604	-0.833540	0.951562	0.015595	6.012035	-6.188285	12.007018
2.920000	10.022481	-3.187208	180.464478	-1.899579	-4.226718	-3.850711	-32.026038	-12.720358	32.905557	6.091906	0.378581	-15.720145	-4.159987	-0.847762	0.953471	0.016958	6.074250	-6.662307	12.265442
2.930000	10.139072	-3.711839	180.376275	-0.025993	-5.295356	-3.833202	-35.668321	-14.491537	32.394117	6.659222	0.261645	-16.356617	-3.221490	-0.861709	0.955540	0.018263	6.024805	-6.940288	12.646810
2.940000	10.231424	-4.172861	180.265146	1.905517	-6.286263	-3.824113	-39.213246	-15.845977	31.736145	7.171501	0.177515	-16.738822	-2.327099	-0.875400	0.957799	0.019481	-0.000000	-0.000000	0.000000
2.950000	10.309268	-4.548244	180.126517	3.885310	-7.153042	-3.809262	-42.595243	-16.724393	30.951478	7.600454	0.112481	-16.877698	-1.515747	-0.888859	0.960274	0.020598	-0.000000	-0.000000	0.000000
2.960000	10.380617	-4.816813	179.961093	5.898915	-7.855052	-3.791330	-45.747392	-17.119724	30.065617	7.920208	0.047490	-16.804043	-0.805384	-0.902112	0.962975	0.021616	-0.000000	-0.000000	0.000000
2.970000	10.449157	-4.960426	179.774925	7.924009	-8.363527	-3.776721	-48.604451	-17.085379	29.103726	8.110965	-0.044237	-16.562905	-0.190707	-0.915189	0.965885	0.022556	-0.000000	-0.000000	0.000000
2.980000	10.510374	-4.968612	179.578910	9.927436	-8.667758	-3.767729	-51.107123	-16.726397	28.083134	8.164115	-0.192278	-16.206628	0.354287	-0.928123	0.968955	0.023444	-0.000000	-0.000000	0.000000
2.990000	10.550103	-4.843300	179.390037	11.865551	-8.779071	-3.766438	-53.206876	-16.172252	27.008601	8.087289	-0.416490	-15.785824	0.863054	-0.940939	0.972111	0.024305	-0.000000	-0.000000	0.000000
3.000000	10.549499	-4.598722	179.232288	13.692732	-8.727302	-3.778642	-54.870102	-15.543916	25.876190	7.903131	-0.717188	-15.341446	1.360885	-0.953652	0.975269	0.025144	-0.000000	-0.000000	0.000000
3.010000	10.495336	-4.257660	179.131596	15.377387	-8.551302	-3.810010	-56.081548	-14.926053	24.685015	7.641211	-1.076443	-14.900615	1.857621	-0.966248	0.978350	0.025944	-0.000000	-0.000000	0.000000
3.020000	10.390487	-3.848128	179.106807	16.917240	-8.290309	-3.861762	-56.847135	-14.348330	23.450031	7.329960	-1.469446	-14.476766	2.347347	-0.978689	0.981287	0.026674	-0.000000	-0.000000	0.000000
3.030000	10.257642	-3.400195	179.165249	18.342483	-7.979577	-3.934258	-57.193959	-13.779959	22.207056	6.993325	-1.877907	-14.073525	2.810258	-0.990917	0.984032	0.027299	-0.000000	-0.000000	0.000000
3.040000	10.130478	-2.941843	179.304368	19.700430	-7.649221	-4.034040	-57.164050	-13.146059	21.002621	6.650668	-2.295175	-13.689330	3.220591	-1.002878	0.986554	0.027796	-0.000000	-0.000000	0.000000
3.050000	10.035349	-2.495674	179.513752	21.028534	-7.323932	-4.175918	-56.802287	-12.367521	19.871367	6.316829	-2.718656	-13.318858	3.561499	-1.014530	0.988841	0.028156	-0.000000	-0.000000	0.000000
3.060000	9.977442	-2.078102	179.775419	22.334135	-7.022246	-4.377958	-56.143500	-11.407658	18.817802	6.001512	-3.138404	-12.951551	3.835753	-1.025868	0.990892	0.028382	-0.000000	-0.000000	0.000000
3.070000	9.941648	-1.699798	180.065471	23.593069	-6.755609	-4.651900	-55.204451	-10.298481	17.816547	5.708709	-3.533377	-12.571560	4.064717	-1.036924	0.992716	0.028486	-0.000000	-0.000000	0.000000
3.080000	9.904569	-1.366140	180.358493	24.763466	-6.528173	-4.992180	-53.983523	-9.125881	16.828552	5.437559	-3.878306	-12.161827	4.279623	-1.047773	0.994318	0.028481	-0.000000	-0.000000	0.000000
3.090000	9.847181	-1.078931	180.632987	25.803313	-6.338746	-5.371652	-52.467531	-7.980653	15.819881	5.186293	-4.155085	-11.709678	4.506858	-1.058508	0.995693	0.028388	-0.000000	-0.000000	0.000000
3.100000	9.759791	-0.839486	180.876233	26.681202	-6.184600	-5.750383	-50.640893	-6.913856	14.770448	4.957635	-4.358627	-11.208948	4.751008	-1.069222	0.996816	0.028229	-0.000000	-0.000000	0.000000
3.110000	9.638903	-0.650885	181.086524	27.377859	-6.064280	-6.087263	-48.492343	-5.928772	13.670688	4.761375	-4.495876	-10.658077	4.990805	-1.079996	0.997644	0.028020	-0.000000	-0.000000	0.000000
3.120000	9.482458	-0.517986	181.271316	27.884553	-5.977631	-6.345345	-46.019264	-5.003812	12.514606	4.612395	-4.581734	-10.057913	5.192631	-1.090884	0.998134	0.027766	-0.000000	-0.000000	0.000000
3.130000	9.288550	-0.444709	181.442256	28.203193	-5.922704	-6.495796	-43.231017	-4.121246	11.297151	4.524554	-4.632037	-9.412628	5.330778	-1.101922	0.998255	0.027464	-0.000000	-0.000000	0.000000
3.140000	9.056965	-0.429650	181.609467	28.347143	-5.890924	-6.522011	-40.150300	-3.283493	10.016653	4.502547	-4.656562	-8.734080	5.406296	-1.113125	0.997998	0.027104	-0.000000	-0.000000	0.000000
3.150000	8.789986	-0.463221	181.776544	28.340051	-5.863671	-6.418738	-36.812161	-2.510937	8.677568	4.536257	-4.656923	-8.045817	5.458910	-1.124489	0.997382	0.026675	-0.000000	-0.000000	0.000000
3.160000	8.491776	-0.528442	181.938385	28.213165	-5.813798	-6.187540	-33.262304	-1.828756	7.290688	4.601326	-4.628990	-7.381347	5.562481	-1.135990	0.996440	0.026163	-0.000000	-0.000000	0.000000
3.170000	8.168495	-0.605961	182.085885	28.002536	-5.715513	-5.836432	-29.555871	-1.257596	5.872274	4.667671	-4.565876	-6.775367	5.797164	-1.147592	0.995210	0.025548	-0.000000	-0.000000	0.000000
3.180000	7.828163	-0.681935	182.214333	27.744734	-5.558914	-5.381485	-25.756353	-0.812678	4.441177	4.712738	-4.460978	-6.251826	6.214172	-1.159261	0.993719	0.024809	-0.000000	-0.000000	0.000000
3.190000	7.480770	-0.754121	182.327740	27.473079	-5.358580	-4.847404	-21.933062	-0.509078	3.015793	4.731187	-4.311624	-5.815871	6.816668	-1.170979	0.991980	0.023928	-0.000000	-0.000000	0.000000
3.200000	7.141268	-0.832189	182.437321	27.218784	-5.150822	-4.270138	-18.156649	-0.368439	1.616071	4.735792	-4.120704	-5.455337	7.559860	-1.182757	0.989999	0.022904	-0.000000	-0.000000	0.000000
3.210000	6.830029	-0.933157	182.555922	27.011621	-4.982458	-3.691723	-14.494415	-0.410920	0.265331	4.751521	-3.896116	-5.151103	8.369864	-1.194619	0.987779	0.021749	-0.000000	-0.000000	0.000000
3.220000	6.567330	-1.075649	182.693231	26.875325	-4.898467	-3.146540	-11.007843	-0.632487	-1.012851	4.807704	-3.647854	-4.890756	9.175742	-1.206584	0.985329	0.020493	-0.000000	-0.000000	0.000000
3.230000	6.367505	-1.275421	182.855977	26.822566	-4.933725	-2.656571	-7.753635	-0.993011	-2.197751	4.930768	-3.380800	-4.679238	9.934165	-1.218653	0.982667	0.019165	-0.000000	-0.000000	0.000000
3.240000	6.234841	-1.541495	183.049560	26.852364	-5.107263	-2.235583	-4.787771	-1.425229	-3.273924	5.136884	-3.087113	-4.541720	10.635651	-1.230802	0.979830	0.017786	-0.000000	-0.000000	0.000000
3.250000	6.161095	-1.869873	183.276612	26.949716	-5.414633	-1.889727	-2.169542	-1.854984	-4.234571	5.423006	-2.745381	-4.517089	11.296455	-1.242987	0.976876	0.016360	-0.000000	-0.000000	0.000000
3.260000	6.128052	-2.234896	183.532486	27.090208	-5.817935	-1.615170	0.038633	-2.225059	-5.081782	5.757718	-2.333831	-4.644968	11.941175	-1.255162	0.973895	0.014881	-0.000000	-0.000000	0.000000
3.270000	6.115339	-2.586181	183.800819	27.249512	-6.242584	-1.399187	1.777368	-2.512635	-5.821205	6.080026	-1.855291	-4.952532	12.582076	-1.267297	0.970995	0.013348	-0.000000	-0.000000	0.000000
3.280000	6.108224	-2.859284	184.054153	27.411727	-6.591850	-1.221389	3.001222	-2.731001	-6.454819	6.313469	-1.349957	-5.448103	13.206247	-1.279393	0.968285	0.011766	-0.000000	-0.000000	0.000000
3.290000	6.102299	-2.998089	184.261121	27.572836	-6.776677	-1.051116	3.691727	-2.925229	-6.975900	6.391606	-0.877629	-6.124432	13.776676	-1.291490	0.965840	0.010136	-0.000000	-0.000000	0.000000
3.300000	6.105594	-2.977517	184.396551	27.740531	-6.745628	-0.848214	3.867547	-3.170454	-7.367667	6.282084	-0.486553	-6.967327	14.238833	-1.303670	0.963681	0.008444	-0.000000	-0.000000	0.000000
3.310000	6.137614	-2.814092	184.449528	27.930940	-6.499918	-0.571118	3.585687	-3.558921	-7.606159	5.997407	-0.198805	-7.962729	14.522140	-1.316056	0.961778	0.006651	-0.000000	-0.000000	0.000000
3.320000	6.225240	-2.559833	184.426899	28.163662	-6.089049	-0.185452	2.931859	-4.170846	-7.665006	5.589286	-0.018110	-9.100724	14.539459	-1.328809	0.960079	0.004700	-0.000000	-0.000000	0.000000
3.330000	6.398065	-2.283962	184.353645	28.457729	-5.593312	0.329348	2.004918	-5.047570	-7.518228	5.131135	0.057996	-10.378465	14.195830	-1.342109	0.958540	0.002538	-0.000000	-0.000000	0.000000
3.340000	6.684523	-2.050197	184.272506	28.828498	-5.102101	0.969297	0.902976	-6.181558	-7.140632	4.694903	0.041021	-11.802616	13.407080	-1.356141	0.957143	0.000132	-0.000000	-0.000000	0.000000
3.350000	7.108744	-1.897495	184.240114	29.285768	-4.693844	1.693299	-0.285258	-7.522049	-6.507654	4.329811	-0.030329	-13.389954	12.120461	-1.371056	0.955903	-0.002520	-0.000000	-0.000000	0.000000
3.360000	7.688850	-1.830376	184.313370	29.836122	-4.419377	2.424412	-1.486655	-8.987211	-5.596422	4.051272	-0.085913	-15.162288	10.336641	-1.386919	0.954852	-0.005386	-0.000000	-0.000000	0.000000
3.370000	8.431992	-1.819219	184.529737	30.483413	-4.289993	3.067528	-2.648440	-10.476308	-4.394889	3.840707	-0.052678	-17.132014	8.131662	-1.403620	0.954023	-0.008396	-0.000000	-0.000000	0.000000
3.380000	9.318959	-1.807692	184.893704	31.216147	-4.273984	3.528773	-3.737131	-11.879072	-2.925731	3.650876	0.111663	-19.278480	5.669603	-1.420757	0.953445	-0.011432	-0.000000	-0.000000	0.000000
3.390000	10.288606	-1.728373	185.374703	31.992417	-4.306842	3.731930	-4.730155	-13.076114	-1.271901	3.417639	0.409072	-21.520954	3.203271	-1.437512	0.953145	-0.014324	-0.000000	-0.000000	0.000000
3.400000	11.242607	-1.524658	185.912795	32.745598	-4.312077	3.634737	-5.603176	-13.931158	0.419357	3.079636	0.813775	-23.696979	1.072622	-1.452531	0.953146	-0.016847	-0.000000	-0.000000	0.000000
3.410000	12.069771	-1.167446	186.426346	33.408971	-4.218856	3.238684	-6.316930	-14.284671	1.955357	2.596148	1.293171	-25.555061	-0.292058	-1.463895	0.953456	-0.018714	-0.000000	-0.000000	0.000000
3.420000	12.922825	-0.542458	186.992529	34.130357	-3.954812	2.440690	-7.031109	-14.091501	3.621033	1.811716	1.971839	-27.398881	-0.899481	-1.473090	0.954172	-0.020208	-0.000000	-0.000000	0.000000
3.430000	14.432304	0.749914	187.998902	35.457497	-3.397516	0.774496	-8.294455	-13.372850	6.665391	0.274885	3.352340	-30.654381	-1.431524	-1.487858	0.955689	-0.022601	-0.000000	-0.000000	0.000000
3.440000	-0.000000	0.000000	-0.000000	-0.000000	0.000000	-0.000000	-0.000000	-0.000000	-0.000000	-0.000000	0.000000	-0.000000	-0.000000	0.000000	0.000000	0.000000	-0.000000	-0.000000	0.000000
3.450000	-0.000000	0.000000	-0.000000	-0.000000	0.000000	-0.000000	-0.000000	-0.000000	-0.000000	-0.000000	0.000000	-0.000000	-0.000000	0.000000	0.000000	0.000000	-0.000000	-0.000000	0.000000
3.460000	-0.000000	0.000000	-0.000000	-0.000000	0.000000	-0.000000	-0.000000	-0.000000	-0.000000	-0.000000	0.000000	-0.000000	-0.000000	0.000000	0.000000	0.000000	-0.000000	-0.000000	0.000000
3.470000	-0.000000	0.000000	-0.000000	-0.000000	0.000000	-0.000000	-0.000000	-0.000000	-0.000000	-0.000000	0.000000	-0.000000	-0.000000	0.000000	0.000000	0.000000	-0.000000	-0.000000	0.000000
3.480000	-0.000000	0.000000	-0.000000	-0.000000	0.000000	-0.000000	-0.000000	-0.000000	-0.000000	-0.000000	0.000000	-0.000000	-0.000000	0.000000	0.000000	0.000000	-0.000000	-0.000000	0.000000
3.490000	-0.000000	0.000000	-0.000000	-0.000000	0.000000	-0.000000	-0.000000	-0.000000	-0.000000	-0.000000	0.000000	-0.000000	-0.000000	0.000000	0.000000	0.000000	-0.000000	-0.000000	0.000000
3.500000	-0.000000	0.000000	-0.000000	-0.000000	0.000000	-0.000000	-0.000000	-0.000000	-0.000000	-0.000000	0.000000	-0.000000	-0.000000	0.000000	0.000000	0.000000	-0.000000	-0.000000	0.000000
3.510000	-0.000000	0.000000	-0.000000	-0.000000	0.000000	-0.000000	-0.000000	-0.000000	-0.000000	-0.000000	0.000000	-0.000000	-0.000000	0.000000	0.000000	0.000000	-0.000000	-0.000000	0.000000
3.520000	-0.000000	0.000000	-0.000000	-0.000000	0.000000	-0.000000	-0.000000	-0.000000	-0.000000	-0.000000	0.000000	-0.000000	-0.000000	0.000000	0.000000	0.000000	-0.000000	-0.000000	0.000000
3.530000	-0.000000	0.000000	-0.000000	-0.000000	0.000000	-0.000000	-0.000000	-0.000000	-0.000000	-0.000000	0.000000	-0.000000	-0.000000	0.000000	0.000000	0.000000	-0.000000	-0.000000	0.000000
3.540000	-0.000000	0.000000	-0.000000	-0.000000	0.000000	-0.000000	-0.000000	-0.000000	-0.000000	-0.000000	0.000000	-0.000000	-0.000000	0.000000	0.000000	0.000000	-0.000000	-0.000000	0.000000
3.550000	-0.000000	0.000000	-0.000000	-0.000000	0.000000	-0.000000	-0.000000	-0.000000	-0.000000	-0.000000	0.000000	-0.000000	-0.000000	0.000000	0.000000	0.000000	-0.000000	-0.000000	0.000000
3.560000	-0.000000	0.000000	-0.000000	-0.000000	0.000000	-0.000000	-0.000000	-0.000000	-0.000000	-0.000000	0.000000	-0.000000	-0.000000	0.000000	0.000000	0.000000	-0.000000	-0.000000	0.000000
3.570000	-0.000000	0.000000	-0.000000	-0.000000	0.000000	-0.000000	-0.000000	-0.000000	-0.000000	-0.000000	0.000000	-0.000000	-0.000000	0.000000	0.000000	0.000000	-0.000000	-0.000000	0.000000
3.580000	-0.000000	0.000000	-0.000000	-0.000000	0.000000	-0.000000	-0.000000	-0.000000	-0.000000	-0.000000	0.000000	-0.000000	-0.000000	0.000000	0.000000	0.000000	-0.000000	-0.000000	0.000000
3.590000	-0.000000	0.000000	-0.000000	-0.000000	0.000000	-0.000000	-0.000000	-0.000000	-0.000000	-0.000000	0.000000	-0.000000	-0.000000	0.000000	0.000000	0.000000	-0.000000	-0.000000	0.000000
3.600000	-0.000000	0.000000	-0.000000	-0.000000	0.000000	-0.000000	-0.000000	-0.000000	-0.000000	-0.000000	0.000000	-0.000000	-0.000000	0.000000	0.000000	0.000000	-0.000000	-0.000000	0.000000
3.610000	-0.000000	0.000000	-0.000000	-0.000000	0.000000	-0.000000	-0.000000	-0.000000	-0.000000	-0.000000	0.000000	-0.000000	-0.000000	0.000000	0.000000	0.000000	-0.000000	-0.000000	0.000000
3.620000	-0.000000	0.000000	-0.000000	-0.000000	0.000000	-0.000000	-0.000000	-0.000000	-0.000000	-0.000000	0.000000	-0.000000	-0.000000	0.000000	0.000000	0.000000	-0.000000	-0.000000	0.000000
3.630000	-0.000000	0.000000	-0.000000	-0.000000	0.000000	-0.000000	-0.000000	-0.000000	-0.000000	-0.000000	0.000000	-0.000000	-0.000000	0.000000	0.000000	0.000000	-0.000000	-0.000000	0.000000
3.640000	-0.000000	0.000000	-0.000000	-0.000000	0.000000	-0.000000	-0.000000	-0.000000	-0.000000	-0.000000	0.000000	-0.000000	-0.000000	0.000000	0.000000	0.000000	-0.000000	-0.000000	0.000000
3.650000	-0.000000	0.000000	-0.000000	-0.000000	0.000000	-0.000000	-0.000000	-0.000000	-0.000000	-0.000000	0.000000	-0.000000	-0.000000	0.000000	0.000000	0.000000	-0.000000	-0.000000	0.000000
3.660000	-0.000000	0.000000	-0.000000	-0.000000	0.000000	-0.000000	-0.000000	-0.000000	-0.000000	-0.000000	0.000000	-0.000000	-0.000000	0.000000	0.000000	0.000000	-0.000000	-0.000000	0.000000
3.670000	-0.000000	0.000000	-0.000000	-0.000000	0.000000	-0.000000	-0.000000	-0.000000	-0.000000	-0.000000	0.000000	-0.000000	-0.000000	0.000000	0.000000	0.000000	-0.000000	-0.000000	0.000000
3.680000	-0.000000	0.000000	-0.000000	-0.000000	0.000000	-0.000000	-0.000000	-0.000000	-0.000000	-0.000000	0.000000	-0.000000	-0.000000	0.000000	0.000000	0.000000	-0.000000	-0.000000	0.000000
3.690000	-0.000000	0.000000	-0.000000	-0.000000	0.000000	-0.000000	-0.000000	-0.000000	-0.000000	-0.000000	0.000000	-0.000000	-0.000000	0.000000	0.000000	0.000000	-0.000000	-0.000000	0.000000
3.700000	-0.000000	0.000000	-0.000000	-0.000000	0.000000	-0.000000	-0.000000	-0.000000	-0.000000	-0.000000	0.000000	-0.000000	-0.000000	0.000000	0.000000	0.000000	-0.000000	-0.000000	0.000000
3.710000	-0.000000	0.000000	-0.000000	-0.000000	0.000000	-0.000000	-0.000000	-0.000000	-0.000000	-0.000000	0.000000	-0.000000	-0.000000	0.000000	0.000000	0.000000	-0.000000	-0.000000	0.000000
3.720000	-0.000000	0.000000	-0.000000	-0.000000	0.000000	-0.000000	-0.000000	-0.000000	-0.000000	-0.000000	0.000000	-0.000000	-0.000000	0.000000	0.000000	0.000000	-0.000000	-0.000000	0.000000
3.730000	-0.000000	0.000000	-0.000000	-0.000000	0.000000	-0.000000	-0.000000	-0.000000	-0.000000	-0.000000	0.000000	-0.000000	-0.000000	0.000000	0.000000	0.000000	-0.000000	-0.000000	0.000000
3.740000	-0.000000	0.000000	-0.000000	-0.000000	0.000000	-0.000000	-0.000000	-0.000000	-0.000000	-0.000000	0.000000	-0.000000	-0.000000	0.000000	0.000000	0.000000	-0.000000	-0.000000	0.000000
3.750000	-0.000000	0.000000	-0.000000	-0.000000	0.000000	-0.000000	-0.000000	-0.000000	-0.000000	-0.000000	0.000000	-0.000000	-0.000000	0.000000	0.000000	0.000000	-0.000000	-0.000000	0.000000
3.760000	-0.000000	0.000000	-0.000000	-0.000000	0.000000	-0.000000	-0.000000	-0.000000	-0.000000	-0.000000	0.000000	-0.000000	-0.000000	0.000000	0.000000	0.000000	-0.000000	-0.000000	0.000000
3.770000	-0.000000	0.000000	-0.000000	-0.000000	0.000000	-0.000000	-0.000000	-0.000000	-0.000000	-0.000000	0.000000	-0.000000	-0.000000	0.000000	0.000000	0.000000	-0.000000	-0.000000	0.000000
3.780000	-0.000000	0.000000	-0.000000	-0.000000	0.000000	-0.000000	-0.000000	-0.000000	-0.000000	-0.000000	0.000000	-0.000000	-0.000000	0.000000	0.000000	0.000000	-0.000000	-0.000000	0.000000
3.790000	-0.000000	0.000000	-0.000000	-0.000000	0.000000	-0.000000	-0.000000	-0.000000	-0.000000	-0.000000	0.000000	-0.000000	-0.000000	0.000000	0.000000	0.000000	-0.000000	-0.000000	0.000000
