RJogging_XZ.mot
version=1
datacolumns 20
datarows 318
range 0.00000 3.17000
inDegrees=yes
endheader
time	pelvis_tilt	pelvis_list	pelvis_rotation	hip_flexion_r	hip_adduction_r	hip_rotation_r	knee_angle_r	ankle_angle_r	hip_flexion_l	hip_adduction_l	hip_rotation_l	knee_angle_l	ankle_angle_l	pelvis_tx	pelvis_ty	pelvis_tz	lumbar_bending	lumbar_rotation	lumbar_extension
0.000000	-0.000000	0.000000	-0.000000	-0.000000	0.000000	-0.000000	-0.000000	-0.000000	-0.000000	-0.000000	0.000000	-0.000000	-0.000000	0.000000	0.000000	0.000000	-0.000000	-0.000000	0.000000
0.010000	-0.000000	0.000000	-0.000000	-0.000000	0.000000	-0.000000	-0.000000	-0.000000	-0.000000	-0.000000	0.000000	-0.000000	-0.000000	0.000000	0.000000	0.000000	-0.000000	-0.000000	0.000000
0.020000	-0.000000	0.000000	-0.000000	-0.000000	0.000000	-0.000000	-0.000000	-0.000000	-0.000000	-0.000000	0.000000	-0.000000	-0.000000	0.000000	0.000000	0.000000	-0.000000	-0.000000	0.000000
0.030000	-0.000000	0.000000	-0.000000	-0.000000	0.000000	-0.000000	-0.000000	-0.000000	-0.000000	-0.000000	0.000000	-0.000000	-0.000000	0.000000	0.000000	0.000000	-0.000000	-0.000000	0.000000
0.040000	-0.000000	0.000000	-0.000000	-0.000000	0.000000	-0.000000	-0.000000	-0.000000	-0.000000	-0.000000	0.000000	-0.000000	-0.000000	0.000000	0.000000	0.000000	-0.000000	-0.000000	0.000000
0.050000	-0.000000	0.000000	-0.000000	-0.000000	0.000000	-0.000000	-0.000000	-0.000000	-0.000000	-0.000000	0.000000	-0.000000	-0.000000	0.000000	0.000000	0.000000	-0.000000	-0.000000	0.000000
0.060000	-0.000000	0.000000	-0.000000	-0.000000	0.000000	-0.000000	-0.000000	-0.000000	-0.000000	-0.000000	0.000000	-0.000000	-0.000000	0.000000	0.000000	0.000000	-0.000000	-0.000000	0.000000
0.070000	-0.000000	0.000000	-0.000000	-0.000000	0.000000	-0.000000	-0.000000	-0.000000	-0.000000	-0.000000	0.000000	-0.000000	-0.000000	0.000000	0.000000	0.000000	-0.000000	-0.000000	0.000000
0.080000	-0.000000	0.000000	-0.000000	-0.000000	0.000000	-0.000000	-0.000000	-0.000000	-0.000000	-0.000000	0.000000	-0.000000	-0.000000	0.000000	0.000000	0.000000	-0.000000	-0.000000	0.000000
0.090000	-0.000000	0.000000	-0.000000	-0.000000	0.000000	-0.000000	-0.000000	-0.000000	-0.000000	-0.000000	0.000000	-0.000000	-0.000000	0.000000	0.000000	0.000000	-0.000000	-0.000000	0.000000
0.100000	-0.000000	0.000000	-0.000000	-0.000000	0.000000	-0.000000	-0.000000	-0.000000	-0.000000	-0.000000	0.000000	-0.000000	-0.000000	0.000000	0.000000	0.000000	-0.000000	-0.000000	0.000000
0.110000	-0.000000	0.000000	-0.000000	-0.000000	0.000000	-0.000000	-0.000000	-0.000000	-0.000000	-0.000000	0.000000	-0.000000	-0.000000	0.000000	0.000000	0.000000	-0.000000	-0.000000	0.000000
0.120000	-0.000000	0.000000	-0.000000	-0.000000	0.000000	-0.000000	-0.000000	-0.000000	-0.000000	-0.000000	0.000000	-0.000000	-0.000000	0.000000	0.000000	0.000000	-0.000000	-0.000000	0.000000
0.130000	-0.000000	0.000000	-0.000000	-0.000000	0.000000	-0.000000	-0.000000	-0.000000	-0.000000	-0.000000	0.000000	-0.000000	-0.000000	0.000000	0.000000	0.000000	-0.000000	-0.000000	0.000000
0.140000	-0.000000	0.000000	-0.000000	-0.000000	0.000000	-0.000000	-0.000000	-0.000000	-0.000000	-0.000000	0.000000	-0.000000	-0.000000	0.000000	0.000000	0.000000	-0.000000	-0.000000	0.000000
0.150000	-0.000000	0.000000	-0.000000	-0.000000	0.000000	-0.000000	-0.000000	-0.000000	-0.000000	-0.000000	0.000000	-0.000000	-0.000000	0.000000	0.000000	0.000000	-0.000000	-0.000000	0.000000
0.160000	-0.000000	0.000000	-0.000000	-0.000000	0.000000	-0.000000	-0.000000	-0.000000	-0.000000	-0.000000	0.000000	-0.000000	-0.000000	0.000000	0.000000	0.000000	-0.000000	-0.000000	0.000000
0.170000	-0.000000	0.000000	-0.000000	-0.000000	0.000000	-0.000000	-0.000000	-0.000000	-0.000000	-0.000000	0.000000	-0.000000	-0.000000	0.000000	0.000000	0.000000	-0.000000	-0.000000	0.000000
0.180000	-0.000000	0.000000	-0.000000	-0.000000	0.000000	-0.000000	-0.000000	-0.000000	-0.000000	-0.000000	0.000000	-0.000000	-0.000000	0.000000	0.000000	0.000000	-0.000000	-0.000000	0.000000
0.190000	-0.000000	0.000000	-0.000000	-0.000000	0.000000	-0.000000	-0.000000	-0.000000	-0.000000	-0.000000	0.000000	-0.000000	-0.000000	0.000000	0.000000	0.000000	-0.000000	-0.000000	0.000000
0.200000	-0.000000	0.000000	-0.000000	-0.000000	0.000000	-0.000000	-0.000000	-0.000000	-0.000000	-0.000000	0.000000	-0.000000	-0.000000	0.000000	0.000000	0.000000	-0.000000	-0.000000	0.000000
0.210000	-0.000000	0.000000	-0.000000	-0.000000	0.000000	-0.000000	-0.000000	-0.000000	-0.000000	-0.000000	0.000000	-0.000000	-0.000000	0.000000	0.000000	0.000000	-0.000000	-0.000000	0.000000
0.220000	-0.000000	0.000000	-0.000000	-0.000000	0.000000	-0.000000	-0.000000	-0.000000	-0.000000	-0.000000	0.000000	-0.000000	-0.000000	0.000000	0.000000	0.000000	-0.000000	-0.000000	0.000000
0.230000	-24.005924	-5.645811	-9.029785	52.377251	11.174907	-4.153172	-47.897578	5.810227	2.271694	-6.364180	-12.420917	-18.969830	-7.538829	-1.531999	0.964015	0.006465	-0.000000	-0.000000	0.000000
0.240000	-25.352294	-6.331549	-8.373906	53.247748	11.466257	-6.029879	-43.790647	4.965564	2.321722	-7.132462	-12.599817	-17.554118	-12.795675	-1.509736	0.967849	0.007226	-0.000000	-0.000000	0.000000
0.250000	-23.491183	-6.445665	-8.477321	50.516687	11.946165	-5.909343	-37.885828	4.743486	-1.982430	-6.370614	-11.308889	-15.054155	-18.569139	-1.475325	0.973448	0.006776	-0.000000	-0.000000	0.000000
0.260000	-22.855490	-6.221110	-8.764030	49.546537	12.091598	-5.272601	-36.136332	4.701342	-3.349999	-5.810685	-10.699031	-14.569684	-19.560201	-1.461617	0.974968	0.006625	-0.000000	-0.000000	0.000000
0.270000	-22.422361	-5.957925	-9.047814	48.733550	12.221597	-4.609065	-34.252417	4.548481	-4.501918	-5.238272	-10.092036	-14.260013	-20.472328	-1.445269	0.976526	0.006640	-0.000000	-0.000000	0.000000
0.280000	-22.245279	-5.691648	-9.254031	48.143551	12.313608	-4.027820	-32.327884	4.240080	-5.315383	-4.718172	-9.562419	-14.221073	-21.310099	-1.426711	0.977997	0.006900	-0.000000	-0.000000	0.000000
0.290000	-22.301090	-5.445525	-9.350390	47.756611	12.355395	-3.569103	-30.485600	3.777269	-5.758042	-4.280760	-9.150630	-14.524236	-22.069937	-1.406615	0.979187	0.007403	-0.000000	-0.000000	0.000000
0.300000	-22.514745	-5.230098	-9.356555	47.482380	12.348577	-3.210039	-28.835736	3.222892	-5.876297	-3.923331	-8.857035	-15.203642	-22.748164	-1.385613	0.979866	0.008055	-0.000000	-0.000000	0.000000
0.310000	-22.791879	-5.041956	-9.317935	47.197220	12.297292	-2.901242	-27.458013	2.701016	-5.750145	-3.623016	-8.655635	-16.273726	-23.320966	-1.364189	0.979826	0.008731	-0.000000	-0.000000	0.000000
0.320000	-23.054193	-4.865617	-9.271949	46.793456	12.198619	-2.602786	-26.401386	2.371359	-5.438013	-3.355902	-8.509746	-17.757103	-23.726572	-1.342648	0.978921	0.009339	-0.000000	-0.000000	0.000000
0.330000	-23.249670	-4.684181	-9.232350	46.203577	12.046534	-2.301288	-25.693018	2.387785	-4.958427	-3.114245	-8.384568	-19.699005	-23.866268	-1.321167	0.977102	0.009860	-0.000000	-0.000000	0.000000
0.340000	-23.346089	-4.490557	-9.194188	45.402744	11.843205	-2.005065	-25.350085	2.858875	-4.303153	-2.913732	-8.258902	-22.159380	-23.626843	-1.299858	0.974407	0.010332	-0.000000	-0.000000	0.000000
0.350000	-23.334046	-4.288735	-9.145602	44.414907	11.604004	-1.729783	-25.389496	3.823748	-3.446880	-2.788201	-8.131801	-25.189338	-22.916043	-1.278810	0.970947	0.010819	-0.000000	-0.000000	0.000000
0.360000	-23.232094	-4.086959	-9.077235	43.314023	11.353521	-1.487943	-25.830733	5.246848	-2.354480	-2.775964	-8.021263	-28.802337	-21.696450	-1.258106	0.966874	0.011383	-0.000000	-0.000000	0.000000
0.370000	-23.077299	-3.890590	-8.988282	42.203571	11.118733	-1.285364	-26.689850	7.028868	-0.999177	-2.905540	-7.955982	-32.950339	-20.007330	-1.237821	0.962351	0.012058	-0.000000	-0.000000	0.000000
0.380000	-22.909742	-3.697217	-8.885080	41.186802	10.919672	-1.127233	-27.968003	9.030944	0.622658	-3.186258	-7.962021	-37.517276	-17.967210	-1.218011	0.957544	0.012851	-0.000000	-0.000000	0.000000
0.390000	-22.762609	-3.494908	-8.771269	40.343948	10.758896	-1.025664	-29.640766	11.108295	2.493339	-3.605232	-8.048125	-42.335224	-15.757379	-1.198697	0.952616	0.013750	-0.000000	-0.000000	0.000000
0.400000	-22.657590	-3.267217	-8.638253	39.717797	10.618356	-0.992828	-31.651867	13.142361	4.584932	-4.131673	-8.195819	-47.216020	-13.591423	-1.179864	0.947719	0.014739	-0.000000	-0.000000	0.000000
0.410000	-22.605896	-3.004482	-8.464984	39.308687	10.468514	-1.028821	-33.911796	15.056842	6.871483	-4.727841	-8.358106	-51.985076	-11.669853	-1.161460	0.942979	0.015794	-0.000000	-0.000000	0.000000
0.420000	-22.612582	-2.715061	-8.228708	39.078178	10.285201	-1.122549	-36.300819	16.810386	9.336080	-5.361624	-8.467975	-56.505555	-10.125815	-1.143407	0.938487	0.016881	-0.000000	-0.000000	0.000000
0.430000	-22.676343	-2.428649	-7.919263	38.954362	10.062270	-1.256753	-38.676221	18.373537	11.965917	-6.012227	-8.457246	-60.686263	-8.988930	-1.125611	0.934300	0.017939	-0.000000	-0.000000	0.000000
0.440000	-22.787081	-2.185628	-7.546569	38.841404	9.809434	-1.410662	-40.884623	19.706122	14.742686	-6.663567	-8.279017	-64.474438	-8.185553	-1.107971	0.930468	0.018888	-0.000000	-0.000000	0.000000
0.450000	-22.929899	-2.015255	-7.136251	38.640106	9.536320	-1.569575	-42.779831	20.749766	17.641593	-7.289465	-7.921542	-67.841229	-7.565278	-1.090389	0.927073	0.019641	-6.466875	10.097055	10.193542
0.460000	-23.091261	-1.915023	-6.715594	38.269904	9.232787	-1.732331	-44.243525	21.445472	20.635704	-7.839559	-7.409897	-70.766944	-6.944356	-1.072770	0.924241	0.020144	-5.294444	9.927142	10.300983
0.470000	-23.259441	-1.845656	-6.296614	37.678369	8.859232	-1.909643	-45.201077	21.765844	23.695658	-8.236869	-6.798262	-73.229477	-6.160914	-1.055033	0.922129	0.020389	-2.998263	9.582496	10.102990
0.480000	-23.420657	-1.747190	-5.865352	36.836535	8.356716	-2.124576	-45.624411	21.732975	26.783340	-8.393696	-6.155361	-75.198364	-5.119309	-1.037120	0.920900	0.020420	-2.425321	9.319377	10.199029
0.490000	-23.557659	-1.563375	-5.385213	35.729542	7.671364	-2.410917	-45.523495	21.412811	29.845767	-8.236642	-5.549702	-76.634453	-3.802351	-1.018984	0.920674	0.020306	-1.732418	8.913115	10.321918
0.500000	-23.653675	-1.257710	-4.813294	34.350333	6.777410	-2.798286	-44.933440	20.899972	32.814173	-7.726058	-5.040537	-77.493188	-2.250625	-1.000579	0.921507	0.020127	-0.976649	8.333539	10.472339
0.510000	-23.697159	-0.817187	-4.118096	32.695538	5.686881	-3.291623	-43.899722	20.295179	35.608144	-6.863428	-4.672938	-77.730211	-0.529299	-0.981844	0.923381	0.019946	-0.216594	7.579759	10.639493
0.520000	-23.685352	-0.245745	-3.288391	30.765272	4.440930	-3.862019	-42.463697	19.668301	38.146701	-5.684639	-4.472974	-77.307366	1.288066	-0.962704	0.926213	0.019806	0.506002	6.668587	10.805431
0.530000	-23.624055	0.447303	-2.333031	28.565012	3.088737	-4.455487	-40.652969	19.020124	40.361657	-4.243540	-4.443306	-76.197420	3.113367	-0.943088	0.929881	0.019723	1.168339	5.618693	10.949544
0.540000	-23.518391	1.254003	-1.276765	26.101167	1.669450	-5.012316	-38.480301	18.265724	42.201128	-2.598064	-4.561219	-74.386845	4.834115	-0.922955	0.934257	0.019694	1.762961	4.442274	11.045436
0.550000	-23.363066	2.165536	-0.159070	23.378194	0.209916	-5.487579	-35.953965	17.247181	43.627013	-0.808812	-4.780131	-71.878350	6.316139	-0.902301	0.939232	0.019702	2.297492	3.149742	11.057820
0.560000	-23.151566	3.164581	0.963108	20.418003	-1.262621	-5.865858	-33.098946	15.771754	44.626356	1.052087	-5.036206	-68.695900	7.425951	-0.881147	0.944718	0.019720	2.799403	1.761350	10.958451
0.570000	-22.898693	4.216259	2.019902	17.290833	-2.705849	-6.163603	-29.978329	13.667744	45.232941	2.895134	-5.259408	-64.892040	8.067184	-0.859499	0.950638	0.019714	3.314923	0.316743	10.754210
0.580000	-22.643606	5.262668	2.943567	14.116237	-4.056305	-6.415739	-26.698462	10.843006	45.525356	4.619183	-5.385288	-60.551977	8.215449	-0.837331	0.956890	0.019636	3.896261	-1.122160	10.493085
0.590000	-22.424941	6.228562	3.681716	11.025135	-5.235235	-6.653663	-23.392473	7.320415	45.591650	6.125941	-5.364592	-55.788169	7.936896	-0.814596	0.963344	0.019430	4.586026	-2.477383	10.238378
0.600000	-22.254282	7.039631	4.203237	8.116178	-6.166470	-6.888609	-20.193956	3.235734	45.489532	7.338833	-5.168443	-50.724857	7.380507	-0.791258	0.969826	0.019043	5.405390	-3.670472	10.036503
0.610000	-22.111493	7.642334	4.502145	5.437332	-6.797625	-7.107612	-17.217572	-1.193484	45.232300	8.219333	-4.788336	-45.481096	6.742354	-0.767309	0.976131	0.018439	6.345866	-4.640096	9.902960
0.620000	-21.958680	8.014463	4.600371	2.993472	-7.112759	-7.279950	-14.553196	-5.717340	44.802331	8.772385	-4.234890	-40.163224	6.210624	-0.742789	0.982047	0.017609	7.367505	-5.353476	9.826510
0.630000	-21.757195	8.165403	4.545421	0.765312	-7.133142	-7.369621	-12.271023	-10.108186	44.176551	9.039435	-3.539991	-34.871033	5.909734	-0.717782	0.987379	0.016572	8.406521	-5.809721	9.779814
0.640000	-21.487020	8.126601	4.401879	-1.261492	-6.906809	-7.349676	-10.434464	-14.194832	43.359611	9.082299	-2.760247	-29.715009	5.868098	-0.692410	0.991982	0.015374	9.390172	-6.035410	9.738436
0.650000	-21.163841	7.936397	4.238955	-3.065978	-6.491408	-7.212629	-9.114441	-17.861852	42.411957	8.965211	-1.971731	-24.833183	6.027567	-0.666808	0.995776	0.014072	10.253094	-6.074975	9.702943
0.660000	-20.834178	7.628933	4.116907	-4.588322	-5.939943	-6.971386	-8.394225	-21.025786	41.444057	8.743705	-1.249044	-20.392321	6.288695	-0.641112	0.998745	0.012723	10.948809	-5.979315	9.700323
0.670000	-20.548253	7.231393	4.076485	-5.757868	-5.295253	-6.651469	-8.359381	-23.614220	40.575890	8.461651	-0.637391	-16.568308	6.564071	-0.615449	1.000926	0.011382	11.453746	-5.795052	9.760914
0.680000	-20.334589	6.765775	4.134128	-6.525707	-4.591223	-6.282461	-9.077991	-25.566624	39.894037	8.151086	-0.138227	-13.514864	6.809899	-0.589934	1.002375	0.010091	11.766019	-5.557106	9.894438
0.690000	-20.193855	6.251180	4.281963	-6.878183	-3.856360	-5.893886	-10.580792	-26.855281	39.432636	7.830993	0.280739	-11.334495	7.024601	-0.564654	1.003141	0.008878	11.902562	-5.287153	10.084681
0.700000	-20.107400	5.707122	4.491692	-6.833092	-3.118761	-5.512995	-12.849209	-27.507448	39.176764	7.507837	0.663132	-10.061085	7.225958	-0.539660	1.003248	0.007749	11.894835	-4.998699	10.299723
0.710000	-20.048506	5.157486	4.723221	-6.430217	-2.411106	-5.162422	-15.815296	-27.604485	39.075519	7.180914	1.041922	-9.656519	7.422341	-0.514964	1.002681	0.006700	11.781088	-4.705112	10.505460
0.720000	-19.991112	4.632220	4.936524	-5.721057	-1.772428	-4.860512	-19.373526	-27.255621	39.057923	6.850118	1.424224	-10.019420	7.591927	-0.490553	1.001390	0.005709	11.596390	-4.425328	10.675537
0.730000	-19.915090	4.167037	5.101588	-4.758633	-1.247589	-4.624699	-23.399694	-26.570869	39.049049	6.523028	1.791827	-11.004138	7.686030	-0.466400	0.999312	0.004758	11.365308	-4.186093	10.794776
0.740000	-19.810424	3.802859	5.203466	-3.587217	-0.886711	-4.472709	-27.770887	-25.638584	38.986926	6.220433	2.110561	-12.447550	7.655442	-0.442488	0.996391	0.003833	11.099738	-4.022618	10.858478
0.750000	-19.679516	3.584051	5.244181	-2.235811	-0.743066	-4.416612	-32.380519	-24.500274	38.837049	5.979939	2.336100	-14.198866	7.481779	-0.418810	0.992606	0.002939	10.798758	-3.976881	10.869886
0.760000	-19.533814	3.552312	5.241871	-0.720510	-0.865327	-4.452362	-37.142960	-23.146130	38.598162	5.853674	2.423496	-16.146681	7.203169	-0.395372	0.987987	0.002099	10.448772	-4.090150	10.835345
0.770000	-19.387761	3.733938	5.224067	0.949660	-1.282061	-4.555284	-41.987664	-21.551480	38.300234	5.894123	2.344938	-18.236489	6.926210	-0.372195	0.982621	0.001343	10.027411	-4.389108	10.761087
0.780000	-19.255587	4.124586	5.214639	2.771394	-1.984176	-4.684150	-46.849817	-19.721082	37.997742	6.130495	2.100934	-20.470820	6.806577	-0.349309	0.976644	0.000696	9.513672	-4.871195	10.654937
0.790000	-19.150358	4.681157	5.220075	4.749435	-2.916151	-4.785967	-51.664954	-17.697754	37.756368	6.548690	1.713925	-22.888753	6.994666	-0.326746	0.970230	0.000161	8.900780	-5.497685	10.529192
0.800000	-19.081506	5.326479	5.224140	6.895656	-3.981242	-4.805221	-56.367660	-15.545097	37.632244	7.086962	1.217176	-25.531520	7.579050	-0.304531	0.963567	-0.000289	8.202994	-6.197925	10.399358
0.810000	-19.049452	5.964171	5.195692	9.220225	-5.058331	-4.703645	-60.890372	-13.336055	37.648382	7.649005	0.655328	-28.407306	8.564557	-0.282671	0.956846	-0.000699	7.449453	-6.881507	10.277851
0.820000	-19.043164	6.498275	5.103775	11.720890	-6.025997	-4.474480	-65.161670	-11.149383	37.779596	8.128171	0.087890	-31.467086	9.885953	-0.261160	0.950249	-0.001123	6.669898	-7.455099	10.168884
0.830000	-19.049056	6.852938	4.930827	14.383082	-6.787725	-4.137209	-69.106061	-9.065567	37.958150	8.434031	-0.421630	-34.597952	11.435157	-0.239963	0.943953	-0.001604	5.882864	-7.842043	10.073208
0.840000	-19.066361	6.985988	4.680055	17.189677	-7.288906	-3.722824	-72.645437	-7.161961	38.097196	8.511742	-0.827136	-37.635702	13.086044	-0.219014	0.938139	-0.002161	5.090298	-7.997706	9.999342
0.850000	-19.112587	6.890469	4.373543	20.125593	-7.516529	-3.264474	-75.702154	-5.503932	38.113985	8.345619	-1.113769	-40.394223	14.715863	-0.198206	0.932987	-0.002783	4.278981	-7.911522	9.967306
0.860000	-19.212925	6.585540	4.038833	23.170949	-7.482973	-2.796515	-78.204823	-4.127636	37.940222	7.947029	-1.295532	-42.702218	16.227254	-0.177411	0.928667	-0.003439	3.430212	-7.596991	9.999500
0.870000	-19.383073	6.105239	3.692086	26.289316	-7.207660	-2.356219	-80.096654	-3.019616	37.520993	7.338640	-1.403316	-44.433095	17.564374	-0.156491	0.925308	-0.004081	2.533212	-7.080611	10.106869
0.880000	-19.616860	5.491049	3.330260	29.418924	-6.709187	-1.981669	-81.342776	-2.109466	36.809451	6.546804	-1.473519	-45.518244	18.709681	-0.135320	0.922980	-0.004657	1.592951	-6.396835	10.280031
0.890000	-19.883642	4.787740	2.935772	32.471232	-6.008313	-1.703834	-81.932035	-1.287125	35.762719	5.602252	-1.541277	-45.942805	19.661940	-0.113785	0.921695	-0.005117	0.628696	-5.587168	10.489217
0.900000	-20.136839	4.038729	2.487669	35.340470	-5.132816	-1.536908	-81.871895	-0.438787	34.344129	4.541651	-1.637318	-45.730897	20.412616	-0.091796	0.921422	-0.005416	-0.333272	-4.697451	10.693557
0.910000	-20.330537	3.278052	1.972205	37.923022	-4.116159	-1.474480	-81.178706	0.514140	32.533280	3.404343	-1.785810	-44.929703	20.934432	-0.069282	0.922123	-0.005520	-1.268539	-3.768819	10.856377
0.920000	-20.436357	2.521988	1.387843	40.139110	-2.990244	-1.495642	-79.867851	1.588057	30.338134	2.225032	-2.002130	-43.598099	21.182716	-0.046196	0.923760	-0.005407	-2.161156	-2.825555	10.959013
0.930000	-20.452126	1.767789	0.742986	41.947092	-1.779682	-1.576730	-77.948854	2.733276	27.799697	1.027924	-2.292426	-41.800216	21.101121	-0.022513	0.926301	-0.005066	-3.004836	-1.869542	11.005843
0.940000	-20.399336	1.002182	0.052287	43.345350	-0.504863	-1.700383	-75.428026	3.854559	24.986672	-0.171718	-2.654912	-39.603725	20.623888	0.001767	0.929701	-0.004502	-3.802631	-0.886705	11.019461
0.950000	-20.313267	0.215531	-0.663275	44.363885	0.807460	-1.856669	-72.316293	4.847014	21.985279	-1.358172	-3.081916	-37.082453	19.678251	0.026624	0.933873	-0.003730	-4.568964	0.137485	11.031112
0.960000	-20.229777	-0.585220	-1.377077	45.048764	2.116586	-2.036274	-68.635953	5.628262	18.886637	-2.506066	-3.562913	-34.318903	18.190941	0.052020	0.938678	-0.002763	-5.328562	1.201290	11.070125
0.970000	-20.172202	-1.372129	-2.060616	45.443340	3.369889	-2.220843	-64.422570	6.153404	15.773091	-3.579033	-4.085778	-31.402609	16.095181	0.077915	0.943923	-0.001611	-6.109487	2.277932	11.154254
0.980000	-20.141322	-2.102383	-2.686406	45.572051	4.510871	-2.377700	-59.725078	6.419905	12.705769	-4.535163	-4.633928	-28.423657	13.341474	0.104273	0.949387	-0.000269	-6.934721	3.318404	11.282340
0.990000	-20.110857	-2.730168	-3.229814	45.433388	5.488214	-2.462652	-54.609109	6.470818	9.715771	-5.334125	-5.181791	-25.464033	9.916344	0.131058	0.954847	0.001270	-7.814686	4.261977	11.431006
1.000000	-20.035720	-3.218383	-3.672690	45.011007	6.264330	-2.430508	-49.163398	6.390810	6.807713	-5.943697	-5.691805	-22.591533	5.863483	0.158232	0.960101	0.003002	-8.742077	5.050342	11.562380
1.010000	-19.876929	-3.545645	-4.008307	44.304849	6.821270	-2.250184	-43.505614	6.288246	3.981948	-6.344737	-6.115864	-19.860684	1.300990	0.185744	0.964992	0.004907	-9.692824	5.642631	11.646275
1.020000	-19.629186	-3.706403	-4.244801	43.363969	7.161368	-1.918191	-37.783966	6.265793	1.262613	-6.532607	-6.404004	-17.321116	-3.575901	0.213539	0.969407	0.006946	-10.633382	6.026130	11.683344
1.030000	-19.327949	-3.707211	-4.405559	42.292828	7.305264	-1.462718	-32.171113	6.391147	-1.293551	-6.515752	-6.518636	-15.028122	-8.517397	0.241551	0.973276	0.009068	-11.528201	6.217516	11.707837
1.040000	-19.031390	-3.563363	-4.524562	41.224243	7.288755	-0.934021	-26.849412	6.683472	-3.613130	-6.313373	-6.446153	-13.051694	-13.254130	0.269705	0.976560	0.011219	-12.344070	6.254294	11.767676
1.050000	-18.793640	-3.296486	-4.636290	40.279070	7.155629	-0.384930	-21.991254	7.120670	-5.628685	-5.952823	-6.198389	-11.483267	-17.522329	0.297915	0.979240	0.013350	-13.053272	6.181434	11.899595
1.060000	-18.641464	-2.932295	-4.765873	39.530396	6.947761	0.148395	-17.739381	7.654765	-7.297632	-5.466757	-5.804727	-10.434888	-21.083477	0.326094	0.981315	0.015421	-13.634803	6.038363	12.110891
1.070000	-18.562576	-2.497977	-4.924304	38.985236	6.696577	0.652835	-14.192366	8.221770	-8.611878	-4.890075	-5.301410	-10.026290	-23.751162	0.354163	0.982797	0.017405	-14.073746	5.850138	12.373544
1.080000	-18.517973	-2.020554	-5.108318	38.598797	6.420493	1.126915	-11.400510	8.746662	-9.586163	-4.259389	-4.725110	-10.364217	-25.422242	0.382060	0.983700	0.019280	-14.362681	5.628974	12.639496
1.090000	-18.469677	-1.528370	-5.303608	38.310623	6.130830	1.565222	-9.372177	9.149155	-10.234018	-3.615923	-4.111542	-11.520895	-26.102770	0.409752	0.984029	0.021039	-14.504828	5.385956	12.866746
1.100000	-18.398147	-1.054416	-5.490349	38.072265	5.841020	1.953359	-8.085266	9.350222	-10.556886	-3.007055	-3.494104	-13.517211	-25.914429	0.437233	0.983768	0.022678	-14.514833	5.142241	13.032627
1.110000	-18.303331	-0.638565	-5.649693	37.856818	5.573430	2.271733	-7.498627	9.279775	-10.550279	-2.484268	-2.902514	-16.315403	-25.069150	0.464501	0.982873	0.024192	-14.416142	4.933206	13.131127
1.120000	-18.198820	-0.326815	-5.769629	37.658446	5.362314	2.501728	-7.561881	8.891554	-10.215257	-2.099512	-2.363973	-19.821629	-23.817294	0.491549	0.981283	0.025571	-14.236220	4.806034	13.165475
1.130000	-18.106011	-0.164609	-5.847756	37.489493	5.249663	2.633477	-8.223982	8.189048	-9.565652	-1.899273	-1.905170	-23.895890	-22.392317	0.518371	0.978933	0.026798	-14.000978	4.810454	13.144201
1.140000	-18.048570	-0.183526	-5.890560	37.376511	5.272596	2.673731	-9.440004	7.251133	-8.628775	-1.914254	-1.552657	-28.367707	-20.974424	0.544963	0.975786	0.027872	-13.728322	4.982582	13.080684
1.150000	-18.045796	-0.388085	-5.911000	37.353098	5.449476	2.642472	-11.173774	6.232624	-7.441998	-2.149309	-1.328448	-33.057601	-19.671948	0.571321	0.971851	0.028809	-13.421951	5.328771	12.991644
1.160000	-18.109589	-0.750889	-5.924719	37.452676	5.772553	2.557165	-13.394829	5.335682	-6.042712	-2.581221	-1.240961	-37.802781	-18.513274	0.597441	0.967201	0.029654	-13.070231	5.819840	12.895981
1.170000	-18.244232	-1.219025	-5.946060	37.699758	6.209125	2.424139	-16.069068	4.770466	-4.456330	-3.165534	-1.279510	-42.480454	-17.459865	0.623315	0.961957	0.030465	-12.651272	6.398473	12.812856
1.180000	-18.444498	-1.730250	-5.984921	38.096049	6.710350	2.244002	-19.142617	4.711287	-2.691779	-3.849666	-1.416741	-47.020462	-16.438451	0.648924	0.956278	0.031294	-12.141500	6.996338	12.755697
1.190000	-18.695309	-2.231447	-6.043375	38.608791	7.223204	2.021092	-22.524431	5.253894	-0.744073	-4.586744	-1.613800	-51.401789	-15.372761	0.674240	0.950330	0.032165	-11.524946	7.553889	12.727387
1.200000	-18.973236	-2.689647	-6.112769	39.167668	7.699323	1.767521	-26.079058	6.391375	1.396918	-5.342339	-1.822943	-55.632551	-14.207363	0.699230	0.944278	0.033066	-10.798753	8.032823	12.719373
1.210000	-19.249251	-3.092709	-6.173286	39.673192	8.099186	1.494448	-29.636939	8.019371	3.735377	-6.092239	-1.987325	-59.722242	-12.921388	0.723875	0.938287	0.033955	-9.972849	8.417774	12.714458
1.220000	-19.495777	-3.442384	-6.198857	40.018233	8.394545	1.200016	-33.020036	9.967442	6.264393	-6.815205	-2.046430	-63.658756	-11.529044	0.748180	0.932526	0.034778	-9.063776	8.710827	12.695065
1.230000	-19.692289	-3.744667	-6.167694	40.110716	8.570909	0.872429	-36.072412	12.044760	8.963347	-7.485326	-1.954265	-67.396914	-10.074147	0.772185	0.927169	0.035484	-8.084704	8.922195	12.650011
1.240000	-19.825003	-4.002852	-6.070473	39.885609	8.627385	0.502997	-38.681916	14.083014	11.795200	-8.068405	-1.698822	-70.860007	-8.622414	0.795959	0.922382	0.036034	-7.039990	9.061798	12.574196
1.250000	-19.887377	-4.214350	-5.909722	39.308883	8.571057	0.089823	-40.783756	15.958472	14.711009	-8.523763	-1.304948	-73.951519	-7.243810	0.819579	0.918319	0.036407	-5.929376	9.134826	12.468045
1.260000	-19.882257	-4.368299	-5.693769	38.374853	8.407879	-0.368970	-42.347464	17.589832	17.659083	-8.807542	-0.821354	-76.569733	-5.987060	0.843122	0.915113	0.036599	-4.755042	9.137854	12.338967
1.270000	-19.819548	-4.444132	-5.429911	37.094749	8.134926	-0.877465	-43.357864	18.929150	20.588465	-8.874738	-0.308040	-78.619389	-4.864505	0.866651	0.912876	0.036635	-3.525209	9.054217	12.198950
1.280000	-19.714025	-4.414192	-5.117450	35.486575	7.737825	-1.436534	-43.800881	19.955147	23.451104	-8.683006	0.171612	-80.019822	-3.855107	0.890222	0.911705	0.036559	-2.256795	8.854030	12.061970
1.290000	-19.590563	-4.249092	-4.742479	33.577444	7.193197	-2.042135	-43.659603	20.658754	26.211061	-8.197921	0.564702	-80.710722	-2.916567	0.913900	0.911682	0.036428	-0.978529	8.499843	11.948650
1.300000	-19.483732	-3.923679	-4.278088	31.404867	6.475353	-2.688380	-42.920347	21.020479	28.846149	-7.396799	0.846009	-80.655081	-1.998769	0.937778	0.912870	0.036295	0.269369	7.954160	11.885664
1.310000	-19.421695	-3.424819	-3.692594	29.003705	5.568564	-3.367034	-41.584442	20.997345	31.330860	-6.274435	1.021904	-79.839963	-1.053776	0.961974	0.915293	0.036189	1.441724	7.190174	11.889923
1.320000	-19.411378	-2.757429	-2.965549	26.394975	4.480320	-4.062450	-39.680865	20.530266	33.620821	-4.851130	1.115453	-78.276521	-0.040986	0.986618	0.918916	0.036107	2.500396	6.203714	11.955318
1.330000	-19.438759	-1.942465	-2.104974	23.591054	3.245258	-4.747236	-37.274390	19.559718	35.655809	-3.176329	1.144491	-75.997080	1.063419	1.011832	0.923615	0.036012	3.427760	5.017149	12.056317
1.340000	-19.476690	-1.008913	-1.154832	20.607688	1.916289	-5.383602	-34.463118	18.029721	37.372667	-1.324729	1.109210	-73.046104	2.244387	1.037712	0.929182	0.035841	4.234296	3.672925	12.159434
1.350000	-19.492093	0.011044	-0.185644	17.471058	0.550710	-5.931604	-31.364516	15.880812	38.716714	0.613183	0.997706	-69.468717	3.430034	1.064309	0.935346	0.035522	4.953261	2.225443	12.232706
1.360000	-19.454033	1.077996	0.726023	14.220832	-0.796817	-6.359613	-28.097183	13.053752	39.650564	2.540626	0.803095	-65.305147	4.505888	1.091615	0.941821	0.034989	5.625584	0.739269	12.254070
1.370000	-19.340813	2.137720	1.515265	10.910595	-2.071349	-6.650168	-24.768300	9.515421	40.158493	4.359603	0.536744	-60.594018	5.358373	1.119571	0.948349	0.034191	6.287090	-0.708914	12.216977
1.380000	-19.141648	3.119567	2.137697	7.603905	-3.212402	-6.801718	-21.470824	5.291476	40.245765	5.974158	0.230307	-55.382369	5.916850	1.148080	0.954731	0.033103	6.962750	-2.031624	12.128978
1.390000	-18.857871	3.943970	2.572591	4.371035	-4.153229	-6.830373	-18.288814	0.484556	39.942077	7.296587	-0.070150	-49.740246	6.175192	1.177019	0.960820	0.031730	7.664041	-3.138636	12.009185
1.400000	-18.505356	4.537608	2.823044	1.287541	-4.828175	-6.765221	-15.308418	-4.719431	39.309144	8.258521	-0.315069	-43.774604	6.190933	1.206261	0.966496	0.030103	8.387710	-3.952404	11.887298
1.410000	-18.110664	4.851390	2.912489	-1.571841	-5.187561	-6.631405	-12.631096	-10.049303	38.438956	8.823441	-0.464767	-37.634550	6.063910	1.235692	0.971648	0.028274	9.117395	-4.426026	11.797254
1.420000	-17.703516	4.872196	2.877937	-4.139789	-5.212192	-6.437433	-10.381922	-15.173547	37.442038	8.993735	-0.499077	-31.505141	5.903082	1.265217	0.976164	0.026308	9.827957	-4.554494	11.768471
1.430000	-17.313299	4.623042	2.762931	-6.357202	-4.919018	-6.181448	-8.705541	-19.763684	36.434073	8.809431	-0.419673	-25.591701	5.796193	1.294768	0.979942	0.024276	10.490084	-4.374355	11.822103
1.440000	-16.965369	4.154979	2.611097	-8.175401	-4.357475	-5.861418	-7.748917	-23.559836	35.519791	8.340180	-0.247142	-20.098547	5.792493	1.324303	0.982915	0.022246	11.073380	-3.953566	11.966735
1.450000	-16.674396	3.536911	2.460459	-9.563914	-3.602043	-5.477387	-7.635778	-26.413992	34.775497	7.673933	-0.014075	-15.207665	5.903020	1.353796	0.985060	0.020276	11.547365	-3.377303	12.189390
1.460000	-16.442029	2.846367	2.339272	-10.515564	-2.743796	-5.034899	-8.440394	-28.311135	34.240357	6.904958	0.244764	-11.061818	6.114269	1.383223	0.986398	0.018420	11.881314	-2.735631	12.449233
1.470000	-16.261727	2.160247	2.261955	-11.043819	-1.879093	-4.550482	-10.170149	-29.353040	33.919656	6.120703	0.500041	-7.753458	6.401604	1.412565	0.986977	0.016722	12.045779	-2.114093	12.679749
1.480000	-16.124685	1.544625	2.226708	-11.177527	-1.095186	-4.051019	-12.762524	-29.705153	33.793044	5.389471	0.729692	-5.319896	6.731840	1.441813	0.986840	0.015213	12.096682	-1.613033	12.881554
1.490000	-16.021198	1.045429	2.219032	-10.959567	-0.456008	-3.566889	-16.093834	-29.544092	33.821336	4.753783	0.917650	-3.746005	7.058024	1.470964	0.986015	0.013905	12.214953	-1.375621	13.190583
1.500000	-15.938899	0.683648	2.218962	-10.447414	0.006125	-3.124884	-19.994882	-29.031330	33.952387	4.230816	1.053194	-2.974639	7.317948	1.500023	0.984503	0.012786	-0.000000	-0.000000	0.000000
1.510000	-15.862493	0.457792	2.206912	-9.708707	0.288329	-2.745721	-24.273380	-28.302720	34.129837	3.818557	1.131627	-2.923089	7.440842	1.528988	0.982296	0.011820	-0.000000	-0.000000	0.000000
1.520000	-15.776205	0.351708	2.167765	-8.810111	0.407018	-2.445679	-28.742833	-27.454219	34.305268	3.504908	1.154296	-3.502864	7.358869	1.557839	0.979389	0.010949	-0.000000	-0.000000	0.000000
1.530000	-15.667853	0.344398	2.093265	-7.803487	0.384570	-2.237793	-33.251137	-26.522465	34.450892	3.276689	1.126683	-4.638876	7.026660	1.586522	0.975790	0.010101	-0.000000	-0.000000	0.000000
1.540000	-15.532943	0.420359	1.980972	-6.714940	0.235240	-2.129264	-37.699265	-25.478987	34.567679	3.127252	1.054969	-6.282218	6.450095	1.614946	0.971527	0.009205	-0.000000	-0.000000	0.000000
1.550000	-15.376577	0.576208	1.830979	-5.541319	-0.042867	-2.117046	-42.044043	-24.252278	34.684507	3.060007	0.942965	-8.411639	5.711154	1.643003	0.966647	0.008200	-0.000000	-0.000000	0.000000
1.560000	-15.212253	0.818482	1.643509	-4.255458	-0.463004	-2.186453	-46.284676	-22.769366	34.847347	3.084773	0.793949	-11.022074	4.974514	1.670588	0.961216	0.007047	-0.000000	-0.000000	0.000000
1.570000	-15.058855	1.154229	1.416815	-2.816928	-1.035519	-2.311154	-50.438648	-20.992971	35.101044	3.207880	0.613999	-14.101492	4.462333	1.697629	0.955328	0.005732	-0.000000	-0.000000	0.000000
1.580000	-14.936684	1.581108	1.144438	-1.183528	-1.753074	-2.454015	-54.516668	-18.934384	35.468692	3.421578	0.410349	-17.602105	4.396246	1.724108	0.949110	0.004264	-0.000000	-0.000000	0.000000
1.590000	-14.862787	2.082625	0.815148	0.678696	-2.582866	-2.577242	-58.504422	-16.644378	35.935119	3.699819	0.190108	-21.417638	4.933900	1.750061	0.942731	0.002677	-0.000000	-0.000000	0.000000
1.600000	-14.846117	2.629483	0.417678	2.786990	-3.469183	-2.658050	-62.354580	-14.197843	36.440603	4.002698	-0.039516	-25.378165	6.125711	1.775564	0.936406	0.001025	-0.000000	-0.000000	0.000000
1.610000	-14.883656	3.184272	-0.051142	5.135547	-4.343773	-2.695427	-65.989824	-11.681505	36.887288	4.286529	-0.274673	-29.266773	7.901313	1.800708	0.930384	-0.000624	-0.000000	-0.000000	0.000000
1.620000	-14.958081	3.707399	-0.577791	7.691229	-5.139206	-2.706840	-69.314120	-9.189567	37.154545	4.516267	-0.518084	-32.852260	10.090403	1.825569	0.924932	-0.002197	-0.000000	-0.000000	0.000000
1.630000	-15.038401	4.162460	-1.127817	10.392590	-5.800020	-2.721832	-72.226846	-6.824688	37.117645	4.675180	-0.777927	-35.925173	12.468338	1.850204	0.920308	-0.003634	-0.000000	-0.000000	0.000000
1.640000	-15.089413	4.518226	-1.651203	13.160224	-6.286220	-2.774414	-74.635899	-4.691615	36.671288	4.764027	-1.065951	-38.325817	14.802715	1.874648	0.916733	-0.004894	-0.000000	-0.000000	0.000000
1.650000	-15.090378	4.746568	-2.097833	15.920632	-6.567190	-2.891464	-76.466363	-2.883463	35.757471	4.786900	-1.399217	-39.959538	16.885955	1.898933	0.914374	-0.005965	-0.000000	-0.000000	0.000000
1.660000	-15.045814	4.817763	-2.434263	18.622380	-6.610882	-3.079231	-77.661354	-1.470296	34.379923	4.732546	-1.801202	-40.800472	18.553687	1.923103	0.913333	-0.006856	-0.000000	-0.000000	0.000000
1.670000	-14.976634	4.697596	-2.652885	21.228775	-6.378429	-3.316153	-78.176290	-0.484394	32.592159	4.564965	-2.295564	-40.884837	19.690428	1.947214	0.913654	-0.007599	-0.000000	-0.000000	0.000000
1.680000	-14.905546	4.351567	-2.773539	23.703523	-5.829421	-3.556939	-77.973368	0.102489	30.473922	4.228703	-2.897276	-40.295458	20.225217	1.971338	0.915334	-0.008235	-0.000000	-0.000000	0.000000
1.690000	-14.849037	3.754443	-2.837738	26.003719	-4.934347	-3.748918	-77.020462	0.391891	28.111335	3.665892	-3.607055	-39.143574	20.125653	1.995570	0.918324	-0.008808	-0.000000	-0.000000	0.000000
1.700000	-14.812027	2.901769	-2.894471	28.075850	-3.691337	-3.854644	-75.294940	0.539174	25.579108	2.841043	-4.408399	-37.552130	19.395434	2.020024	0.922521	-0.009361	-0.000000	-0.000000	0.000000
1.710000	-14.784034	1.822849	-2.982914	29.856325	-2.143657	-3.865218	-72.793018	0.706118	22.925736	1.766958	-5.267647	-35.639468	18.070608	2.044828	0.927748	-0.009919	-0.000000	-0.000000	0.000000
1.720000	-14.740275	0.589653	-3.119855	31.281118	-0.388036	-3.792454	-69.539686	1.012409	20.169028	0.520031	-6.137210	-33.504777	16.207872	2.070120	0.933748	-0.010478	-0.000000	-0.000000	0.000000
1.730000	-14.648366	-0.686726	-3.296896	32.300239	1.434712	-3.646114	-65.588121	1.507997	17.305229	-0.765211	-6.959731	-31.220868	13.866297	2.096042	0.940185	-0.010994	-0.000000	-0.000000	0.000000
1.740000	-14.479862	-1.874405	-3.488203	32.890500	3.166093	-3.418925	-61.003258	2.174458	14.328797	-1.924227	-7.669841	-28.838476	11.094613	2.122755	0.946687	-0.011400	-0.000000	-0.000000	0.000000
1.750000	-14.225008	-2.849447	-3.663997	33.064941	4.664160	-3.094471	-55.837708	2.945705	11.256452	-2.805087	-8.190994	-26.402174	7.937558	2.150445	0.952893	-0.011630	-0.000000	-0.000000	0.000000
1.760000	-13.903162	-3.524976	-3.803714	32.876181	5.833299	-2.666502	-50.117903	3.729382	8.143009	-3.309778	-8.435817	-23.970456	4.454367	2.179321	0.958503	-0.011652	-0.000000	-0.000000	0.000000
1.770000	-13.560622	-3.869588	-3.903970	32.409751	6.640595	-2.150066	-43.855191	4.422788	5.078569	-3.418267	-8.321249	-21.629189	0.732145	2.209571	0.963301	-0.011492	-0.000000	-0.000000	0.000000
1.780000	-13.260436	-3.909063	-3.977089	31.774238	7.114895	-1.583561	-37.085228	4.928817	2.176529	-3.187426	-7.788828	-19.495033	-3.101404	2.241274	0.967153	-0.011233	-0.000000	-0.000000	0.000000
1.790000	-13.069548	-3.713285	-4.041782	31.092916	7.331422	-1.028530	-29.926992	5.175355	-0.436994	-2.728660	-6.817212	-17.707929	-6.862331	2.274242	0.969994	-0.010986	-0.000000	-0.000000	0.000000
1.800000	-13.037446	-3.378677	-4.114940	30.485339	7.392162	-0.564935	-22.643750	5.136811	-2.640856	-2.177895	-5.435936	-16.407679	-10.313306	2.307809	0.971812	-0.010858	-0.000000	-0.000000	0.000000
1.810000	-13.169407	-3.015609	-4.212449	30.038259	7.410417	-0.281433	-15.688413	4.857208	-4.344973	-1.670718	-3.755744	-15.694285	-13.198726	2.340554	0.972652	-0.010919	-0.000000	-0.000000	0.000000
1.820000	-13.409077	-2.739659	-4.360430	29.784382	7.499748	-0.265111	-9.723247	4.467218	-5.510032	-1.325083	-2.015505	-15.583911	-15.291320	2.370046	0.972616	-0.011193	-0.000000	-0.000000	0.000000
1.830000	-13.637808	-2.663708	-4.609160	29.700965	7.766118	-0.594959	-5.610705	4.171268	-6.152986	-1.233183	-0.616912	-15.981654	-16.411091	2.392697	0.971864	-0.011652	-0.000000	-0.000000	0.000000
1.840000	-13.811083	-2.850497	-5.083222	29.736063	8.361889	-1.430328	-2.937793	4.056037	-6.474214	-1.430597	0.462963	-16.899607	-16.731412	2.411621	0.970297	-0.012392	-0.000000	-0.000000	0.000000
1.850000	-14.068116	-3.353708	-6.078105	29.887078	9.633444	-3.240668	0.828223	3.988812	-6.857272	-1.972245	2.115947	-18.821592	-16.797672	2.442497	0.967045	-0.013868	-0.000000	-0.000000	0.000000
1.860000	-0.000000	0.000000	-0.000000	-0.000000	0.000000	-0.000000	-0.000000	-0.000000	-0.000000	-0.000000	0.000000	-0.000000	-0.000000	0.000000	0.000000	0.000000	-0.000000	-0.000000	0.000000
1.870000	-0.000000	0.000000	-0.000000	-0.000000	0.000000	-0.000000	-0.000000	-0.000000	-0.000000	-0.000000	0.000000	-0.000000	-0.000000	0.000000	0.000000	0.000000	-0.000000	-0.000000	0.000000
1.880000	-0.000000	0.000000	-0.000000	-0.000000	0.000000	-0.000000	-0.000000	-0.000000	-0.000000	-0.000000	0.000000	-0.000000	-0.000000	0.000000	0.000000	0.000000	-0.000000	-0.000000	0.000000
1.890000	-0.000000	0.000000	-0.000000	-0.000000	0.000000	-0.000000	-0.000000	-0.000000	-0.000000	-0.000000	0.000000	-0.000000	-0.000000	0.000000	0.000000	0.000000	-0.000000	-0.000000	0.000000
1.900000	-0.000000	0.000000	-0.000000	-0.000000	0.000000	-0.000000	-0.000000	-0.000000	-0.000000	-0.000000	0.000000	-0.000000	-0.000000	0.000000	0.000000	0.000000	-0.000000	-0.000000	0.000000
1.910000	-0.000000	0.000000	-0.000000	-0.000000	0.000000	-0.000000	-0.000000	-0.000000	-0.000000	-0.000000	0.000000	-0.000000	-0.000000	0.000000	0.000000	0.000000	-0.000000	-0.000000	0.000000
1.920000	-0.000000	0.000000	-0.000000	-0.000000	0.000000	-0.000000	-0.000000	-0.000000	-0.000000	-0.000000	0.000000	-0.000000	-0.000000	0.000000	0.000000	0.000000	-0.000000	-0.000000	0.000000
1.930000	-0.000000	0.000000	-0.000000	-0.000000	0.000000	-0.000000	-0.000000	-0.000000	-0.000000	-0.000000	0.000000	-0.000000	-0.000000	0.000000	0.000000	0.000000	-0.000000	-0.000000	0.000000
1.940000	-0.000000	0.000000	-0.000000	-0.000000	0.000000	-0.000000	-0.000000	-0.000000	-0.000000	-0.000000	0.000000	-0.000000	-0.000000	0.000000	0.000000	0.000000	-0.000000	-0.000000	0.000000
1.950000	-0.000000	0.000000	-0.000000	-0.000000	0.000000	-0.000000	-0.000000	-0.000000	-0.000000	-0.000000	0.000000	-0.000000	-0.000000	0.000000	0.000000	0.000000	-0.000000	-0.000000	0.000000
1.960000	-0.000000	0.000000	-0.000000	-0.000000	0.000000	-0.000000	-0.000000	-0.000000	-0.000000	-0.000000	0.000000	-0.000000	-0.000000	0.000000	0.000000	0.000000	-0.000000	-0.000000	0.000000
1.970000	-0.000000	0.000000	-0.000000	-0.000000	0.000000	-0.000000	-0.000000	-0.000000	-0.000000	-0.000000	0.000000	-0.000000	-0.000000	0.000000	0.000000	0.000000	-0.000000	-0.000000	0.000000
1.980000	-0.000000	0.000000	-0.000000	-0.000000	0.000000	-0.000000	-0.000000	-0.000000	-0.000000	-0.000000	0.000000	-0.000000	-0.000000	0.000000	0.000000	0.000000	-0.000000	-0.000000	0.000000
1.990000	-0.000000	0.000000	-0.000000	-0.000000	0.000000	-0.000000	-0.000000	-0.000000	-0.000000	-0.000000	0.000000	-0.000000	-0.000000	0.000000	0.000000	0.000000	-0.000000	-0.000000	0.000000
2.000000	-0.000000	0.000000	-0.000000	-0.000000	0.000000	-0.000000	-0.000000	-0.000000	-0.000000	-0.000000	0.000000	-0.000000	-0.000000	0.000000	0.000000	0.000000	-0.000000	-0.000000	0.000000
2.010000	-0.000000	0.000000	-0.000000	-0.000000	0.000000	-0.000000	-0.000000	-0.000000	-0.000000	-0.000000	0.000000	-0.000000	-0.000000	0.000000	0.000000	0.000000	-0.000000	-0.000000	0.000000
2.020000	-0.000000	0.000000	-0.000000	-0.000000	0.000000	-0.000000	-0.000000	-0.000000	-0.000000	-0.000000	0.000000	-0.000000	-0.000000	0.000000	0.000000	0.000000	-0.000000	-0.000000	0.000000
2.030000	-0.000000	0.000000	-0.000000	-0.000000	0.000000	-0.000000	-0.000000	-0.000000	-0.000000	-0.000000	0.000000	-0.000000	-0.000000	0.000000	0.000000	0.000000	-0.000000	-0.000000	0.000000
2.040000	-0.000000	0.000000	-0.000000	-0.000000	0.000000	-0.000000	-0.000000	-0.000000	-0.000000	-0.000000	0.000000	-0.000000	-0.000000	0.000000	0.000000	0.000000	-0.000000	-0.000000	0.000000
2.050000	-0.000000	0.000000	-0.000000	-0.000000	0.000000	-0.000000	-0.000000	-0.000000	-0.000000	-0.000000	0.000000	-0.000000	-0.000000	0.000000	0.000000	0.000000	-0.000000	-0.000000	0.000000
2.060000	-0.000000	0.000000	-0.000000	-0.000000	0.000000	-0.000000	-0.000000	-0.000000	-0.000000	-0.000000	0.000000	-0.000000	-0.000000	0.000000	0.000000	0.000000	-0.000000	-0.000000	0.000000
2.070000	-0.000000	0.000000	-0.000000	-0.000000	0.000000	-0.000000	-0.000000	-0.000000	-0.000000	-0.000000	0.000000	-0.000000	-0.000000	0.000000	0.000000	0.000000	-0.000000	-0.000000	0.000000
2.080000	-0.000000	0.000000	-0.000000	-0.000000	0.000000	-0.000000	-0.000000	-0.000000	-0.000000	-0.000000	0.000000	-0.000000	-0.000000	0.000000	0.000000	0.000000	-0.000000	-0.000000	0.000000
2.090000	-0.000000	0.000000	-0.000000	-0.000000	0.000000	-0.000000	-0.000000	-0.000000	-0.000000	-0.000000	0.000000	-0.000000	-0.000000	0.000000	0.000000	0.000000	-0.000000	-0.000000	0.000000
2.100000	-0.000000	0.000000	-0.000000	-0.000000	0.000000	-0.000000	-0.000000	-0.000000	-0.000000	-0.000000	0.000000	-0.000000	-0.000000	0.000000	0.000000	0.000000	-0.000000	-0.000000	0.000000
2.110000	-0.000000	0.000000	-0.000000	-0.000000	0.000000	-0.000000	-0.000000	-0.000000	-0.000000	-0.000000	0.000000	-0.000000	-0.000000	0.000000	0.000000	0.000000	-0.000000	-0.000000	0.000000
2.120000	-0.000000	0.000000	-0.000000	-0.000000	0.000000	-0.000000	-0.000000	-0.000000	-0.000000	-0.000000	0.000000	-0.000000	-0.000000	0.000000	0.000000	0.000000	-0.000000	-0.000000	0.000000
2.130000	-0.000000	0.000000	-0.000000	-0.000000	0.000000	-0.000000	-0.000000	-0.000000	-0.000000	-0.000000	0.000000	-0.000000	-0.000000	0.000000	0.000000	0.000000	-0.000000	-0.000000	0.000000
2.140000	-0.000000	0.000000	-0.000000	-0.000000	0.000000	-0.000000	-0.000000	-0.000000	-0.000000	-0.000000	0.000000	-0.000000	-0.000000	0.000000	0.000000	0.000000	-0.000000	-0.000000	0.000000
2.150000	-0.000000	0.000000	-0.000000	-0.000000	0.000000	-0.000000	-0.000000	-0.000000	-0.000000	-0.000000	0.000000	-0.000000	-0.000000	0.000000	0.000000	0.000000	-0.000000	-0.000000	0.000000
2.160000	-0.000000	0.000000	-0.000000	-0.000000	0.000000	-0.000000	-0.000000	-0.000000	-0.000000	-0.000000	0.000000	-0.000000	-0.000000	0.000000	0.000000	0.000000	-0.000000	-0.000000	0.000000
2.170000	-0.000000	0.000000	-0.000000	-0.000000	0.000000	-0.000000	-0.000000	-0.000000	-0.000000	-0.000000	0.000000	-0.000000	-0.000000	0.000000	0.000000	0.000000	-0.000000	-0.000000	0.000000
2.180000	-0.000000	0.000000	-0.000000	-0.000000	0.000000	-0.000000	-0.000000	-0.000000	-0.000000	-0.000000	0.000000	-0.000000	-0.000000	0.000000	0.000000	0.000000	-0.000000	-0.000000	0.000000
2.190000	-0.000000	0.000000	-0.000000	-0.000000	0.000000	-0.000000	-0.000000	-0.000000	-0.000000	-0.000000	0.000000	-0.000000	-0.000000	0.000000	0.000000	0.000000	-0.000000	-0.000000	0.000000
2.200000	-0.000000	0.000000	-0.000000	-0.000000	0.000000	-0.000000	-0.000000	-0.000000	-0.000000	-0.000000	0.000000	-0.000000	-0.000000	0.000000	0.000000	0.000000	-0.000000	-0.000000	0.000000
2.210000	-0.000000	0.000000	-0.000000	-0.000000	0.000000	-0.000000	-0.000000	-0.000000	-0.000000	-0.000000	0.000000	-0.000000	-0.000000	0.000000	0.000000	0.000000	-0.000000	-0.000000	0.000000
2.220000	-0.000000	0.000000	-0.000000	-0.000000	0.000000	-0.000000	-0.000000	-0.000000	-0.000000	-0.000000	0.000000	-0.000000	-0.000000	0.000000	0.000000	0.000000	-0.000000	-0.000000	0.000000
2.230000	-0.000000	0.000000	-0.000000	-0.000000	0.000000	-0.000000	-0.000000	-0.000000	-0.000000	-0.000000	0.000000	-0.000000	-0.000000	0.000000	0.000000	0.000000	-0.000000	-0.000000	0.000000
2.240000	-0.000000	0.000000	-0.000000	-0.000000	0.000000	-0.000000	-0.000000	-0.000000	-0.000000	-0.000000	0.000000	-0.000000	-0.000000	0.000000	0.000000	0.000000	-0.000000	-0.000000	0.000000
2.250000	-0.000000	0.000000	-0.000000	-0.000000	0.000000	-0.000000	-0.000000	-0.000000	-0.000000	-0.000000	0.000000	-0.000000	-0.000000	0.000000	0.000000	0.000000	-0.000000	-0.000000	0.000000
2.260000	-0.000000	0.000000	-0.000000	-0.000000	0.000000	-0.000000	-0.000000	-0.000000	-0.000000	-0.000000	0.000000	-0.000000	-0.000000	0.000000	0.000000	0.000000	-0.000000	-0.000000	0.000000
2.270000	-0.000000	0.000000	-0.000000	-0.000000	0.000000	-0.000000	-0.000000	-0.000000	-0.000000	-0.000000	0.000000	-0.000000	-0.000000	0.000000	0.000000	0.000000	-0.000000	-0.000000	0.000000
2.280000	-0.000000	0.000000	-0.000000	-0.000000	0.000000	-0.000000	-0.000000	-0.000000	-0.000000	-0.000000	0.000000	-0.000000	-0.000000	0.000000	0.000000	0.000000	-0.000000	-0.000000	0.000000
2.290000	-0.000000	0.000000	-0.000000	-0.000000	0.000000	-0.000000	-0.000000	-0.000000	-0.000000	-0.000000	0.000000	-0.000000	-0.000000	0.000000	0.000000	0.000000	-0.000000	-0.000000	0.000000
2.300000	-0.000000	0.000000	-0.000000	-0.000000	0.000000	-0.000000	-0.000000	-0.000000	-0.000000	-0.000000	0.000000	-0.000000	-0.000000	0.000000	0.000000	0.000000	-0.000000	-0.000000	0.000000
2.310000	-0.000000	0.000000	-0.000000	-0.000000	0.000000	-0.000000	-0.000000	-0.000000	-0.000000	-0.000000	0.000000	-0.000000	-0.000000	0.000000	0.000000	0.000000	-0.000000	-0.000000	0.000000
2.320000	-0.000000	0.000000	-0.000000	-0.000000	0.000000	-0.000000	-0.000000	-0.000000	-0.000000	-0.000000	0.000000	-0.000000	-0.000000	0.000000	0.000000	0.000000	-0.000000	-0.000000	0.000000
2.330000	-0.000000	0.000000	-0.000000	-0.000000	0.000000	-0.000000	-0.000000	-0.000000	-0.000000	-0.000000	0.000000	-0.000000	-0.000000	0.000000	0.000000	0.000000	-0.000000	-0.000000	0.000000
2.340000	-0.000000	0.000000	-0.000000	-0.000000	0.000000	-0.000000	-0.000000	-0.000000	-0.000000	-0.000000	0.000000	-0.000000	-0.000000	0.000000	0.000000	0.000000	-0.000000	-0.000000	0.000000
2.350000	-0.000000	0.000000	-0.000000	-0.000000	0.000000	-0.000000	-0.000000	-0.000000	-0.000000	-0.000000	0.000000	-0.000000	-0.000000	0.000000	0.000000	0.000000	-0.000000	-0.000000	0.000000
2.360000	-0.000000	0.000000	-0.000000	-0.000000	0.000000	-0.000000	-0.000000	-0.000000	-0.000000	-0.000000	0.000000	-0.000000	-0.000000	0.000000	0.000000	0.000000	-0.000000	-0.000000	0.000000
2.370000	-0.000000	0.000000	-0.000000	-0.000000	0.000000	-0.000000	-0.000000	-0.000000	-0.000000	-0.000000	0.000000	-0.000000	-0.000000	0.000000	0.000000	0.000000	-0.000000	-0.000000	0.000000
2.380000	-0.000000	0.000000	-0.000000	-0.000000	0.000000	-0.000000	-0.000000	-0.000000	-0.000000	-0.000000	0.000000	-0.000000	-0.000000	0.000000	0.000000	0.000000	-0.000000	-0.000000	0.000000
2.390000	-0.000000	0.000000	-0.000000	-0.000000	0.000000	-0.000000	-0.000000	-0.000000	-0.000000	-0.000000	0.000000	-0.000000	-0.000000	0.000000	0.000000	0.000000	-0.000000	-0.000000	0.000000
2.400000	-0.000000	0.000000	-0.000000	-0.000000	0.000000	-0.000000	-0.000000	-0.000000	-0.000000	-0.000000	0.000000	-0.000000	-0.000000	0.000000	0.000000	0.000000	-0.000000	-0.000000	0.000000
2.410000	-0.000000	0.000000	-0.000000	-0.000000	0.000000	-0.000000	-0.000000	-0.000000	-0.000000	-0.000000	0.000000	-0.000000	-0.000000	0.000000	0.000000	0.000000	-0.000000	-0.000000	0.000000
2.420000	-0.000000	0.000000	-0.000000	-0.000000	0.000000	-0.000000	-0.000000	-0.000000	-0.000000	-0.000000	0.000000	-0.000000	-0.000000	0.000000	0.000000	0.000000	-0.000000	-0.000000	0.000000
2.430000	-0.000000	0.000000	-0.000000	-0.000000	0.000000	-0.000000	-0.000000	-0.000000	-0.000000	-0.000000	0.000000	-0.000000	-0.000000	0.000000	0.000000	0.000000	-0.000000	-0.000000	0.000000
2.440000	-0.000000	0.000000	-0.000000	-0.000000	0.000000	-0.000000	-0.000000	-0.000000	-0.000000	-0.000000	0.000000	-0.000000	-0.000000	0.000000	0.000000	0.000000	-0.000000	-0.000000	0.000000
2.450000	-0.000000	0.000000	-0.000000	-0.000000	0.000000	-0.000000	-0.000000	-0.000000	-0.000000	-0.000000	0.000000	-0.000000	-0.000000	0.000000	0.000000	0.000000	-0.000000	-0.000000	0.000000
2.460000	-0.000000	0.000000	-0.000000	-0.000000	0.000000	-0.000000	-0.000000	-0.000000	-0.000000	-0.000000	0.000000	-0.000000	-0.000000	0.000000	0.000000	0.000000	-0.000000	-0.000000	0.000000
2.470000	-0.000000	0.000000	-0.000000	-0.000000	0.000000	-0.000000	-0.000000	-0.000000	-0.000000	-0.000000	0.000000	-0.000000	-0.000000	0.000000	0.000000	0.000000	-0.000000	-0.000000	0.000000
2.480000	-0.000000	0.000000	-0.000000	-0.000000	0.000000	-0.000000	-0.000000	-0.000000	-0.000000	-0.000000	0.000000	-0.000000	-0.000000	0.000000	0.000000	0.000000	-0.000000	-0.000000	0.000000
2.490000	-0.000000	0.000000	-0.000000	-0.000000	0.000000	-0.000000	-0.000000	-0.000000	-0.000000	-0.000000	0.000000	-0.000000	-0.000000	0.000000	0.000000	0.000000	-0.000000	-0.000000	0.000000
2.500000	-0.000000	0.000000	-0.000000	-0.000000	0.000000	-0.000000	-0.000000	-0.000000	-0.000000	-0.000000	0.000000	-0.000000	-0.000000	0.000000	0.000000	0.000000	-0.000000	-0.000000	0.000000
2.510000	-0.000000	0.000000	-0.000000	-0.000000	0.000000	-0.000000	-0.000000	-0.000000	-0.000000	-0.000000	0.000000	-0.000000	-0.000000	0.000000	0.000000	0.000000	-0.000000	-0.000000	0.000000
2.520000	-0.000000	0.000000	-0.000000	-0.000000	0.000000	-0.000000	-0.000000	-0.000000	-0.000000	-0.000000	0.000000	-0.000000	-0.000000	0.000000	0.000000	0.000000	-0.000000	-0.000000	0.000000
2.530000	-0.000000	0.000000	-0.000000	-0.000000	0.000000	-0.000000	-0.000000	-0.000000	-0.000000	-0.000000	0.000000	-0.000000	-0.000000	0.000000	0.000000	0.000000	-0.000000	-0.000000	0.000000
2.540000	-0.000000	0.000000	-0.000000	-0.000000	0.000000	-0.000000	-0.000000	-0.000000	-0.000000	-0.000000	0.000000	-0.000000	-0.000000	0.000000	0.000000	0.000000	-0.000000	-0.000000	0.000000
2.550000	-0.000000	0.000000	-0.000000	-0.000000	0.000000	-0.000000	-0.000000	-0.000000	-0.000000	-0.000000	0.000000	-0.000000	-0.000000	0.000000	0.000000	0.000000	-0.000000	-0.000000	0.000000
2.560000	-0.000000	0.000000	-0.000000	-0.000000	0.000000	-0.000000	-0.000000	-0.000000	-0.000000	-0.000000	0.000000	-0.000000	-0.000000	0.000000	0.000000	0.000000	-0.000000	-0.000000	0.000000
2.570000	-0.000000	0.000000	-0.000000	-0.000000	0.000000	-0.000000	-0.000000	-0.000000	-0.000000	-0.000000	0.000000	-0.000000	-0.000000	0.000000	0.000000	0.000000	-0.000000	-0.000000	0.000000
2.580000	-0.000000	0.000000	-0.000000	-0.000000	0.000000	-0.000000	-0.000000	-0.000000	-0.000000	-0.000000	0.000000	-0.000000	-0.000000	0.000000	0.000000	0.000000	-0.000000	-0.000000	0.000000
2.590000	-0.000000	0.000000	-0.000000	-0.000000	0.000000	-0.000000	-0.000000	-0.000000	-0.000000	-0.000000	0.000000	-0.000000	-0.000000	0.000000	0.000000	0.000000	-0.000000	-0.000000	0.000000
2.600000	-0.000000	0.000000	-0.000000	-0.000000	0.000000	-0.000000	-0.000000	-0.000000	-0.000000	-0.000000	0.000000	-0.000000	-0.000000	0.000000	0.000000	0.000000	-0.000000	-0.000000	0.000000
2.610000	-0.000000	0.000000	-0.000000	-0.000000	0.000000	-0.000000	-0.000000	-0.000000	-0.000000	-0.000000	0.000000	-0.000000	-0.000000	0.000000	0.000000	0.000000	-0.000000	-0.000000	0.000000
2.620000	-0.000000	0.000000	-0.000000	-0.000000	0.000000	-0.000000	-0.000000	-0.000000	-0.000000	-0.000000	0.000000	-0.000000	-0.000000	0.000000	0.000000	0.000000	-0.000000	-0.000000	0.000000
2.630000	-0.000000	0.000000	-0.000000	-0.000000	0.000000	-0.000000	-0.000000	-0.000000	-0.000000	-0.000000	0.000000	-0.000000	-0.000000	0.000000	0.000000	0.000000	-0.000000	-0.000000	0.000000
2.640000	-0.000000	0.000000	-0.000000	-0.000000	0.000000	-0.000000	-0.000000	-0.000000	-0.000000	-0.000000	0.000000	-0.000000	-0.000000	0.000000	0.000000	0.000000	-0.000000	-0.000000	0.000000
2.650000	-0.000000	0.000000	-0.000000	-0.000000	0.000000	-0.000000	-0.000000	-0.000000	-0.000000	-0.000000	0.000000	-0.000000	-0.000000	0.000000	0.000000	0.000000	-0.000000	-0.000000	0.000000
2.660000	-0.000000	0.000000	-0.000000	-0.000000	0.000000	-0.000000	-0.000000	-0.000000	-0.000000	-0.000000	0.000000	-0.000000	-0.000000	0.000000	0.000000	0.000000	-0.000000	-0.000000	0.000000
2.670000	-0.000000	0.000000	-0.000000	-0.000000	0.000000	-0.000000	-0.000000	-0.000000	-0.000000	-0.000000	0.000000	-0.000000	-0.000000	0.000000	0.000000	0.000000	-0.000000	-0.000000	0.000000
2.680000	-0.000000	0.000000	-0.000000	-0.000000	0.000000	-0.000000	-0.000000	-0.000000	-0.000000	-0.000000	0.000000	-0.000000	-0.000000	0.000000	0.000000	0.000000	-0.000000	-0.000000	0.000000
2.690000	-0.000000	0.000000	-0.000000	-0.000000	0.000000	-0.000000	-0.000000	-0.000000	-0.000000	-0.000000	0.000000	-0.000000	-0.000000	0.000000	0.000000	0.000000	-0.000000	-0.000000	0.000000
2.700000	-0.000000	0.000000	-0.000000	-0.000000	0.000000	-0.000000	-0.000000	-0.000000	-0.000000	-0.000000	0.000000	-0.000000	-0.000000	0.000000	0.000000	0.000000	-0.000000	-0.000000	0.000000
2.710000	-0.000000	0.000000	-0.000000	-0.000000	0.000000	-0.000000	-0.000000	-0.000000	-0.000000	-0.000000	0.000000	-0.000000	-0.000000	0.000000	0.000000	0.000000	-0.000000	-0.000000	0.000000
2.720000	-0.000000	0.000000	-0.000000	-0.000000	0.000000	-0.000000	-0.000000	-0.000000	-0.000000	-0.000000	0.000000	-0.000000	-0.000000	0.000000	0.000000	0.000000	-0.000000	-0.000000	0.000000
2.730000	-0.000000	0.000000	-0.000000	-0.000000	0.000000	-0.000000	-0.000000	-0.000000	-0.000000	-0.000000	0.000000	-0.000000	-0.000000	0.000000	0.000000	0.000000	-0.000000	-0.000000	0.000000
2.740000	-0.000000	0.000000	-0.000000	-0.000000	0.000000	-0.000000	-0.000000	-0.000000	-0.000000	-0.000000	0.000000	-0.000000	-0.000000	0.000000	0.000000	0.000000	-0.000000	-0.000000	0.000000
2.750000	-0.000000	0.000000	-0.000000	-0.000000	0.000000	-0.000000	-0.000000	-0.000000	-0.000000	-0.000000	0.000000	-0.000000	-0.000000	0.000000	0.000000	0.000000	-0.000000	-0.000000	0.000000
2.760000	-0.000000	0.000000	-0.000000	-0.000000	0.000000	-0.000000	-0.000000	-0.000000	-0.000000	-0.000000	0.000000	-0.000000	-0.000000	0.000000	0.000000	0.000000	-0.000000	-0.000000	0.000000
2.770000	-0.000000	0.000000	-0.000000	-0.000000	0.000000	-0.000000	-0.000000	-0.000000	-0.000000	-0.000000	0.000000	-0.000000	-0.000000	0.000000	0.000000	0.000000	-0.000000	-0.000000	0.000000
2.780000	-0.000000	0.000000	-0.000000	-0.000000	0.000000	-0.000000	-0.000000	-0.000000	-0.000000	-0.000000	0.000000	-0.000000	-0.000000	0.000000	0.000000	0.000000	-0.000000	-0.000000	0.000000
2.790000	-0.000000	0.000000	-0.000000	-0.000000	0.000000	-0.000000	-0.000000	-0.000000	-0.000000	-0.000000	0.000000	-0.000000	-0.000000	0.000000	0.000000	0.000000	-0.000000	-0.000000	0.000000
2.800000	-0.000000	0.000000	-0.000000	-0.000000	0.000000	-0.000000	-0.000000	-0.000000	-0.000000	-0.000000	0.000000	-0.000000	-0.000000	0.000000	0.000000	0.000000	-0.000000	-0.000000	0.000000
2.810000	-0.000000	0.000000	-0.000000	-0.000000	0.000000	-0.000000	-0.000000	-0.000000	-0.000000	-0.000000	0.000000	-0.000000	-0.000000	0.000000	0.000000	0.000000	-0.000000	-0.000000	0.000000
2.820000	-0.000000	0.000000	-0.000000	-0.000000	0.000000	-0.000000	-0.000000	-0.000000	-0.000000	-0.000000	0.000000	-0.000000	-0.000000	0.000000	0.000000	0.000000	-0.000000	-0.000000	0.000000
2.830000	-0.000000	0.000000	-0.000000	-0.000000	0.000000	-0.000000	-0.000000	-0.000000	-0.000000	-0.000000	0.000000	-0.000000	-0.000000	0.000000	0.000000	0.000000	-0.000000	-0.000000	0.000000
2.840000	-0.000000	0.000000	-0.000000	-0.000000	0.000000	-0.000000	-0.000000	-0.000000	-0.000000	-0.000000	0.000000	-0.000000	-0.000000	0.000000	0.000000	0.000000	-0.000000	-0.000000	0.000000
2.850000	-0.000000	0.000000	-0.000000	-0.000000	0.000000	-0.000000	-0.000000	-0.000000	-0.000000	-0.000000	0.000000	-0.000000	-0.000000	0.000000	0.000000	0.000000	-0.000000	-0.000000	0.000000
2.860000	-0.000000	0.000000	-0.000000	-0.000000	0.000000	-0.000000	-0.000000	-0.000000	-0.000000	-0.000000	0.000000	-0.000000	-0.000000	0.000000	0.000000	0.000000	-0.000000	-0.000000	0.000000
2.870000	-0.000000	0.000000	-0.000000	-0.000000	0.000000	-0.000000	-0.000000	-0.000000	-0.000000	-0.000000	0.000000	-0.000000	-0.000000	0.000000	0.000000	0.000000	-0.000000	-0.000000	0.000000
2.880000	-0.000000	0.000000	-0.000000	-0.000000	0.000000	-0.000000	-0.000000	-0.000000	-0.000000	-0.000000	0.000000	-0.000000	-0.000000	0.000000	0.000000	0.000000	-0.000000	-0.000000	0.000000
2.890000	-0.000000	0.000000	-0.000000	-0.000000	0.000000	-0.000000	-0.000000	-0.000000	-0.000000	-0.000000	0.000000	-0.000000	-0.000000	0.000000	0.000000	0.000000	-0.000000	-0.000000	0.000000
2.900000	-0.000000	0.000000	-0.000000	-0.000000	0.000000	-0.000000	-0.000000	-0.000000	-0.000000	-0.000000	0.000000	-0.000000	-0.000000	0.000000	0.000000	0.000000	-0.000000	-0.000000	0.000000
2.910000	-0.000000	0.000000	-0.000000	-0.000000	0.000000	-0.000000	-0.000000	-0.000000	-0.000000	-0.000000	0.000000	-0.000000	-0.000000	0.000000	0.000000	0.000000	-0.000000	-0.000000	0.000000
2.920000	-0.000000	0.000000	-0.000000	-0.000000	0.000000	-0.000000	-0.000000	-0.000000	-0.000000	-0.000000	0.000000	-0.000000	-0.000000	0.000000	0.000000	0.000000	-0.000000	-0.000000	0.000000
2.930000	-0.000000	0.000000	-0.000000	-0.000000	0.000000	-0.000000	-0.000000	-0.000000	-0.000000	-0.000000	0.000000	-0.000000	-0.000000	0.000000	0.000000	0.000000	-0.000000	-0.000000	0.000000
2.940000	-0.000000	0.000000	-0.000000	-0.000000	0.000000	-0.000000	-0.000000	-0.000000	-0.000000	-0.000000	0.000000	-0.000000	-0.000000	0.000000	0.000000	0.000000	-0.000000	-0.000000	0.000000
2.950000	-0.000000	0.000000	-0.000000	-0.000000	0.000000	-0.000000	-0.000000	-0.000000	-0.000000	-0.000000	0.000000	-0.000000	-0.000000	0.000000	0.000000	0.000000	-0.000000	-0.000000	0.000000
2.960000	-0.000000	0.000000	-0.000000	-0.000000	0.000000	-0.000000	-0.000000	-0.000000	-0.000000	-0.000000	0.000000	-0.000000	-0.000000	0.000000	0.000000	0.000000	-0.000000	-0.000000	0.000000
2.970000	-0.000000	0.000000	-0.000000	-0.000000	0.000000	-0.000000	-0.000000	-0.000000	-0.000000	-0.000000	0.000000	-0.000000	-0.000000	0.000000	0.000000	0.000000	-0.000000	-0.000000	0.000000
2.980000	-0.000000	0.000000	-0.000000	-0.000000	0.000000	-0.000000	-0.000000	-0.000000	-0.000000	-0.000000	0.000000	-0.000000	-0.000000	0.000000	0.000000	0.000000	-0.000000	-0.000000	0.000000
2.990000	-0.000000	0.000000	-0.000000	-0.000000	0.000000	-0.000000	-0.000000	-0.000000	-0.000000	-0.000000	0.000000	-0.000000	-0.000000	0.000000	0.000000	0.000000	-0.000000	-0.000000	0.000000
3.000000	-0.000000	0.000000	-0.000000	-0.000000	0.000000	-0.000000	-0.000000	-0.000000	-0.000000	-0.000000	0.000000	-0.000000	-0.000000	0.000000	0.000000	0.000000	-0.000000	-0.000000	0.000000
3.010000	-0.000000	0.000000	-0.000000	-0.000000	0.000000	-0.000000	-0.000000	-0.000000	-0.000000	-0.000000	0.000000	-0.000000	-0.000000	0.000000	0.000000	0.000000	-0.000000	-0.000000	0.000000
3.020000	-0.000000	0.000000	-0.000000	-0.000000	0.000000	-0.000000	-0.000000	-0.000000	-0.000000	-0.000000	0.000000	-0.000000	-0.000000	0.000000	0.000000	0.000000	-0.000000	-0.000000	0.000000
3.030000	-0.000000	0.000000	-0.000000	-0.000000	0.000000	-0.000000	-0.000000	-0.000000	-0.000000	-0.000000	0.000000	-0.000000	-0.000000	0.000000	0.000000	0.000000	-0.000000	-0.000000	0.000000
3.040000	-0.000000	0.000000	-0.000000	-0.000000	0.000000	-0.000000	-0.000000	-0.000000	-0.000000	-0.000000	0.000000	-0.000000	-0.000000	0.000000	0.000000	0.000000	-0.000000	-0.000000	0.000000
3.050000	-0.000000	0.000000	-0.000000	-0.000000	0.000000	-0.000000	-0.000000	-0.000000	-0.000000	-0.000000	0.000000	-0.000000	-0.000000	0.000000	0.000000	0.000000	-0.000000	-0.000000	0.000000
3.060000	-0.000000	0.000000	-0.000000	-0.000000	0.000000	-0.000000	-0.000000	-0.000000	-0.000000	-0.000000	0.000000	-0.000000	-0.000000	0.000000	0.000000	0.000000	-0.000000	-0.000000	0.000000
3.070000	-0.000000	0.000000	-0.000000	-0.000000	0.000000	-0.000000	-0.000000	-0.000000	-0.000000	-0.000000	0.000000	-0.000000	-0.000000	0.000000	0.000000	0.000000	-0.000000	-0.000000	0.000000
3.080000	-0.000000	0.000000	-0.000000	-0.000000	0.000000	-0.000000	-0.000000	-0.000000	-0.000000	-0.000000	0.000000	-0.000000	-0.000000	0.000000	0.000000	0.000000	-0.000000	-0.000000	0.000000
3.090000	-0.000000	0.000000	-0.000000	-0.000000	0.000000	-0.000000	-0.000000	-0.000000	-0.000000	-0.000000	0.000000	-0.000000	-0.000000	0.000000	0.000000	0.000000	-0.000000	-0.000000	0.000000
3.100000	-0.000000	0.000000	-0.000000	-0.000000	0.000000	-0.000000	-0.000000	-0.000000	-0.000000	-0.000000	0.000000	-0.000000	-0.000000	0.000000	0.000000	0.000000	-0.000000	-0.000000	0.000000
3.110000	-0.000000	0.000000	-0.000000	-0.000000	0.000000	-0.000000	-0.000000	-0.000000	-0.000000	-0.000000	0.000000	-0.000000	-0.000000	0.000000	0.000000	0.000000	-0.000000	-0.000000	0.000000
3.120000	-0.000000	0.000000	-0.000000	-0.000000	0.000000	-0.000000	-0.000000	-0.000000	-0.000000	-0.000000	0.000000	-0.000000	-0.000000	0.000000	0.000000	0.000000	-0.000000	-0.000000	0.000000
3.130000	-0.000000	0.000000	-0.000000	-0.000000	0.000000	-0.000000	-0.000000	-0.000000	-0.000000	-0.000000	0.000000	-0.000000	-0.000000	0.000000	0.000000	0.000000	-0.000000	-0.000000	0.000000
3.140000	-0.000000	0.000000	-0.000000	-0.000000	0.000000	-0.000000	-0.000000	-0.000000	-0.000000	-0.000000	0.000000	-0.000000	-0.000000	0.000000	0.000000	0.000000	-0.000000	-0.000000	0.000000
3.150000	-0.000000	0.000000	-0.000000	-0.000000	0.000000	-0.000000	-0.000000	-0.000000	-0.000000	-0.000000	0.000000	-0.000000	-0.000000	0.000000	0.000000	0.000000	-0.000000	-0.000000	0.000000
3.160000	-0.000000	0.000000	-0.000000	-0.000000	0.000000	-0.000000	-0.000000	-0.000000	-0.000000	-0.000000	0.000000	-0.000000	-0.000000	0.000000	0.000000	0.000000	-0.000000	-0.000000	0.000000
3.170000	-0.000000	0.000000	-0.000000	-0.000000	0.000000	-0.000000	-0.000000	-0.000000	-0.000000	-0.000000	0.000000	-0.000000	-0.000000	0.000000	0.000000	0.000000	-0.000000	-0.000000	0.000000
