RSLDJ_XZ.mot
version=1
datacolumns 20
datarows 304
range 0.00000 3.03000
inDegrees=yes
endheader
time	pelvis_tilt	pelvis_list	pelvis_rotation	hip_flexion_r	hip_adduction_r	hip_rotation_r	knee_angle_r	ankle_angle_r	hip_flexion_l	hip_adduction_l	hip_rotation_l	knee_angle_l	ankle_angle_l	pelvis_tx	pelvis_ty	pelvis_tz	lumbar_bending	lumbar_rotation	lumbar_extension
0.000000	-16.703703	1.351383	-0.863870	15.671863	7.745012	-7.912747	-10.605360	10.859447	31.672363	-5.493977	2.435164	-62.293762	0.361769	-0.106805	1.265323	0.272311	-0.000000	-0.000000	0.000000
0.010000	-16.915590	1.607932	-0.788706	15.915637	7.475660	-7.802067	-10.741088	11.027590	31.859668	-5.185987	2.472122	-62.307423	0.287983	-0.106187	1.265345	0.272511	-0.000000	-0.000000	0.000000
0.020000	-16.873557	1.932114	-0.704648	15.933649	7.086395	-7.751277	-11.044632	11.607601	31.777744	-4.729839	2.531686	-62.420805	0.257753	-0.105335	1.265043	0.272476	-0.000000	-0.000000	0.000000
0.030000	-16.803752	2.031136	-0.703450	15.897913	6.967370	-7.734191	-11.201218	11.868637	31.693376	-4.598331	2.486587	-62.507757	0.305288	-0.104915	1.264799	0.272417	-0.000000	-0.000000	0.000000
0.040000	-16.747018	2.144535	-0.710505	15.890637	6.838268	-7.697078	-11.403868	12.166906	31.622987	-4.460245	2.400156	-62.621884	0.371173	-0.104363	1.264489	0.272374	-0.000000	-0.000000	0.000000
0.050000	-16.724411	2.266580	-0.724634	15.939536	6.708774	-7.634086	-11.660024	12.489379	31.592995	-4.326047	2.273651	-62.764299	0.445595	-0.103679	1.264118	0.272367	-0.000000	-0.000000	0.000000
0.060000	-16.746268	2.385055	-0.742816	16.061374	6.593207	-7.549219	-11.975495	12.821214	31.620612	-4.210100	2.125742	-62.936380	0.517253	-0.102884	1.263692	0.272411	-0.000000	-0.000000	0.000000
0.070000	-16.811386	2.485096	-0.761524	16.259807	6.506338	-7.454024	-12.353924	13.150375	31.710789	-4.126746	1.986675	-63.139361	0.578646	-0.102007	1.263212	0.272507	-0.000000	-0.000000	0.000000
0.080000	-16.910138	2.553075	-0.779013	16.528165	6.460588	-7.362072	-12.797388	13.471154	31.857283	-4.087554	1.885756	-63.372869	0.629173	-0.101077	1.262679	0.272646	-0.000000	-0.000000	0.000000
0.090000	-17.030879	2.580470	-0.796014	16.856407	6.462792	-7.282796	-13.307853	13.785414	32.048051	-4.097834	1.838515	-63.633334	0.674185	-0.100114	1.262089	0.272811	-0.000000	-0.000000	0.000000
0.100000	-17.164989	2.567114	-0.814270	17.236864	6.510808	-7.217923	-13.887986	14.100206	32.270487	-4.153382	1.841776	-63.912884	0.720715	-0.099126	1.261442	0.272984	-0.000000	-0.000000	0.000000
0.110000	-17.306639	2.521782	-0.834449	17.664223	6.592717	-7.162947	-14.540789	14.423155	32.512461	-4.240279	1.880920	-64.199893	0.772549	-0.098117	1.260742	0.273143	-0.000000	-0.000000	0.000000
0.120000	-17.451626	2.459261	-0.855363	18.134284	6.689871	-7.110556	-15.268769	14.760256	32.763088	-4.338666	1.941259	-64.481734	0.828071	-0.097094	1.259991	0.273277	-0.000000	-0.000000	0.000000
0.130000	-17.598292	2.395611	-0.874969	18.644553	6.782108	-7.053269	-16.073163	15.116073	33.015459	-4.428454	2.015184	-64.748786	0.881722	-0.096060	1.259193	0.273377	-0.000000	-0.000000	0.000000
0.140000	-17.748411	2.343851	-0.892262	19.194754	6.853117	-6.985266	-16.953220	15.493039	33.268819	-4.494810	2.103063	-64.997990	0.927012	-0.095014	1.258340	0.273441	-0.000000	-0.000000	0.000000
0.150000	-17.906151	2.310690	-0.909376	19.785439	6.895267	-6.903694	-17.905294	15.889446	33.527948	-4.532749	2.209444	-65.234400	0.958979	-0.093944	1.257418	0.273475	-0.000000	-0.000000	0.000000
0.160000	-18.075731	2.295386	-0.932517	20.415414	6.911738	-6.809286	-18.921958	16.298672	33.799950	-4.548651	2.337759	-65.469204	0.975300	-0.092829	1.256407	0.273491	-0.000000	-0.000000	0.000000
0.170000	-18.259386	2.291846	-0.970311	21.079920	6.913836	-6.705766	-19.991906	16.711048	34.090458	-4.556686	2.486339	-65.714596	0.976302	-0.091646	1.255285	0.273504	-0.000000	-0.000000	0.000000
0.180000	-18.456161	2.292968	-1.030423	21.770114	6.914695	-6.598425	-21.100772	17.116947	34.401110	-4.571810	2.646771	-65.978674	0.964148	-0.090377	1.254041	0.273528	-0.000000	-0.000000	0.000000
0.190000	-18.661839	2.294545	-1.116733	22.473879	6.923230	-6.492876	-22.232456	17.509306	34.729418	-4.603386	2.804460	-66.263360	0.941758	-0.089014	1.252677	0.273574	-0.000000	-0.000000	0.000000
0.200000	-18.869853	2.296214	-1.228293	23.177608	6.942111	-6.394548	-23.370836	17.884159	35.070416	-4.652946	2.942108	-66.565728	0.912643	-0.087568	1.251210	0.273646	-0.000000	-0.000000	0.000000
0.210000	-19.072716	2.299647	-1.359670	23.868307	6.969722	-6.308787	-24.501725	18.238907	35.418600	-4.715987	3.046242	-66.880759	0.881912	-0.086061	1.249664	0.273745	-0.000000	-0.000000	0.000000
0.220000	-19.264564	2.306331	-1.502483	24.536312	7.002994	-6.240475	-25.614305	18.571074	35.770067	-4.785246	3.112301	-67.203441	0.857485	-0.084518	1.248069	0.273871	-0.000000	-0.000000	0.000000
0.230000	-19.444538	2.316632	-1.647858	25.178221	7.039023	-6.192523	-26.701430	18.879291	36.124749	-4.853727	3.144257	-67.529168	0.849822	-0.082951	1.246454	0.274022	-0.000000	-0.000000	0.000000
0.240000	-19.617934	2.329406	-1.788927	25.797160	7.076242	-6.164536	-27.758628	19.164244	36.486624	-4.917689	3.151153	-67.852961	0.868997	-0.081358	1.244842	0.274194	-0.000000	-0.000000	0.000000
0.250000	-19.793566	2.341358	-1.922835	26.399329	7.116108	-6.152802	-28.782395	19.428914	36.861464	-4.979590	3.143419	-68.169242	0.920208	-0.079722	1.243253	0.274384	-0.000000	-0.000000	0.000000
0.260000	-19.978893	2.347975	-2.050960	26.988833	7.162527	-6.152076	-29.768941	19.678971	37.253528	-5.047457	3.130359	-68.473118	1.001467	-0.078023	1.241697	0.274586	-0.000000	-0.000000	0.000000
0.270000	-20.174680	2.346237	-2.176491	27.562486	7.217838	-6.158990	-30.713700	19.921354	37.662011	-5.129494	3.121172	-68.762663	1.107479	-0.076249	1.240179	0.274793	-0.000000	-0.000000	0.000000
0.280000	-20.374301	2.336704	-2.302211	28.109283	7.279618	-6.172710	-31.611525	20.164581	38.081135	-5.229063	3.123351	-69.041203	1.237437	-0.074399	1.238695	0.275000	-0.000000	-0.000000	0.000000
0.290000	-20.569847	2.323605	-2.430145	28.616712	7.341160	-6.190146	-32.457323	20.423252	38.505863	-5.343483	3.134042	-69.317963	1.399608	-0.072469	1.237243	0.275202	-0.000000	-0.000000	0.000000
0.300000	-20.755025	2.312524	-2.559359	29.073510	7.393805	-6.203411	-33.245351	20.712168	38.933817	-5.464293	3.141975	-69.605305	1.608268	-0.070456	1.235822	0.275399	-0.000000	-0.000000	0.000000
0.310000	-20.920972	2.307410	-2.682597	29.465557	7.429155	-6.204254	-33.967708	21.026017	39.359656	-5.577631	3.146336	-69.913259	1.875114	-0.068354	1.234448	0.275592	-0.000000	-0.000000	0.000000
0.320000	-21.056701	2.309625	-2.788976	29.778160	7.442331	-6.187487	-34.616073	21.330906	39.773802	-5.668087	3.163288	-70.245529	2.202295	-0.066163	1.233152	0.275784	-0.000000	-0.000000	0.000000
0.330000	-21.157041	2.318594	-2.871983	30.006819	7.435523	-6.149667	-35.186936	21.581123	40.169180	-5.726009	3.208061	-70.599135	2.581403	-0.063885	1.231969	0.275979	-0.000000	-0.000000	0.000000
0.340000	-21.227327	2.333232	-2.934274	30.163209	7.417411	-6.089198	-35.685823	21.742905	40.546009	-5.751714	3.277418	-70.966343	2.996280	-0.061514	1.230929	0.276180	-0.000000	-0.000000	0.000000
0.350000	-21.280146	2.353523	-2.985340	30.270226	7.398012	-6.010006	-36.126530	21.807243	40.910096	-5.753325	3.349990	-71.337414	3.426691	-0.059039	1.230049	0.276391	-0.000000	-0.000000	0.000000
0.360000	-21.327621	2.380352	-3.034009	30.349975	7.383209	-5.925049	-36.524785	21.786255	41.267701	-5.741248	3.404220	-71.703476	3.849462	-0.056448	1.229329	0.276615	-0.000000	-0.000000	0.000000
0.370000	-21.375359	2.415652	-3.081478	30.413249	7.370532	-5.855795	-36.890448	21.701005	41.621562	-5.721602	3.438257	-72.058162	4.237582	-0.053731	1.228757	0.276858	-0.000000	-0.000000	0.000000
0.380000	-21.421898	2.465248	-3.119949	30.456749	7.346768	-5.825250	-37.223458	21.573643	41.970556	-5.690844	3.470759	-72.397975	4.563276	-0.050880	1.228313	0.277134	-0.000000	-0.000000	0.000000
0.390000	-21.461471	2.540440	-3.136526	30.465910	7.290246	-5.847816	-37.514013	21.425420	42.311277	-5.635644	3.522334	-72.722398	4.807452	-0.047891	1.227980	0.277463	-0.000000	-0.000000	0.000000
0.400000	-21.488455	2.655840	-3.118700	30.421075	7.176783	-5.923664	-37.745303	21.278772	42.641250	-5.537907	3.591202	-73.034433	4.971266	-0.044758	1.227755	0.277866	-0.000000	-0.000000	0.000000
0.410000	-21.500431	2.825388	-3.058131	30.303372	6.985251	-6.040874	-37.896591	21.153116	42.961291	-5.381314	3.647177	-73.340121	5.077642	-0.041472	1.227652	0.278358	-0.000000	-0.000000	0.000000
0.420000	-21.496311	3.057784	-2.951888	30.095743	6.702248	-6.182149	-37.944685	21.048763	43.273210	-5.157523	3.655368	-73.645900	5.157180	-0.038029	1.227706	0.278940	-0.000000	-0.000000	0.000000
0.430000	-21.472856	3.353544	-2.802280	29.781338	6.324940	-6.331194	-37.864386	20.940758	43.575738	-4.869323	3.600732	-73.955758	5.232098	-0.034435	1.227974	0.279606	-0.000000	-0.000000	0.000000
0.440000	-21.423573	3.705710	-2.616063	29.342575	5.859934	-6.476098	-37.629158	20.797348	43.862375	-4.528495	3.487905	-74.270312	5.311607	-0.030699	1.228530	0.280347	-0.000000	-0.000000	0.000000
0.450000	-21.342046	4.103148	-2.403801	28.763645	5.320091	-6.611136	-37.212399	20.608913	44.123824	-4.151466	3.321889	-74.588162	5.397907	-0.026824	1.229452	0.281156	-0.000000	-0.000000	0.000000
0.460000	-21.227258	4.534933	-2.178497	28.034878	4.721080	-6.738487	-36.588444	20.396575	44.352425	-3.755009	3.093147	-74.906517	5.491613	-0.022793	1.230817	0.282034	-0.000000	-0.000000	0.000000
0.470000	-21.083651	4.994352	-1.952257	27.152186	4.077764	-6.867500	-35.732779	20.186115	44.541294	-3.351510	2.784594	-75.219228	5.588654	-0.018566	1.232688	0.282999	-0.000000	-0.000000	0.000000
0.480000	-20.918511	5.479671	-1.733583	26.115168	3.403609	-7.010361	-34.623674	19.972621	44.682126	-2.947641	2.387969	-75.515682	5.675647	-0.014085	1.235120	0.284080	-0.000000	-0.000000	0.000000
0.490000	-20.741708	5.992480	-1.526265	24.929686	2.712160	-7.175425	-33.247181	19.705071	44.767909	-2.546287	1.911722	-75.783060	5.730918	-0.009293	1.238150	0.285311	-0.000000	-0.000000	0.000000
0.500000	-20.564588	6.537498	-1.328039	23.611072	2.014752	-7.359334	-31.604963	19.296791	44.796215	-2.145795	1.378600	-76.010209	5.730791	-0.004154	1.241798	0.286723	-0.000000	-0.000000	0.000000
0.510000	-20.399397	7.122675	-1.131155	22.188542	1.316717	-7.544695	-29.723327	18.655907	44.772639	-1.739078	0.813752	-76.192078	5.661280	0.001343	1.246060	0.288339	-0.000000	-0.000000	0.000000
0.520000	-20.260160	7.755259	-0.926960	20.710153	0.619017	-7.705864	-27.660201	17.716349	44.713758	-1.318662	0.232540	-76.333454	5.527148	0.007173	1.250907	0.290161	-0.000000	-0.000000	0.000000
0.530000	-20.158316	8.433780	-0.711796	19.239501	-0.075062	-7.813830	-25.506367	16.445592	44.641493	-0.885429	-0.355803	-76.448557	5.345680	0.013283	1.256288	0.292171	-0.000000	-0.000000	0.000000
0.540000	-20.098423	9.141577	-0.490520	17.849921	-0.754668	-7.840172	-23.382532	14.836937	44.574810	-0.454012	-0.937160	-76.556849	5.133848	0.019600	1.262135	0.294324	-0.000000	-0.000000	0.000000
0.550000	-20.080725	9.847716	-0.276068	16.624288	-1.402635	-7.764818	-21.435268	12.907737	44.527729	-0.049937	-1.492963	-76.678066	4.903839	0.026041	1.268368	0.296550	-0.000000	-0.000000	0.000000
0.560000	-20.100078	10.514345	-0.086381	15.648671	-2.001669	-7.580005	-19.828755	10.696746	44.505038	0.299727	-2.005223	-76.828090	4.661356	0.032524	1.274898	0.298761	-0.000000	-0.000000	0.000000
0.570000	-20.141853	11.104467	0.059975	14.999924	-2.539139	-7.290645	-18.729597	8.255758	44.497599	0.575293	-2.456277	-77.017453	4.405699	0.038964	1.281626	0.300857	-0.000000	-0.000000	0.000000
0.580000	-20.188275	11.586673	0.150453	14.741183	-3.006931	-6.920446	-18.286491	5.648929	44.490601	0.768977	-2.827329	-77.253739	4.140848	0.045278	1.288449	0.302740	-0.000000	-0.000000	0.000000
0.590000	-20.226448	11.938241	0.183567	14.917095	-3.399453	-6.514750	-18.606436	2.959689	44.473550	0.885582	-3.099338	-77.544330	3.886041	0.051404	1.295256	0.304331	-0.000000	-0.000000	0.000000
0.600000	-20.241710	12.149169	0.164624	15.535583	-3.714483	-6.125364	-19.730365	0.295031	44.433593	0.939860	-3.258733	-77.895835	3.669661	0.057297	1.301923	0.305581	-0.000000	-0.000000	0.000000
0.610000	-20.207573	12.226468	0.096277	16.551147	-3.957075	-5.789344	-21.614339	-2.214282	44.344361	0.952756	-3.306036	-78.311659	3.515255	0.062928	1.308305	0.306471	-0.000000	-0.000000	0.000000
0.620000	-20.093251	12.194912	-0.023294	17.872019	-4.142256	-5.525766	-24.122068	-4.417954	44.173308	0.949368	-3.259047	-78.791630	3.437135	0.068293	1.314243	0.307015	-0.000000	-0.000000	0.000000
0.630000	-19.881361	12.091995	-0.195449	19.384029	-4.292415	-5.346171	-27.031125	-6.166560	43.899941	0.956261	-3.149037	-79.333768	3.444542	0.073421	1.319559	0.307250	-0.000000	-0.000000	0.000000
0.640000	-19.573230	11.958668	-0.420015	20.968169	-4.428995	-5.256397	-30.053368	-7.350158	43.520976	0.994876	-3.014834	-79.935485	3.543595	0.078377	1.324083	0.307228	-0.000000	-0.000000	0.000000
0.650000	-19.182482	11.829989	-0.697183	22.510396	-4.563032	-5.248002	-32.869945	-7.930577	43.043103	1.075243	-2.896067	-80.592477	3.734111	0.083245	1.327672	0.307018	-0.000000	-0.000000	0.000000
0.660000	-18.731638	11.729801	-1.024856	23.915563	-4.691414	-5.293404	-35.177879	-7.947125	42.479688	1.196728	-2.825287	-81.296219	4.004909	0.088116	1.330229	0.306696	-0.000000	-0.000000	0.000000
0.670000	-18.254110	11.671466	-1.393515	25.125331	-4.801667	-5.349933	-36.738081	-7.502015	41.854681	1.355049	-2.822444	-82.032657	4.332081	0.093083	1.331705	0.306338	-0.000000	-0.000000	0.000000
0.680000	-17.794071	11.663159	-1.784110	26.129051	-4.882599	-5.370239	-37.411496	-6.743476	41.205794	1.550518	-2.893312	-82.783720	4.682496	0.098227	1.332084	0.306018	-0.000000	-0.000000	0.000000
0.690000	-17.397849	11.712598	-2.168883	26.957304	-4.934865	-5.316680	-37.173583	-5.853310	40.579253	1.793710	-3.027587	-83.531648	5.022073	0.103608	1.331369	0.305790	-0.000000	-0.000000	0.000000
0.700000	-17.100427	11.828108	-2.514863	27.661689	-4.975797	-5.173756	-36.105989	-5.025926	40.017613	2.105380	-3.197705	-84.263743	5.324984	0.109247	1.329566	0.305691	-0.000000	-0.000000	0.000000
0.710000	-16.918900	12.017192	-2.790004	28.296753	-5.036890	-4.952258	-34.371269	-4.433182	39.551612	2.510237	-3.364776	-84.974895	5.578758	0.115132	1.326685	0.305732	-0.000000	-0.000000	0.000000
0.720000	-16.851997	12.283354	-2.970700	28.906743	-5.154817	-4.684304	-32.177577	-4.193639	39.196185	3.026912	-3.490404	-85.667281	5.784986	0.121227	1.322739	0.305907	-0.000000	-0.000000	0.000000
0.730000	-16.880178	12.621956	-3.048380	29.514359	-5.358817	-4.412247	-29.740918	-4.362223	38.947102	3.657687	-3.548801	-86.348110	5.958817	0.127484	1.317746	0.306198	-0.000000	-0.000000	0.000000
0.740000	-16.971284	13.018462	-3.030620	30.119086	-5.661054	-4.176073	-27.253818	-4.938431	38.785463	4.383616	-3.533981	-87.026875	6.129039	0.133851	1.311733	0.306582	-0.000000	-0.000000	0.000000
0.750000	-17.088189	13.450825	-2.936241	30.702561	-6.054774	-4.002796	-24.866308	-5.882274	38.686957	5.168148	-3.456893	-87.713139	6.336310	0.140277	1.304727	0.307043	-0.000000	-0.000000	0.000000
0.760000	-17.194182	13.894145	-2.788267	31.235695	-6.518494	-3.900489	-22.680007	-7.124693	38.629517	5.965757	-3.337645	-88.415051	6.623349	0.146711	1.296752	0.307567	-0.000000	-0.000000	0.000000
0.770000	-17.261273	14.325375	-2.606637	31.690919	-7.022899	-3.859476	-20.752117	-8.574826	38.602676	6.731096	-3.198043	-89.138999	7.021121	0.153105	1.287824	0.308148	-0.000000	-0.000000	0.000000
0.780000	-17.279035	14.727365	-2.402318	32.055452	-7.539234	-3.859715	-19.104919	-10.136253	38.615497	7.426990	-3.052349	-89.890588	7.540920	0.159420	1.277948	0.308780	-0.000000	-0.000000	0.000000
0.790000	-17.258019	15.091416	-2.175716	32.338432	-8.046626	-3.878904	-17.737425	-11.724238	38.697755	8.029580	-2.905285	-90.675311	8.167412	0.165631	1.267120	0.309458	-0.000000	-0.000000	0.000000
0.800000	-17.225597	15.416795	-1.919686	32.568941	-8.534933	-3.897576	-16.636684	-13.274419	38.893636	8.529101	-2.761670	-91.497963	8.849691	0.171727	1.255322	0.310172	-0.000000	-0.000000	0.000000
0.810000	-17.213103	15.707740	-1.624487	32.783433	-9.003938	-3.901798	-15.786188	-14.748967	39.247784	8.927904	-2.634325	-92.361997	9.502952	0.177709	1.242532	0.310906	-0.000000	-0.000000	0.000000
0.820000	-17.240249	15.969969	-1.282032	33.008750	-9.461049	-3.883704	-15.169770	-16.141019	39.789497	9.237197	-2.544250	-93.269559	10.028192	0.183574	1.228722	0.311647	-0.000000	-0.000000	0.000000
0.830000	-17.308625	16.206922	-0.888311	33.253012	-9.916464	-3.839800	-14.770939	-17.471207	40.526289	9.470933	-2.517997	-94.222723	10.343625	0.189312	1.213868	0.312387	-0.000000	-0.000000	0.000000
0.840000	-17.408461	16.417159	-0.443927	33.509898	-10.377152	-3.768493	-14.570273	-18.769231	41.451111	9.638467	-2.585796	-95.226203	10.413885	0.194907	1.197948	0.313130	-0.000000	-0.000000	0.000000
0.850000	-17.530932	16.594813	0.047099	33.769754	-10.843723	-3.667896	-14.544776	-20.040719	42.555571	9.740944	-2.775361	-96.290888	10.266902	0.200347	1.180946	0.313886	-1.655387	-8.439188	4.401110
0.860000	-17.675527	16.730690	0.578109	34.027251	-11.308900	-3.532737	-14.670930	-21.235960	43.838001	9.771193	-3.094414	-97.436287	9.992467	0.205622	1.162855	0.314666	-1.885674	-8.546907	4.357487
0.870000	-17.851091	16.811092	1.138099	34.285257	-11.753838	-3.350970	-14.932841	-22.228868	45.304781	9.713719	-3.516475	-98.688110	9.712179	0.210723	1.143691	0.315470	-1.950289	-8.531778	4.197384
0.880000	-18.076947	16.814401	1.708857	34.562491	-12.141454	-3.106309	-15.335699	-22.801890	46.971546	9.542784	-3.990410	-100.069777	9.536199	0.215636	1.123502	0.316286	-2.306481	-8.538267	4.247319
0.890000	-18.382165	16.706584	2.262055	34.901002	-12.408693	-2.788075	-15.917427	-22.660092	48.861960	9.218561	-4.460782	-101.591435	9.541637	0.220345	1.102390	0.317090	-2.618647	-8.456879	4.320144
0.900000	-18.795836	16.439702	2.756532	35.362930	-12.463968	-2.399714	-16.749499	-21.504587	50.996327	8.686771	-4.875203	-103.239609	9.772042	0.224820	1.080532	0.317857	-2.853469	-8.243694	4.436635
0.910000	-19.334475	15.960024	3.138673	36.021038	-12.197811	-1.958518	-17.926023	-19.141938	53.376164	7.889520	-5.183651	-104.968777	10.237424	0.229019	1.058196	0.318567	-2.974855	-7.844619	4.609536
0.920000	-19.998542	15.225979	3.350129	36.953716	-11.507841	-1.489479	-19.547122	-15.575383	55.977402	6.787871	-5.343047	-106.697810	10.912749	0.232895	1.035739	0.319206	-2.949065	-7.211698	4.840084
0.930000	-20.777090	14.226674	3.344485	38.240488	-10.330965	-1.024836	-21.702126	-11.039922	58.752698	5.388825	-5.324005	-108.315924	11.744532	0.236411	1.013589	0.319759	-2.755187	-6.320473	5.120798
0.940000	-21.651204	12.992738	3.108064	39.947711	-8.674602	-0.607810	-24.453625	-5.962032	61.635158	3.766821	-5.115063	-109.698562	12.666251	0.239561	0.992204	0.320203	-2.399071	-5.181321	5.436650
0.950000	-22.592738	11.599113	2.673146	42.105134	-6.638228	-0.283950	-27.818860	-0.853339	64.540444	2.068189	-4.728048	-110.727494	13.610337	0.242371	0.972020	0.320510	-1.921457	-3.845184	5.763066
0.960000	-23.558767	10.159484	2.112107	44.679145	-4.411587	-0.078930	-31.745887	3.819204	67.366369	0.487876	-4.209345	-111.308901	14.505654	0.244891	0.953400	0.320655	-1.390588	-2.403352	6.062059
0.970000	-24.487530	8.804612	1.515434	47.552201	-2.237326	0.016987	-36.091821	7.737489	69.995939	-0.780406	-3.643707	-111.388523	15.271009	0.247173	0.936608	0.320626	-0.882963	-0.972156	6.281660
0.980000	-25.307923	7.643914	0.966633	50.528315	-0.343884	0.041180	-40.622037	10.777167	72.318234	-1.600996	-3.127297	-110.965487	15.828030	0.249258	0.921797	0.320419	-0.464076	0.340341	6.368685
0.990000	-25.961247	6.732900	0.519481	53.374786	1.121101	0.033390	-45.046832	12.986527	74.262227	-1.935427	-2.725897	-110.100144	16.126354	0.251182	0.909006	0.320043	-0.172251	1.465151	6.291173
1.000000	-26.418079	6.068532	0.183034	55.881761	2.122301	0.013187	-49.089270	14.522264	75.817063	-1.848915	-2.456588	-108.908720	16.153052	0.252985	0.898168	0.319520	-0.007416	2.379183	6.052160
1.010000	-26.681773	5.607531	-0.074123	57.911779	2.722196	-0.026522	-52.553210	15.579174	77.027578	-1.482390	-2.296568	-107.545360	15.928071	0.254722	0.889128	0.318887	0.066152	3.092204	5.687582
1.020000	-26.783839	5.290596	-0.300039	59.423144	3.036006	-0.109300	-55.359399	16.338113	77.975419	-1.002208	-2.203317	-106.176954	15.498262	0.256480	0.881673	0.318191	0.101213	3.629462	5.256209
1.030000	-26.772983	5.063537	-0.531225	60.460801	3.180708	-0.254091	-57.539002	16.931430	78.754027	-0.548977	-2.140097	-104.955592	14.923668	0.258375	0.875571	0.317484	0.144382	4.017112	4.825524
1.040000	-26.694857	4.891782	-0.777117	61.117233	3.239403	-0.454440	-59.196343	17.424431	79.439488	-0.206250	-2.097124	-103.995757	14.256956	0.260537	0.870622	0.316822	0.222009	4.271988	4.451461
1.050000	-26.569186	4.764420	-1.022384	61.481422	3.250502	-0.671630	-60.461346	17.823265	80.066049	0.002514	-2.093457	-103.363272	13.534153	0.263059	0.866683	0.316261	0.339635	4.398078	4.158054
1.060000	-26.381660	4.685923	-1.239081	61.604128	3.216691	-0.846296	-61.448111	18.103229	80.622772	0.096554	-2.160148	-103.076629	12.780443	0.265975	0.863681	0.315852	0.488812	4.392129	3.932291
1.070000	-26.099613	4.661702	-1.400107	61.496618	3.123289	-0.922720	-62.229574	18.237945	81.077075	0.113038	-2.320789	-103.116416	12.020191	0.269253	0.861608	0.315627	0.655051	4.255083	3.740859
1.080000	-25.695800	4.690927	-1.491595	61.150093	2.956014	-0.873594	-62.831718	18.219846	81.403934	0.084790	-2.581783	-103.436922	11.286716	0.272814	0.860497	0.315593	0.825942	3.997982	3.552769
1.090000	-25.162691	4.770870	-1.520152	60.555124	2.710123	-0.709127	-63.242322	18.062152	81.600290	0.028689	-2.931369	-103.975301	10.623881	0.276560	0.860417	0.315732	0.996686	3.637001	3.352595
1.100000	-24.520266	4.901237	-1.509205	59.718171	2.390994	-0.469253	-63.425822	17.784718	81.690525	-0.052466	-3.341579	-104.659180	10.074938	0.280404	0.861448	0.316008	1.168756	3.187595	3.148988
1.110000	-23.816144	5.081842	-1.487510	58.669756	2.012000	-0.213087	-63.339043	17.406660	81.724967	-0.161320	-3.773046	-105.415806	9.672636	0.284295	0.863657	0.316378	1.344450	2.664404	2.977045
1.120000	-23.107446	5.310853	-1.478684	57.452238	1.591004	-0.007823	-62.944900	16.948924	81.760535	-0.298406	-4.184359	-106.181025	9.437581	0.288224	0.867084	0.316800	1.523939	2.080748	2.882891
1.130000	-22.434549	5.587854	-1.494036	56.097046	1.142912	0.088063	-62.221630	16.432609	81.834323	-0.456170	-4.542840	-106.905378	9.374001	0.292204	0.871714	0.317248	1.704919	1.444673	2.899308
1.140000	-21.807686	5.916108	-1.525847	54.611206	0.669677	0.040557	-61.164922	15.873282	81.952374	-0.612628	-4.831020	-107.556864	9.458934	0.296263	0.877481	0.317722	1.880282	0.757068	3.032380
1.150000	-21.210579	6.300865	-1.544463	52.977477	0.154468	-0.154971	-59.782235	15.279797	82.096197	-0.729048	-5.046190	-108.120720	9.636560	0.300433	0.884268	0.318238	2.035375	0.013965	3.263169
1.160000	-20.613259	6.747907	-1.505677	51.162716	-0.435132	-0.479632	-58.082449	14.659409	82.236125	-0.757602	-5.195903	-108.597172	9.829923	0.304747	0.891941	0.318823	2.151056	-0.791498	3.557185
1.170000	-19.986532	7.264352	-1.366491	49.129633	-1.136653	-0.900861	-56.065622	14.019547	82.343464	-0.656754	-5.294717	-108.998373	9.965336	0.309235	0.900373	0.319506	2.212658	-1.669038	3.875526
1.180000	-19.313301	7.859336	-1.101027	46.848232	-1.979986	-1.381432	-53.716822	13.358431	82.398954	-0.406908	-5.365945	-109.346012	9.994225	0.313913	0.909478	0.320310	2.219449	-2.630661	4.184598
1.190000	-18.594602	8.543310	-0.708195	44.305257	-2.978494	-1.887035	-51.007975	12.651655	82.397905	-0.017907	-5.447945	-109.669828	9.903178	0.318784	0.919216	0.321254	2.187773	-3.688977	4.463305
1.200000	-17.850715	9.324654	-0.207455	41.511184	-4.126361	-2.393100	-47.908103	11.842804	82.353642	0.475576	-5.598781	-110.006499	9.710454	0.323842	0.929582	0.322347	2.144316	-4.853732	4.707657
1.210000	-17.118558	10.204523	0.371062	38.504340	-5.398322	-2.888568	-44.396164	10.835068	82.298465	1.024545	-5.893243	-110.397187	9.451898	0.329071	0.940580	0.323589	2.115702	-6.127373	4.932342
1.220000	-16.444289	11.174041	0.993981	35.349357	-6.750718	-3.373494	-40.471031	9.487618	82.277568	1.575527	-6.410335	-110.882300	9.163595	0.334440	0.952209	0.324968	2.122735	-7.503008	5.165999
1.230000	-15.871849	12.212877	1.629142	32.129319	-8.124973	-3.855108	-36.159612	7.636514	82.337050	2.079786	-7.210509	-111.495826	8.873801	0.339896	0.964455	0.326458	2.178954	-8.962901	5.439809
1.240000	-15.435177	13.286482	2.249360	28.939056	-9.451860	-4.347984	-31.525889	5.144298	82.515984	2.501537	-8.306254	-112.262406	8.614308	0.345363	0.977282	0.328009	2.290174	-10.474641	5.777694
1.250000	-15.154890	14.348239	2.834460	25.880875	-10.660119	-4.871655	-26.679049	1.950368	82.842788	2.823484	-9.643951	-113.196095	8.434763	0.350749	0.990632	0.329549	2.454588	-11.991636	6.190386
1.260000	-15.029132	15.351932	3.369129	23.051598	-11.693618	-5.438263	-21.776174	-1.902544	83.324720	3.049758	-11.117240	-114.298987	8.388465	0.355949	1.004418	0.330990	2.663055	-13.462983	6.664420
1.270000	-15.022810	16.265390	3.837503	20.524427	-12.527070	-6.039484	-17.016558	-6.263402	83.936560	3.203993	-12.605016	-115.562120	8.496064	0.360846	1.018519	0.332247	2.899565	-14.844157	7.151493
1.280000	-15.073531	17.074653	4.219903	18.344944	-13.168678	-6.645791	-12.627332	-10.882121	84.627083	3.320113	-14.004952	-116.970146	8.726877	0.365325	1.032771	0.333256	3.143477	-16.100930	7.576188
1.290000	-15.113914	17.780255	4.495999	16.541820	-13.652484	-7.216841	-8.839449	-15.439587	85.340049	3.430264	-15.245786	-118.505276	9.014198	0.369299	1.046969	0.333972	3.373128	-17.209987	7.860248
1.300000	-15.090716	18.391011	4.653869	15.131795	-14.027252	-7.714797	-5.852940	-19.600186	86.029029	3.558141	-16.283465	-120.145926	9.287491	0.372714	1.060892	0.334373	3.566857	-18.159042	7.943515
1.310000	-14.975024	18.917439	4.700441	14.115845	-14.343699	-8.116938	-3.796975	-23.072320	86.662785	3.718851	-17.095222	-121.861294	9.500679	0.375552	1.074326	0.334458	3.701616	-18.945182	7.796208
1.320000	-14.770053	19.366032	4.665195	13.480154	-14.640428	-8.422160	-2.697088	-25.664585	87.231103	3.918007	-17.676922	-123.607918	9.644684	0.377833	1.087098	0.334246	3.755958	-19.571230	7.428422
1.330000	-14.509293	19.737173	4.592417	13.197797	-14.934054	-8.645560	-2.461281	-27.323499	87.745310	4.150114	-18.038668	-125.331953	9.738615	0.379612	1.099078	0.333775	3.717295	-20.041880	6.888301
1.340000	-14.239223	20.028934	4.526592	13.223010	-15.220466	-8.807003	-2.891860	-28.128099	88.226159	4.402674	-18.200091	-126.974646	9.803464	0.380968	1.110181	0.333095	3.586274	-20.363114	6.242562
1.350000	-13.998242	20.243994	4.497910	13.487276	-15.485024	-8.922833	-3.722290	-28.239902	88.687260	4.662995	-18.190220	-128.476986	9.837495	0.381999	1.120359	0.332253	3.377000	-20.546169	5.552093
1.360000	-13.805638	20.392837	4.512819	13.908155	-15.711194	-9.001100	-4.669350	-27.842730	89.126225	4.919286	-18.046219	-129.783452	9.814040	0.382808	1.129593	0.331296	3.115860	-20.611312	4.858773
1.370000	-13.665859	20.490171	4.554172	14.410724	-15.882381	-9.039388	-5.485548	-27.106006	89.529172	5.155569	-17.804535	-130.846257	9.705437	0.383497	1.137887	0.330269	2.838718	-20.586757	4.189683
1.380000	-13.580587	20.549521	4.591620	14.948433	-15.982493	-9.028324	-5.997770	-26.174692	89.881967	5.348416	-17.490053	-131.629637	9.516998	0.384148	1.145259	0.329219	2.583556	-20.504308	3.568916
1.390000	-13.554044	20.581264	4.594650	15.507765	-15.999482	-8.960726	-6.125102	-25.166675	90.175091	5.469897	-17.114496	-132.112965	9.304316	0.384814	1.151736	0.328196	2.379996	-20.394656	3.020034
1.400000	-13.586410	20.593463	4.541099	16.094441	-15.929250	-8.839242	-5.876323	-24.165129	90.398596	5.495385	-16.687134	-132.291598	9.154302	0.385509	1.157348	0.327247	2.241388	-20.282928	2.556956
1.410000	-13.668031	20.591635	4.423397	16.716083	-15.776693	-8.675822	-5.331058	-23.214278	90.539821	5.414423	-16.227762	-132.175900	9.140344	0.386218	1.162118	0.326410	2.161939	-20.184252	2.179335
1.420000	-13.785490	20.575256	4.253611	17.376331	-15.552346	-8.485463	-4.611105	-22.328249	90.593158	5.238782	-15.769255	-131.790351	9.284670	0.386934	1.166058	0.325698	2.119000	-20.098965	1.880824
1.430000	-13.928678	20.534836	4.062524	18.073836	-15.267600	-8.285701	-3.850048	-21.503120	90.568351	5.002745	-15.350040	-131.172808	9.551289	0.387682	1.169161	0.325094	2.078914	-20.010128	1.656647
1.440000	-14.088437	20.455311	3.892158	18.796903	-14.934994	-8.106887	-3.167617	-20.720252	90.484955	4.757229	-15.005233	-130.372379	9.870648	0.388512	1.171402	0.324552	2.003357	-19.888332	1.500627
1.450000	-14.251356	20.324701	3.784594	19.520745	-14.573514	-7.995931	-2.653078	-19.948498	90.360670	4.559193	-14.757308	-129.444922	10.172239	0.389480	1.172749	0.324013	1.856649	-19.703346	1.398674
1.460000	-14.399452	20.141736	3.770337	20.213585	-14.211413	-7.999540	-2.358961	-19.155026	90.204671	4.457870	-14.605942	-128.447075	10.401122	0.390626	1.173165	0.323419	1.614732	-19.436199	1.327070
1.470000	-14.516600	19.917497	3.860852	20.849027	-13.881758	-8.140392	-2.302436	-18.319531	90.019974	4.482528	-14.525112	-127.431292	10.524105	0.391955	1.172629	0.322730	1.272747	-19.085699	1.258520
1.480000	-14.596481	19.671618	4.046415	21.416902	-13.613045	-8.397996	-2.471116	-17.444820	89.810199	4.635249	-14.470033	-126.443294	10.533362	0.393449	1.171127	0.321928	0.848409	-18.668165	1.171497
1.490000	-14.647454	19.426074	4.299566	21.928101	-13.420507	-8.705753	-2.831811	-16.556772	89.585817	4.891373	-14.390832	-125.521338	10.447017	0.395075	1.168663	0.321015	0.378777	-18.212119	1.057937
1.500000	-14.692896	19.199804	4.584202	22.413008	-13.303756	-8.977605	-3.340787	-15.686901	89.367386	5.208806	-14.253039	-124.696227	10.307569	0.396798	1.165243	0.320008	-0.090534	-17.750885	0.926654
1.510000	-14.759132	19.007602	4.863129	22.907290	-13.252021	-9.140389	-3.953457	-14.851620	89.176624	5.541212	-14.055174	-123.990387	10.169365	0.398594	1.160874	0.318930	-0.518850	-17.316595	0.793881
1.520000	-14.858425	18.860753	5.103262	23.432047	-13.251656	-9.145938	-4.631064	-14.050636	89.022178	5.850503	-13.827226	-123.417283	10.080280	0.400438	1.155548	0.317801	-0.881830	-16.935223	0.667831
1.530000	-14.985139	18.766981	5.282933	23.986876	-13.292820	-8.974217	-5.344604	-13.279220	88.897270	6.116564	-13.615082	-122.982059	10.071292	0.402311	1.149245	0.316632	-1.177745	-16.623162	0.545037
1.540000	-15.120252	18.732438	5.395280	24.554493	-13.375131	-8.636111	-6.078428	-12.537437	88.783991	6.339608	-13.465419	-122.682068	10.149456	0.404205	1.141932	0.315429	-1.424332	-16.388798	0.414513
1.550000	-15.238208	18.761643	5.445552	25.110218	-13.506831	-8.169340	-6.832149	-11.836948	88.660036	6.534333	-13.409667	-122.508989	10.296852	0.406113	1.133569	0.314191	-1.648360	-16.234124	0.264097
1.560000	-15.320036	18.852005	5.448847	25.635853	-13.696776	-7.630040	-7.618118	-11.202429	88.512509	6.721700	-13.450957	-122.452871	10.479822	0.408034	1.124118	0.312913	-1.875709	-16.151966	0.091832
1.570000	-15.362609	18.989417	5.427246	26.127502	-13.946146	-7.083870	-8.456073	-10.657047	88.347045	6.921611	-13.564417	-122.504898	10.659424	0.409975	1.113553	0.311585	-2.124926	-16.124011	-0.088020
1.580000	-15.373836	19.147993	5.401140	26.590514	-14.241338	-6.590139	-9.368259	-10.201030	88.181505	7.144643	-13.703248	-122.658349	10.802552	0.411943	1.101871	0.310187	-2.401918	-16.122022	-0.253749
1.590000	-15.362250	19.290703	5.378306	27.031830	-14.546441	-6.183863	-10.377234	-9.794384	88.033502	7.383734	-13.806004	-122.908508	10.894083	0.413931	1.089098	0.308701	-2.695837	-16.109086	-0.390168
1.600000	-15.332488	19.370632	5.348001	27.461051	-14.798762	-5.870599	-11.508348	-9.343902	87.913711	7.610252	-13.811798	-123.250428	10.941127	0.415918	1.075296	0.307106	-2.978395	-16.040537	-0.494968
1.610000	-15.287217	19.335395	5.280322	27.900409	-14.910889	-5.633426	-12.796554	-8.704599	87.825903	7.774886	-13.678282	-123.674258	10.965036	0.417873	1.060573	0.305396	-3.205566	-15.866880	-0.576104
1.620000	-15.232328	19.134309	5.129996	28.396905	-14.779524	-5.441365	-14.292640	-7.709198	87.770776	7.812844	-13.389074	-124.159656	10.986959	0.419753	1.045094	0.303582	-3.321638	-15.539003	-0.644006
1.630000	-15.183261	18.725547	4.846878	29.028766	-14.301114	-5.254439	-16.064159	-6.222720	87.751413	7.655573	-12.945526	-124.671035	11.017268	0.421511	1.029081	0.301695	-3.269015	-15.014249	-0.702178
1.640000	-15.167489	18.084943	4.390950	29.899076	-13.396117	-5.028878	-18.190101	-4.198074	87.774717	7.248808	-12.354294	-125.154782	11.054283	0.423093	1.012815	0.299782	-3.003153	-14.265508	-0.741947
1.650000	-15.219315	17.218892	3.747468	31.113633	-12.041077	-4.727404	-20.748469	-1.704741	87.844967	6.573967	-11.625241	-125.539465	11.090702	0.424443	0.996613	0.297902	-2.508937	-13.295278	-0.745200
1.660000	-15.367931	16.174727	2.940318	32.747420	-10.297728	-4.332925	-23.795216	1.080686	87.952555	5.668427	-10.780334	-125.741291	11.121780	0.425513	0.980800	0.296114	-1.815421	-12.147160	-0.694710
1.670000	-15.622906	15.037701	2.038184	34.811853	-8.321389	-3.858711	-27.337212	3.918934	88.063919	4.633848	-9.865230	-125.676269	11.148392	0.426273	0.965678	0.294469	-1.001688	-10.903456	-0.588140
1.680000	-15.965573	13.910385	1.146627	37.238800	-6.336656	-3.347822	-31.308335	6.573058	88.120643	3.620844	-8.948732	-125.277205	11.174367	0.426729	0.951502	0.292999	-0.185344	-9.665080	-0.445399
1.690000	-16.353092	12.881913	0.384115	39.889542	-4.583082	-2.861342	-35.561521	8.869303	88.052632	2.789463	-8.102274	-124.509317	11.197260	0.426932	0.938462	0.291706	0.506447	-8.521518	-0.301994
1.700000	-16.733442	12.002761	-0.152557	42.583985	-3.249393	-2.463060	-39.885369	10.729260	87.800668	2.258788	-7.373360	-123.378245	11.198309	0.426969	0.926675	0.290568	0.973862	-7.526147	-0.192270
1.710000	-17.063401	11.276493	-0.420411	45.138786	-2.422025	-2.207164	-44.041934	12.165275	87.337165	2.066520	-6.770801	-121.928861	11.146178	0.426936	0.916183	0.289553	1.175092	-6.687977	-0.132857
1.720000	-17.320989	10.668083	-0.445433	47.402593	-2.067249	-2.130196	-47.811840	13.251739	86.675418	2.156014	-6.267670	-120.236587	11.013001	0.426915	0.906963	0.288632	1.138739	-5.979500	-0.115115
1.730000	-17.508095	10.121761	-0.312000	49.279603	-2.052627	-2.246168	-51.031089	14.088233	85.863890	2.397682	-5.818594	-118.393180	10.788586	0.426948	0.898942	0.287781	0.951990	-5.353902	-0.109321
1.740000	-17.643583	9.581226	-0.129997	50.736148	-2.197870	-2.542849	-53.610353	14.765059	84.968100	2.636728	-5.382016	-116.490285	10.486313	0.427046	0.892031	0.286992	0.728497	-4.764362	-0.078038
1.750000	-17.750743	9.006893	0.003813	51.791286	-2.332062	-2.978831	-55.536731	15.339896	84.047863	2.744988	-4.937336	-114.605353	10.140104	0.427199	0.886145	0.286274	0.571111	-4.179791	0.007268
1.760000	-17.844687	8.385356	0.032413	52.497180	-2.334260	-3.485685	-56.861978	15.830753	83.138918	2.654865	-4.489531	-112.793582	9.795641	0.427393	0.881220	0.285661	0.545713	-3.592225	0.153303
1.770000	-17.927480	7.728344	-0.053008	52.919425	-2.148510	-3.980973	-57.681243	16.225807	82.247668	2.367300	-4.058949	-111.086178	9.501750	0.427616	0.877217	0.285203	0.672181	-3.014041	0.343566
1.780000	-17.993739	7.064365	-0.219760	53.124585	-1.778470	-4.389650	-58.107451	16.504705	81.360550	1.938474	-3.664112	-109.492547	9.303762	0.427864	0.874115	0.284954	0.929585	-2.469137	0.550057
1.790000	-18.036381	6.428515	-0.410724	53.170110	-1.270464	-4.663557	-58.247775	16.659190	80.455830	1.454706	-3.310403	-108.004797	9.236724	0.428138	0.871905	0.284954	1.270037	-1.983854	0.745431
1.800000	-18.046258	5.852197	-0.564272	53.093997	-0.691625	-4.791809	-58.187549	16.703743	79.510300	1.005414	-2.990477	-106.604669	9.318054	0.428432	0.870581	0.285213	1.634660	-1.578823	0.907104
1.810000	-18.012211	5.354925	-0.630306	52.911463	-0.108313	-4.799252	-57.982878	16.674201	78.505409	0.660753	-2.692985	-105.271462	9.542904	0.428727	0.870124	0.285708	1.967577	-1.263184	1.018699
1.820000	-17.925328	4.941864	-0.580522	52.620965	0.430477	-4.731790	-57.659445	16.614191	77.434154	0.457231	-2.411076	-103.987873	9.885774	0.428997	0.870493	0.286394	2.227259	-1.034243	1.072859
1.830000	-17.784016	4.606002	-0.411661	52.214158	0.901348	-4.633605	-57.215385	16.553046	76.305430	0.394008	-2.143745	-102.742266	10.307978	0.429213	0.871630	0.287215	2.393116	-0.880912	1.073075
1.840000	-17.595776	4.332233	-0.142049	51.684421	1.306352	-4.529490	-56.628781	16.491017	75.143578	0.439257	-1.893146	-101.528981	10.768766	0.429344	0.873470	0.288117	2.465755	-0.787781	1.031633
1.850000	-17.375535	4.102569	0.196175	51.032862	1.666586	-4.423883	-55.870231	16.406546	73.984000	0.542846	-1.664986	-100.348134	11.235765	0.429355	0.875939	0.289056	2.462034	-0.739042	0.964883
1.860000	-17.143330	3.901675	0.567214	50.272536	2.011588	-4.312803	-54.917055	16.276374	72.867852	0.651901	-1.470483	-99.204570	11.687969	0.429213	0.878958	0.290004	2.406891	-0.722232	0.889634
1.870000	-16.920855	3.721366	0.942150	49.428364	2.366735	-4.195114	-53.764126	16.088559	71.835556	0.726247	-1.324484	-98.105382	12.110715	0.428891	0.882442	0.290945	2.324225	-0.731241	0.820604
1.880000	-16.724892	3.561216	1.306443	48.530100	2.743674	-4.077046	-52.428170	15.844042	70.917531	0.748924	-1.239287	-97.057368	12.489250	0.428377	0.886298	0.291877	2.230007	-0.765977	0.766217
1.890000	-16.559802	3.424774	1.660467	47.601402	3.138400	-3.971462	-50.944773	15.554233	70.124926	0.726836	-1.217919	-96.065415	12.805403	0.427673	0.890432	0.292800	2.131118	-0.828076	0.723543
1.900000	-16.416557	3.314544	2.014447	46.654270	3.534960	-3.892630	-49.359605	15.236194	69.447996	0.683050	-1.251411	-95.131215	13.038472	0.426789	0.894756	0.293707	2.028545	-0.915781	0.678733
1.910000	-16.283442	3.229100	2.382385	45.695955	3.909711	-3.848077	-47.717825	14.902453	68.867242	0.646295	-1.322546	-94.251642	13.169363	0.425751	0.899200	0.294585	1.920778	-1.021474	0.618057
1.920000	-16.157071	3.163404	2.776587	44.737934	4.234909	-3.835615	-46.055983	14.553465	68.365474	0.640750	-1.412502	-93.417750	13.187311	0.424597	0.903717	0.295410	1.806002	-1.132658	0.538889
1.930000	-16.041615	3.110237	3.203519	43.794481	4.483347	-3.849791	-44.398311	14.180355	67.928501	0.678151	-1.505051	-92.615938	13.095966	0.423366	0.908280	0.296154	1.683125	-1.234151	0.449060
1.940000	-15.943709	3.062393	3.661536	42.877561	4.633073	-3.888861	-42.756410	13.770458	67.541753	0.754626	-1.589592	-91.830526	12.911900	0.422098	0.912882	0.296797	1.552723	-1.311830	0.361709
1.950000	-15.869777	3.016647	4.140353	41.994000	4.669659	-3.955245	-41.130732	13.310462	67.188690	0.853206	-1.664630	-91.045497	12.655525	0.420826	0.917524	0.297326	1.418640	-1.358684	0.291622
1.960000	-15.822414	2.976522	4.622590	41.141294	4.587148	-4.052234	-39.512830	12.790732	66.848037	0.949741	-1.738606	-90.245919	12.343798	0.419584	0.922209	0.297744	1.289138	-1.378571	0.249635
1.970000	-15.795297	2.951711	5.087115	40.302824	4.389421	-4.179988	-37.888751	12.211845	66.490399	1.019069	-1.826195	-89.420139	11.991623	0.418400	0.926929	0.298068	1.176791	-1.384680	0.235373
1.980000	-15.773466	2.955682	5.514370	39.450735	4.089605	-4.333096	-36.244205	11.589672	66.081217	1.041669	-1.942552	-88.561917	11.618037	0.417296	0.931657	0.298324	1.095965	-1.395286	0.236268
1.990000	-15.744242	3.002262	5.892939	38.561475	3.705839	-4.502738	-34.570349	10.954495	65.594985	1.010726	-2.098997	-87.671590	11.248703	0.416289	0.936344	0.298538	1.057632	-1.429455	0.239021
2.000000	-15.706863	3.101851	6.222354	37.629673	3.257148	-4.681076	-32.867391	10.343407	65.027158	0.934525	-2.299453	-86.756125	10.913618	0.415394	0.940922	0.298730	1.065620	-1.503091	0.241544
2.010000	-15.668830	3.258417	6.509930	36.666023	2.763095	-4.863489	-31.144267	9.789604	64.390614	0.831308	-2.536590	-85.828685	10.642617	0.414615	0.945322	0.298906	1.116967	-1.625231	0.251885
2.020000	-15.638616	3.467214	6.766164	35.689155	2.245550	-5.049418	-29.415885	9.313961	63.707547	0.720870	-2.791843	-84.907910	10.456326	0.413935	0.949484	0.299061	1.203756	-1.795423	0.281560
2.030000	-15.624400	3.713468	7.002105	34.722144	1.729675	-5.242723	-27.700174	8.922593	63.007109	0.617433	-3.041601	-84.016931	10.355363	0.413324	0.953359	0.299182	1.314487	-2.003267	0.342408
2.040000	-15.635285	3.973828	7.228031	33.790641	1.242751	-5.449393	-26.015363	8.609816	62.324138	0.525698	-3.265774	-83.181187	10.315831	0.412746	0.956910	0.299253	1.435671	-2.230708	0.445043
2.050000	-15.680198	4.222393	7.452196	32.918734	0.809484	-5.672075	-24.378021	8.363435	61.692790	0.441565	-3.453727	-82.423318	10.294569	0.412174	0.960113	0.299260	1.554341	-2.457544	0.596074
2.060000	-15.762635	4.438878	7.678940	32.121828	0.446052	-5.904234	-22.802275	8.169174	61.134210	0.356104	-3.604357	-81.755999	10.243362	0.411589	0.962954	0.299199	1.661394	-2.667562	0.793460
2.070000	-15.872131	4.613480	7.906730	31.397284	0.158374	-6.126839	-21.298954	8.013515	60.642363	0.259081	-3.719752	-81.176544	10.127304	0.410977	0.965434	0.299071	1.754221	-2.850841	1.020733
2.080000	-15.980012	4.746884	8.128426	30.719898	-0.055599	-6.310709	-19.874545	7.885447	60.178069	0.141568	-3.798292	-80.665619	9.937156	0.410322	0.967574	0.298886	1.836163	-3.002597	1.245913
2.090000	-16.050989	4.846397	8.335062	30.054515	-0.203611	-6.428067	-18.531483	7.775169	59.683629	-0.001169	-3.837423	-80.189767	9.686375	0.409616	0.969407	0.298661	1.912594	-3.121703	1.434815
2.100000	-16.065781	4.920043	8.520793	29.380869	-0.297670	-6.467474	-17.269715	7.671010	59.112270	-0.167659	-3.843999	-79.707384	9.396351	0.408877	0.970979	0.298409	1.986659	-3.209724	1.573149
2.110000	-16.031964	4.972861	8.685355	28.705610	-0.352349	-6.438657	-16.087452	7.559912	58.445943	-0.350303	-3.836699	-79.176137	9.084144	0.408151	0.972333	0.298137	2.057272	-3.270147	1.675005
2.120000	-15.972330	5.007358	8.832381	28.049916	-0.382108	-6.364601	-14.980452	7.431331	57.688083	-0.537984	-3.835745	-78.559378	8.759327	0.407491	0.973508	0.297844	2.120371	-3.307315	1.768654
2.130000	-15.905161	5.025247	8.965131	27.428832	-0.397991	-6.271005	-13.941668	7.279914	56.845987	-0.720853	-3.852461	-77.830567	8.424496	0.406930	0.974530	0.297526	2.172756	-3.324699	1.875886
2.140000	-15.835546	5.027327	9.083294	26.843207	-0.405049	-6.181150	-12.962791	7.105305	55.923154	-0.895071	-3.889864	-76.975691	8.073682	0.406473	0.975410	0.297172	2.215784	-3.323210	2.004287
2.150000	-15.759325	5.012051	9.182750	26.285317	-0.401364	-6.114544	-12.036812	6.910553	54.922491	-1.064988	-3.950536	-75.993086	7.691746	0.406099	0.976148	0.296769	2.256638	-3.300577	2.152463
2.160000	-15.670059	4.974969	9.257542	25.747278	-0.379060	-6.085101	-11.160155	6.700838	53.849760	-1.241726	-4.040854	-74.890141	7.260858	0.405778	0.976733	0.296312	2.306740	-3.251929	2.317195
2.170000	-15.564039	4.909728	9.303057	25.226656	-0.327407	-6.099336	-10.334182	6.483022	52.713045	-1.438573	-4.167352	-73.677337	6.772528	0.405481	0.977149	0.295806	2.377933	-3.171234	2.497632
2.180000	-15.442552	4.810227	9.319625	24.728528	-0.237473	-6.156795	-9.566114	6.265704	51.520075	-1.664652	-4.328861	-72.361957	6.237110	0.405187	0.977391	0.295262	2.477152	-3.053294	2.695918
2.190000	-15.311545	4.673101	9.316095	24.263806	-0.107179	-6.252176	-8.868148	6.059091	50.276419	-1.918661	-4.510558	-70.944615	5.683904	0.404890	0.977462	0.294699	2.600458	-2.896008	2.914733
2.200000	-15.179776	4.499572	9.311250	23.845007	0.055487	-6.377005	-8.253715	5.873649	48.986011	-2.185788	-4.684593	-69.419956	5.151070	0.404595	0.977383	0.294136	2.729587	-2.702099	3.154053
2.210000	-15.056145	4.295796	9.328997	23.481837	0.234248	-6.519906	-7.732445	5.716834	47.652826	-2.441906	-4.818012	-67.780918	4.670457	0.404310	0.977181	0.293583	2.836378	-2.479248	3.408923
2.220000	-14.947083	4.070831	9.388699	23.178701	0.411381	-6.666095	-7.306588	5.590244	46.282282	-2.663949	-4.883947	-66.024735	4.256322	0.404039	0.976885	0.293046	2.894427	-2.237743	3.669323
2.230000	-14.855224	3.832399	9.497720	22.934803	0.575699	-6.797586	-6.970284	5.490173	44.882462	-2.839484	-4.870027	-64.158055	3.905192	0.403777	0.976514	0.292518	2.890013	-1.986235	3.923402
2.240000	-14.779219	3.582595	9.649112	22.745619	0.728406	-6.895580	-6.711044	5.409661	43.463882	-2.971621	-4.781107	-62.198193	3.604809	0.403509	0.976083	0.291988	2.827332	-1.727897	4.162362
2.250000	-14.714343	3.315954	9.823602	22.604562	0.884744	-6.944501	-6.512607	5.339780	42.037781	-3.078901	-4.636412	-60.170168	3.344907	0.403214	0.975599	0.291444	2.727266	-1.459122	4.383380
2.260000	-14.654519	3.021301	9.996275	22.505509	1.068794	-6.935266	-6.359640	5.271980	40.614851	-3.188516	-4.461792	-58.101200	3.124687	0.402868	0.975068	0.290876	2.619177	-1.171803	4.589636
2.270000	-14.595227	2.687080	10.146824	22.445737	1.302283	-6.866123	-6.243246	5.201696	39.204775	-3.324121	-4.279772	-56.014239	2.953416	0.402452	0.974496	0.290281	2.528235	-0.858434	4.788344
2.280000	-14.534963	2.306865	10.267287	22.426467	1.594847	-6.741277	-6.163055	5.129847	37.814374	-3.496128	-4.102083	-53.921756	2.844941	0.401952	0.973881	0.289657	2.465766	-0.516326	4.987074
2.290000	-14.473789	1.881161	10.361918	22.449780	1.942764	-6.568390	-6.123851	5.061122	36.443982	-3.701401	-3.928088	-51.822143	2.812082	0.401365	0.973218	0.289008	2.428629	-0.147333	5.189155
2.300000	-14.410673	1.415497	10.441767	22.515059	2.334353	-6.356235	-6.130590	5.002422	35.085776	-3.929663	-3.749221	-49.701212	2.864967	0.400687	0.972503	0.288339	2.404858	0.245534	5.390883
2.310000	-14.342242	0.917477	10.519532	22.618382	2.755934	-6.114100	-6.186293	4.963139	33.726995	-4.169870	-3.556649	-47.539229	3.012036	0.399914	0.971728	0.287657	2.379528	0.660610	5.582681
2.320000	-14.263680	0.394814	10.606429	22.754991	3.195331	-5.853547	-6.293109	4.955061	32.356815	-4.413634	-3.348349	-45.321196	3.260928	0.399029	0.970890	0.286970	2.338806	1.097454	5.753387
2.330000	-14.171403	-0.144905	10.711315	22.922908	3.642160	-5.590922	-6.454070	4.990430	30.973773	-4.655275	-3.132530	-43.046250	3.618090	0.398006	0.969990	0.286288	2.271752	1.554713	5.895318
2.340000	-14.066167	-0.692712	10.842095	23.124890	4.085093	-5.347933	-6.672856	5.077947	29.590035	-4.888890	-2.925673	-40.731589	4.087502	0.396811	0.969038	0.285624	2.169630	2.026977	6.007771
2.350000	-13.954539	-1.235614	11.007842	23.366495	4.507843	-5.148795	-6.950288	5.217817	28.230051	-5.104038	-2.745395	-38.408938	4.667938	0.395420	0.968053	0.284992	2.024096	2.501393	6.097156
2.360000	-13.847226	-1.754916	11.219038	23.650447	4.887450	-5.014457	-7.278541	5.398693	26.924112	-5.283696	-2.601809	-36.116348	5.348418	0.393829	0.967068	0.284412	1.826733	2.956035	6.173543
2.370000	-13.754532	-2.227611	11.484875	23.970110	5.197162	-4.956301	-7.636614	5.598682	25.699738	-5.406801	-2.493385	-33.889920	6.103370	0.392053	0.966121	0.283914	1.571335	3.362316	6.245022
2.380000	-13.681772	-2.630335	11.809452	24.306911	5.412012	-4.971771	-7.991840	5.791547	24.574974	-5.453454	-2.411417	-31.758688	6.889987	0.390120	0.965246	0.283531	1.257677	3.690873	6.312782
2.390000	-13.628275	-2.943813	12.189163	24.635814	5.513627	-5.042739	-8.309904	5.957151	23.557657	-5.409212	-2.351145	-29.744295	7.651959	0.388058	0.964474	0.283297	0.894659	3.917868	6.370167
2.400000	-13.590199	-3.156620	12.611969	24.937228	5.493426	-5.136558	-8.570288	6.090678	22.650615	-5.267504	-2.321001	-27.865315	8.332884	0.385888	0.963824	0.283229	0.501608	4.029455	6.405960
2.410000	-13.563695	-3.267737	13.059485	25.207995	5.354521	-5.212633	-8.779673	6.204470	21.858214	-5.031032	-2.340335	-26.142822	8.890979	0.383615	0.963308	0.283335	0.105987	4.023858	6.408525
2.420000	-13.546311	-3.286474	13.512796	25.465465	5.110277	-5.236120	-8.976250	6.322026	21.189877	-4.711025	-2.424524	-24.602165	9.302513	0.381231	0.962923	0.283608	-0.263753	3.910190	6.368407
2.430000	-13.537228	-3.229989	13.958643	25.743848	4.780010	-5.192320	-9.222454	6.468220	20.659548	-4.325039	-2.569963	-23.270143	9.558296	0.378718	0.962657	0.284036	-0.586578	3.704922	6.279899
2.440000	-13.535527	-3.120793	14.391636	26.083499	4.386016	-5.095967	-9.588198	6.658402	20.280545	-3.896464	-2.751392	-22.169796	9.660453	0.376052	0.962486	0.284602	-0.853291	3.429243	6.141294
2.450000	-13.538005	-2.984391	14.812213	26.517606	3.952407	-4.989120	-10.131297	6.891869	20.058203	-3.454560	-2.930518	-21.314236	9.621435	0.373215	0.962376	0.285291	-1.065602	3.107529	5.954754
2.460000	-13.539881	-2.845956	15.222412	27.063323	3.503199	-4.922329	-10.883183	7.155328	19.985497	-3.031451	-3.069836	-20.701079	9.467730	0.370201	0.962290	0.286086	-1.231543	2.764944	5.727393
2.470000	-13.536062	-2.725980	15.623097	27.717980	3.058587	-4.932514	-11.844184	7.430024	20.041906	-2.655545	-3.146334	-20.309243	9.237687	0.367025	0.962194	0.286971	-1.360998	2.424186	5.470201
2.480000	-13.520853	-2.636554	16.014288	28.459211	2.631384	-5.032267	-12.987784	7.694166	20.194593	-2.344642	-3.159310	-20.099454	8.968105	0.363727	0.962062	0.287929	-1.463128	2.102712	5.193560
2.490000	-13.488753	-2.581229	16.396914	29.251173	2.226864	-5.208951	-14.270787	7.921812	20.404076	-2.103425	-3.129164	-20.019319	8.683593	0.360361	0.961885	0.288941	-1.544495	1.812182	4.904694
2.500000	-13.436915	-2.559239	16.774960	30.055402	1.846105	-5.430314	-15.645639	8.083577	20.633457	-1.926690	-3.088023	-20.011697	8.395525	0.356992	0.961666	0.289993	-1.607821	1.560759	4.609690
2.510000	-13.367055	-2.571268	17.157554	30.841211	1.489722	-5.655124	-17.071860	8.152650	20.856665	-1.805461	-3.065945	-20.023469	8.106232	0.353689	0.961425	0.291078	-1.652543	1.356602	4.317544
2.520000	-13.284979	-2.623285	17.559708	31.591424	1.159759	-5.843757	-18.524114	8.115220	21.061923	-1.732695	-3.077765	-20.012231	7.815445	0.350513	0.961193	0.292193	-1.677031	1.210054	4.042384
2.530000	-13.197574	-2.727538	17.999856	32.301906	0.861406	-5.966450	-19.994316	7.976680	21.249828	-1.707917	-3.117908	-19.949983	7.524777	0.347513	0.961018	0.293343	-1.680689	1.133909	3.801841
2.540000	-13.108732	-2.901532	18.493920	32.976143	0.606453	-6.012329	-21.486589	7.753904	21.427893	-1.741009	-3.169775	-19.823495	7.233646	0.344719	0.960952	0.294532	-1.663879	1.142539	3.612545
2.550000	-13.016976	-3.164573	19.048874	33.619112	0.414761	-5.991498	-23.009461	7.465095	21.604826	-1.852011	-3.220277	-19.632035	6.935333	0.342143	0.961052	0.295768	-1.625875	1.249306	3.485826
2.560000	-12.916457	-3.531575	19.659722	34.233832	0.309584	-5.920703	-24.570223	7.131610	21.786990	-2.064131	-3.264339	-19.383890	6.624780	0.339780	0.961364	0.297061	-1.562751	1.461880	3.425934
2.570000	-12.800079	-4.005053	20.312327	34.819721	0.307179	-5.807168	-26.171825	6.779394	21.976555	-2.390859	-3.302702	-19.091988	6.303438	0.337604	0.961913	0.298421	-1.467712	1.776344	3.429809
2.580000	-12.663293	-4.568921	20.991425	35.372352	0.405276	-5.644448	-27.812811	6.438376	22.171207	-2.823138	-3.339619	-18.769084	5.974559	0.335579	0.962696	0.299858	-1.335132	2.172894	3.488044
2.590000	-12.507122	-5.190259	21.688785	35.885318	0.579336	-5.418966	-29.489352	6.142836	22.366400	-3.326661	-3.380499	-18.424172	5.638663	0.333664	0.963683	0.301386	-1.165481	2.618229	3.587750
2.600000	-12.337950	-5.829459	22.406425	36.352005	0.790805	-5.125284	-31.195068	5.915909	22.558159	-3.852647	-3.430860	-18.061063	5.285047	0.331827	0.964835	0.303021	-0.967061	3.075310	3.715674
2.610000	-12.164076	-6.451655	23.154541	36.765504	1.000534	-4.776392	-32.919181	5.755254	22.743836	-4.353977	-3.492502	-17.679308	4.889606	0.330063	0.966106	0.304776	-0.754081	3.513953	3.859899
2.620000	-11.991372	-7.033098	23.946971	37.117408	1.178259	-4.398225	-34.647196	5.645489	22.920710	-4.796695	-3.555794	-17.276730	4.432214	0.328386	0.967452	0.306667	-0.543492	3.916014	4.010548
2.630000	-11.820043	-7.561767	24.796027	37.396629	1.306206	-4.019039	-36.363133	5.574982	23.083913	-5.164088	-3.596285	-16.851776	3.912225	0.326827	0.968828	0.308699	-0.351823	4.274693	4.160130
2.640000	-11.644780	-8.035538	25.707401	37.590648	1.380118	-3.664353	-38.050314	5.535360	23.226969	-5.456333	-3.580707	-16.405070	3.346165	0.325423	0.970183	0.310869	-0.191776	4.591233	4.305120
2.650000	-11.458903	-8.460431	26.676115	37.690132	1.409235	-3.356515	-39.690648	5.512093	23.346019	-5.687980	-3.481386	-15.940049	2.756986	0.324207	0.971464	0.313166	-0.068509	4.871493	4.448992
2.660000	-11.258606	-8.847591	27.685315	37.692568	1.413481	-3.107680	-41.264650	5.482345	23.442352	-5.883123	-3.289147	-15.461423	2.163102	0.323197	0.972621	0.315576	0.023324	5.122372	4.602464
2.670000	-11.043415	-9.207838	28.709594	37.600402	1.416806	-2.905308	-42.752904	5.425407	23.519280	-6.068116	-3.015637	-14.972260	1.571471	0.322395	0.973621	0.318078	0.099636	5.348095	4.777896
2.680000	-10.813627	-9.546550	29.723536	37.414920	1.438763	-2.717497	-44.136350	5.330956	23.577389	-6.263264	-2.689568	-14.473701	0.980894	0.321782	0.974447	0.320656	0.181492	5.548322	4.981340
2.690000	-10.567537	-9.862146	30.711680	37.130588	1.488710	-2.523505	-45.393971	5.194157	23.612853	-6.477000	-2.352653	-13.968265	0.393769	0.321326	0.975102	0.323291	0.286311	5.719529	5.207572
2.700000	-10.301034	-10.148472	31.673025	36.734428	1.565744	-2.330687	-46.499824	5.008140	23.619386	-6.705642	-2.051731	-13.462152	-0.176458	0.320994	0.975597	0.325966	0.421976	5.858405	5.441050
2.710000	-10.010803	-10.399074	32.618155	36.211636	1.662807	-2.160051	-47.421992	4.764590	23.592936	-6.937198	-1.825169	-12.963672	-0.709313	0.320759	0.975949	0.328671	0.586427	5.964099	5.662707
2.720000	-9.698528	-10.610547	33.562775	35.553122	1.771312	-2.026503	-48.124520	4.457567	23.536348	-7.155894	-1.690675	-12.480523	-1.186323	0.320601	0.976169	0.331402	0.770708	6.037708	5.858376
2.730000	-9.372279	-10.783316	34.520454	34.759498	1.884786	-1.933424	-48.571455	4.082757	23.460217	-7.346338	-1.641534	-12.018901	-1.597165	0.320513	0.976260	0.334165	0.964239	6.080044	6.023792
2.740000	-9.045077	-10.919258	35.497030	33.839956	1.999548	-1.874245	-48.731157	3.634630	23.379157	-7.495569	-1.650894	-11.583829	-1.941904	0.320498	0.976209	0.336977	1.160300	6.088781	6.164247
2.750000	-8.732730	-11.017910	36.489159	32.808113	2.111814	-1.831756	-48.579517	3.109500	23.306129	-7.592508	-1.680204	-11.178419	-2.231532	0.320566	0.975996	0.339858	1.358406	6.056448	6.290481
2.760000	-8.451446	-11.074867	37.487077	31.677209	2.214543	-1.780124	-48.100828	2.514708	23.248361	-7.627475	-1.690801	-10.802253	-2.485775	0.320732	0.975600	0.342826	1.562780	5.971782	6.413691
2.770000	-8.215434	-11.083255	38.479481	30.456720	2.296247	-1.695018	-47.286767	1.877802	23.207023	-7.592381	-1.656315	-10.451339	-2.726747	0.321010	0.975006	0.345893	1.778643	5.823682	6.542140
2.780000	-8.035558	-11.037157	39.456949	29.152648	2.342840	-1.558545	-46.136589	1.253966	23.180358	-7.481893	-1.568745	-10.119612	-2.974238	0.321407	0.974213	0.349061	2.009381	5.604794	6.680919
2.790000	-7.917845	-10.934994	40.412333	27.769875	2.342366	-1.356780	-44.660221	0.727220	23.166588	-7.296192	-1.435861	-9.800923	-3.242332	0.321916	0.973237	0.352321	2.256083	5.313479	6.832648
2.800000	-7.861604	-10.780399	41.340515	26.314111	2.288697	-1.089529	-42.882446	0.398489	23.164938	-7.041691	-1.273283	-9.492510	-3.533304	0.322514	0.972104	0.355661	2.517365	4.953628	6.996354
2.810000	-7.860294	-10.581570	42.237914	24.795467	2.182751	-0.784623	-40.846141	0.365976	23.177205	-6.729029	-1.093301	-9.198394	-3.836330	0.323169	0.970847	0.359064	2.789584	4.532861	7.167015
2.820000	-7.904321	-10.351588	43.100318	23.233005	2.034026	-0.493112	-38.611807	0.703111	23.209302	-6.373471	-0.897246	-8.928987	-4.129458	0.323836	0.969500	0.362516	3.069640	4.062333	7.337625
2.830000	-7.982437	-10.108793	43.921866	21.655425	1.861276	-0.272910	-36.250448	1.435432	23.270966	-5.996854	-0.676337	-8.697809	-4.382039	0.324474	0.968102	0.366004	3.358311	3.558847	7.501957
2.840000	-8.082001	-9.874784	44.697558	20.096545	1.689603	-0.178116	-33.831424	2.525179	23.374218	-5.625784	-0.416680	-8.519248	-4.564507	0.325045	0.966700	0.369515	3.660624	3.045594	7.656267
2.850000	-8.189345	-9.669826	45.425668	18.588484	1.545734	-0.252774	-31.411701	3.872133	23.530690	-5.286755	-0.104555	-8.407882	-4.659805	0.325521	0.965342	0.373041	3.984995	2.549151	7.798981
2.860000	-8.290624	-9.509301	46.108174	17.157695	1.454268	-0.523138	-29.033003	5.337558	23.749919	-5.002065	0.270975	-8.377795	-4.672232	0.325888	0.964075	0.376578	4.341552	2.095139	7.929601
2.870000	-8.372768	-9.403900	46.751084	15.826250	1.435932	-0.987496	-26.728243	6.791240	24.040615	-4.788259	0.718924	-8.441153	-4.631934	0.326137	0.962930	0.380131	4.738355	1.705815	8.048431
2.880000	-8.422846	-9.359656	47.364680	14.612404	1.506381	-1.612046	-24.529589	8.147232	24.409842	-4.655552	1.242278	-8.606386	-4.583218	0.326260	0.961922	0.383722	5.178034	1.399456	8.154313
2.890000	-8.425488	-9.375356	47.964179	13.526037	1.674677	-2.343412	-22.469160	9.355598	24.857808	-4.606663	1.826409	-8.877266	-4.562074	0.326245	0.961044	0.387386	5.655891	1.190752	8.239708
2.900000	-8.363213	-9.442329	48.570126	12.566749	1.942063	-3.125435	-20.575164	10.381683	25.376119	-4.636164	2.435547	-9.252697	-4.584641	0.326075	0.960276	0.391162	6.159505	1.091199	8.290716
2.910000	-8.222674	-9.548914	49.205011	11.730250	2.301085	-3.904318	-18.870191	11.210079	25.953043	-4.731312	3.025433	-9.725968	-4.651743	0.325730	0.959590	0.395085	6.672226	1.107491	8.295127
2.920000	-7.999870	-9.684500	49.886680	11.014121	2.736813	-4.630010	-17.370078	11.851317	26.577624	-4.875111	3.558379	-10.284229	-4.756770	0.325195	0.958952	0.399173	7.180061	1.239718	8.249346
2.930000	-7.698811	-9.837895	50.623314	10.414756	3.229895	-5.263497	-16.081573	12.328241	27.236000	-5.049808	4.008695	-10.909255	-4.885765	0.324465	0.958335	0.403430	7.677397	1.481259	8.156286
2.940000	-7.328189	-9.992121	51.413097	9.920887	3.757492	-5.784624	-15.001943	12.659070	27.905360	-5.236825	4.361486	-11.579832	-5.012303	0.323550	0.957725	0.407844	8.167477	1.818534	8.018550
2.950000	-6.900696	-10.123364	52.248029	9.513231	4.292622	-6.190680	-14.122470	12.857028	28.555324	-5.414862	4.610676	-12.276332	-5.097485	0.322475	0.957127	0.412390	8.657035	2.230749	7.835714
2.960000	-6.434729	-10.206883	53.117514	9.172102	4.804728	-6.484005	-13.434123	12.943556	29.157659	-5.560769	4.756992	-12.985562	-5.098862	0.321275	0.956560	0.417027	9.149355	2.690674	7.607946
2.970000	-5.956007	-10.223796	54.008405	8.885044	5.260939	-6.668356	-12.930710	12.955001	29.694647	-5.651822	4.808157	-13.702300	-4.985258	0.319995	0.956050	0.421691	9.639873	3.165324	7.340088
2.980000	-5.496644	-10.163095	54.900909	8.646954	5.628635	-6.763852	-12.605919	12.932244	30.157892	-5.668050	4.782695	-14.425783	-4.747751	0.318689	0.955626	0.426277	10.115018	3.616410	7.041248
2.990000	-5.095252	-10.025055	55.758941	8.459962	5.880482	-6.811246	-12.447755	12.910172	30.544752	-5.597875	4.710965	-15.150524	-4.401230	0.317428	0.955308	0.430614	10.554617	4.000486	6.727635
3.000000	-4.802076	-9.832359	56.517496	8.341881	5.998717	-6.850394	-12.435299	12.920418	30.862481	-5.446034	4.630031	-15.853477	-3.984899	0.316314	0.955109	0.434423	10.935638	4.267028	6.435770
3.010000	-4.684970	-9.640752	57.074593	8.335641	5.974586	-6.897156	-12.537505	12.998535	31.134758	-5.237206	4.578128	-16.483934	-3.565251	0.315501	0.955039	0.437283	11.233856	4.354623	6.236491
3.020000	-4.774042	-9.452463	57.491991	8.486722	5.792796	-6.961350	-12.760529	13.197543	31.462848	-4.936118	4.567992	-17.169317	-3.081431	0.314900	0.955088	0.439607	11.513669	4.231334	6.143584
3.030000	-5.070980	-9.133904	58.134369	8.860082	5.373153	-7.081799	-13.224456	13.629752	32.087997	-4.349613	4.576148	-18.416912	-2.186532	0.313983	0.955247	0.443352	11.998757	3.876083	6.050699
