RWalking1_XZ.mot
version=1
datacolumns 20
datarows 456
range 0.00000 4.55000
inDegrees=yes
endheader
time	pelvis_tilt	pelvis_list	pelvis_rotation	hip_flexion_r	hip_adduction_r	hip_rotation_r	knee_angle_r	ankle_angle_r	hip_flexion_l	hip_adduction_l	hip_rotation_l	knee_angle_l	ankle_angle_l	pelvis_tx	pelvis_ty	pelvis_tz	lumbar_bending	lumbar_rotation	lumbar_extension
0.000000	-12.308670	2.965159	1.507933	6.146383	-2.835018	-4.877044	-5.224973	6.311529	8.397473	4.331812	-1.846350	-9.093323	6.307482	-1.388209	0.995261	-0.051153	-0.000000	-0.000000	0.000000
0.010000	-10.976360	2.953528	1.403442	4.640745	-2.712539	-5.489424	-5.101386	6.073357	6.644128	4.245886	-2.323791	-8.342985	5.882105	-1.388166	0.995956	-0.051086	-0.000000	-0.000000	0.000000
0.020000	-10.983675	3.129431	1.356632	4.452129	-2.887350	-5.851015	-5.049763	6.449001	6.082654	4.389489	-2.303569	-7.485094	5.758961	-1.385901	0.996250	-0.051710	-0.000000	-0.000000	0.000000
0.030000	-11.362056	3.218270	1.413019	4.775118	-3.023511	-5.814240	-5.091404	6.755492	6.307288	4.484613	-2.155255	-7.321784	5.879106	-1.384658	0.996055	-0.052132	-0.000000	-0.000000	0.000000
0.040000	-11.783591	3.307383	1.497142	5.137094	-3.169084	-5.744269	-5.160349	7.114510	6.567621	4.584002	-2.000787	-7.170648	6.035555	-1.383219	0.995782	-0.052635	-0.000000	-0.000000	0.000000
0.050000	-12.196010	3.382165	1.603025	5.493023	-3.303286	-5.644206	-5.266834	7.501879	6.817856	4.672800	-1.868680	-7.036957	6.214873	-1.381655	0.995451	-0.053199	-0.000000	-0.000000	0.000000
0.060000	-12.558113	3.429761	1.721057	5.813232	-3.408554	-5.517207	-5.425679	7.897276	7.022445	4.738462	-1.777107	-6.923932	6.406224	-1.380036	0.995074	-0.053809	-0.000000	-0.000000	0.000000
0.070000	-12.847969	3.442757	1.841923	6.088558	-3.475136	-5.368857	-5.653571	8.290681	7.160651	4.774505	-1.728151	-6.827750	6.599930	-1.378408	0.994660	-0.054461	-0.000000	-0.000000	0.000000
0.080000	-13.066251	3.421290	1.960905	6.330409	-3.503520	-5.208213	-5.965269	8.684423	7.230364	4.782536	-1.707406	-6.739435	6.786781	-1.376779	0.994210	-0.055153	-0.000000	-0.000000	0.000000
0.090000	-13.230921	3.371920	2.079649	6.563213	-3.502419	-5.048031	-6.370272	9.088223	7.245770	4.770196	-1.691548	-6.650663	6.959566	-1.375133	0.993729	-0.055882	-0.000000	-0.000000	0.000000
0.100000	-13.369365	3.304881	2.204105	6.816229	-3.484712	-4.903431	-6.871321	9.511744	7.232685	4.747502	-1.660201	-6.559373	7.115458	-1.373435	0.993224	-0.056633	-0.000000	-0.000000	0.000000
0.110000	-13.508446	3.231711	2.339568	7.115512	-3.464105	-4.789801	-7.465783	9.958429	7.220255	4.724227	-1.605920	-6.471919	7.256341	-1.371655	0.992707	-0.057386	-0.000000	-0.000000	0.000000
0.120000	-13.665266	3.163305	2.485833	7.478414	-3.452497	-4.719173	-8.150510	10.421768	7.231269	4.707902	-1.537890	-6.400854	7.386934	-1.369779	0.992200	-0.058121	-0.000000	-0.000000	0.000000
0.130000	-13.842448	3.108362	2.635679	7.912249	-3.458251	-4.695363	-8.927774	10.883997	7.275135	4.702443	-1.479385	-6.359286	7.512510	-1.367821	0.991731	-0.058816	-0.000000	-0.000000	0.000000
0.140000	-14.029116	3.072122	2.777416	8.415623	-3.485374	-4.710696	-9.807756	11.316305	7.345758	4.707593	-1.461993	-6.354477	7.636836	-1.365820	0.991329	-0.059453	-0.000000	-0.000000	0.000000
0.150000	-14.206551	3.054782	2.899992	8.981051	-3.532753	-4.747904	-10.805618	11.680535	7.425121	4.718618	-1.518558	-6.384207	7.760127	-1.363821	0.991020	-0.060020	-0.000000	-0.000000	0.000000
0.160000	-14.356087	3.049364	2.997877	9.598455	-3.592953	-4.787735	-11.935088	11.932434	7.490892	4.725594	-1.675519	-6.437158	7.876654	-1.361862	0.990815	-0.060515	-0.000000	-0.000000	0.000000
0.170000	-14.466839	3.040170	3.072130	10.260169	-3.651417	-4.817216	-13.202576	12.026404	7.525299	4.712914	-1.946590	-6.496279	7.973068	-1.359959	0.990713	-0.060955	-0.000000	-0.000000	0.000000
0.180000	-14.540133	3.004230	3.127235	10.966235	-3.687974	-4.833135	-14.605760	11.922882	7.521889	4.660787	-2.329339	-6.544344	8.030602	-1.358105	0.990698	-0.061369	-0.000000	-0.000000	0.000000
0.190000	-14.588182	2.916912	3.167740	11.726330	-3.681654	-4.839760	-16.137203	11.599713	7.487214	4.549761	-2.804290	-6.570346	8.032598	-1.356280	0.990748	-0.061800	-0.000000	-0.000000	0.000000
0.200000	-14.628841	2.759139	3.196912	12.556591	-3.616869	-4.843354	-17.788291	11.063385	7.437530	4.366478	-3.337105	-6.573448	7.973396	-1.354465	0.990832	-0.062283	-0.000000	-0.000000	0.000000
0.210000	-14.679982	2.521899	3.217196	13.472985	-3.487265	-4.849142	-19.549330	10.350224	7.392961	4.106947	-3.885494	-6.562026	7.861165	-1.352647	0.990916	-0.062835	-0.000000	-0.000000	0.000000
0.220000	-14.754486	2.206689	3.231758	14.484190	-3.295888	-4.862598	-21.408435	9.519784	7.370828	3.775832	-4.408603	-6.549290	7.715466	-1.350817	0.990967	-0.063450	-0.000000	-0.000000	0.000000
0.230000	-14.855320	1.823729	3.244690	15.586305	-3.052838	-4.889027	-23.353428	8.653751	7.378578	3.383526	-4.873142	-6.548317	7.568884	-1.348976	0.990965	-0.064101	-0.000000	-0.000000	0.000000
0.240000	-14.972056	1.388590	3.258799	16.760894	-2.770670	-4.931057	-25.374107	7.848657	7.408492	2.942165	-5.257539	-6.568096	7.468003	-1.347129	0.990908	-0.064751	-0.000000	-0.000000	0.000000
0.250000	-15.084646	0.918411	3.272742	17.980659	-2.459799	-4.989311	-27.459898	7.184266	7.440383	2.462570	-5.559327	-6.610654	7.459053	-1.345285	0.990812	-0.065361	-0.000000	-0.000000	0.000000
0.260000	-15.176060	0.430950	3.279929	19.222651	-2.128836	-5.065540	-29.593721	6.690146	7.453828	1.956095	-5.799892	-6.669911	7.564264	-1.343444	0.990705	-0.065905	-0.000000	-0.000000	0.000000
0.270000	-15.241958	-0.054192	3.271124	20.476021	-1.788989	-5.163460	-31.746148	6.346895	7.438507	1.439506	-6.015600	-6.734315	7.771810	-1.341586	0.990616	-0.066371	-0.000000	-0.000000	0.000000
0.280000	-15.288407	-0.516373	3.239612	21.735981	-1.455953	-5.285964	-33.872207	6.119876	7.393693	0.935911	-6.238449	-6.792790	8.048176	-1.339679	0.990567	-0.066767	-0.000000	-0.000000	0.000000
0.290000	-15.325480	-0.937199	3.185063	22.994365	-1.147757	-5.440336	-35.909658	5.974960	7.323531	0.470437	-6.484028	-6.839528	8.356489	-1.337679	0.990563	-0.067109	-0.000000	-0.000000	0.000000
0.300000	-15.364468	-1.302735	3.114562	24.237230	-0.883633	-5.651402	-37.780441	5.857758	7.234943	0.065756	-6.754705	-6.874561	8.664788	-1.335539	0.990595	-0.067421	-0.000000	-0.000000	0.000000
0.310000	-15.413615	-1.603476	3.041230	25.445194	-0.684246	-5.950300	-39.403171	5.695947	7.133184	-0.260373	-7.044062	-6.901074	8.949192	-1.333214	0.990641	-0.067725	-0.000000	-0.000000	0.000000
0.320000	-15.472440	-1.836008	2.979198	26.594771	-0.565838	-6.338030	-40.713802	5.440229	7.015781	-0.499726	-7.334986	-6.921909	9.198058	-1.330677	0.990675	-0.068033	-0.000000	-0.000000	0.000000
0.330000	-15.534495	-2.006913	2.936307	27.667303	-0.529528	-6.774028	-41.679249	5.082779	6.875462	-0.659789	-7.602024	-6.937639	9.411859	-1.327924	0.990680	-0.068342	-0.000000	-0.000000	0.000000
0.340000	-15.594894	-2.132408	2.910803	28.658787	-0.558751	-7.205439	-42.297073	4.637993	6.708527	-0.762636	-7.820289	-6.946722	9.595973	-1.324964	0.990643	-0.068642	-0.000000	-0.000000	0.000000
0.350000	-15.652798	-2.232325	2.893596	29.579116	-0.627249	-7.594911	-42.586135	4.127666	6.517948	-0.835711	-7.970630	-6.946533	9.751705	-1.321817	0.990564	-0.068912	-0.000000	-0.000000	0.000000
0.360000	-15.711018	-2.323571	2.872141	30.444471	-0.708649	-7.918409	-42.574922	3.589432	6.312798	-0.902241	-8.038600	-6.934860	9.872063	-1.318503	0.990434	-0.069131	-0.000000	-0.000000	0.000000
0.370000	-15.771094	-2.415277	2.835232	31.264569	-0.783711	-8.151406	-42.290366	3.085514	6.102044	-0.974741	-8.013149	-6.910905	9.944517	-1.315047	0.990238	-0.069282	-0.000000	-0.000000	0.000000
0.380000	-15.822957	-2.506550	2.778373	32.027561	-0.844367	-8.266898	-41.749497	2.690831	5.881736	-1.052812	-7.888942	-6.874496	9.959029	-1.311473	0.989950	-0.069349	-0.000000	-0.000000	0.000000
0.390000	-15.846093	-2.588035	2.705889	32.703202	-0.893498	-8.243958	-40.959114	2.472557	5.634083	-1.125795	-7.672776	-6.824483	9.915010	-1.307807	0.989538	-0.069320	-0.000000	-0.000000	0.000000
0.400000	-15.826975	-2.647035	2.628106	33.267829	-0.940631	-8.076638	-39.923318	2.476616	5.344162	-1.179335	-7.388372	-6.757548	9.821468	-1.304055	0.988970	-0.069184	-0.000000	-0.000000	0.000000
0.410000	-15.767869	-2.673886	2.556973	33.720514	-0.995382	-7.778643	-38.651320	2.714094	5.008745	-1.203510	-7.069931	-6.667763	9.693702	-1.300205	0.988225	-0.068935	-0.000000	-0.000000	0.000000
0.420000	-15.677002	-2.665327	2.503298	34.076550	-1.063551	-7.383334	-37.161324	3.145948	4.627559	-1.197033	-6.747889	-6.547923	9.549681	-1.296237	0.987291	-0.068572	-0.000000	-0.000000	0.000000
0.430000	-15.560860	-2.624159	2.474943	34.358985	-1.147015	-6.938675	-35.481231	3.683074	4.198380	-1.166045	-6.441374	-6.393169	9.403924	-1.292139	0.986176	-0.068108	-0.000000	-0.000000	0.000000
0.440000	-15.425534	-2.557624	2.475526	34.595877	-1.244400	-6.489623	-33.647410	4.212592	3.721528	-1.121129	-6.160466	-6.205180	9.268485	-1.287909	0.984900	-0.067563	-0.000000	-0.000000	0.000000
0.450000	-15.273622	-2.474177	2.505106	34.811350	-1.352935	-6.050594	-31.701904	4.638438	3.198288	-1.073265	-5.909942	-5.993724	9.166178	-1.283554	0.983490	-0.066958	-0.000000	-0.000000	0.000000
0.460000	-15.099306	-2.380461	2.562224	35.015356	-1.470421	-5.606086	-29.686656	4.905104	2.625195	-1.030478	-5.691650	-5.772629	9.129678	-1.279090	0.981975	-0.066313	-0.000000	-0.000000	0.000000
0.470000	-14.896204	-2.281662	2.644601	35.209277	-1.593940	-5.146909	-27.637578	4.995099	2.000051	-0.997975	-5.508194	-5.552662	9.178009	-1.274524	0.980372	-0.065639	-0.000000	-0.000000	0.000000
0.480000	-14.669585	-2.182628	2.747982	35.399843	-1.717505	-4.684141	-25.584225	4.923229	1.332605	-0.979258	-5.364663	-5.338090	9.308907	-1.269845	0.978687	-0.064936	-0.000000	-0.000000	0.000000
0.490000	-14.433718	-2.087629	2.865343	35.599276	-1.831597	-4.227595	-23.552541	4.732472	0.640415	-0.976605	-5.265612	-5.127450	9.514933	-1.265026	0.976909	-0.064195	-0.000000	-0.000000	0.000000
0.500000	-14.199969	-2.000201	2.987899	35.814110	-1.924668	-3.778013	-21.564740	4.481099	-0.064321	-0.992027	-5.213661	-4.914394	9.784954	-1.260036	0.975021	-0.063399	-0.000000	-0.000000	0.000000
0.510000	-13.972935	-1.923202	3.108105	36.040103	-1.987435	-3.340146	-19.636934	4.226586	-0.778355	-1.027530	-5.210512	-4.689544	10.091980	-1.254847	0.973008	-0.062538	-0.000000	-0.000000	0.000000
0.520000	-13.757841	-1.858344	3.224041	36.268904	-2.019333	-2.930091	-17.778057	4.013794	-1.497772	-1.083861	-5.256759	-4.445423	10.397170	-1.249426	0.970872	-0.061612	-0.000000	-0.000000	0.000000
0.530000	-13.568950	-1.804724	3.342642	36.498271	-2.033447	-2.574432	-15.992481	3.868110	-2.207188	-1.158159	-5.351757	-4.181019	10.665100	-1.243739	0.968631	-0.060637	-0.000000	-0.000000	0.000000
0.540000	-13.425520	-1.757299	3.477786	36.732060	-2.054759	-2.299848	-14.285710	3.794573	-2.883745	-1.242538	-5.489596	-3.902292	10.878019	-1.237760	0.966318	-0.059638	-0.000000	-0.000000	0.000000
0.550000	-13.338380	-1.707215	3.642640	36.970877	-2.110859	-2.112923	-12.669944	3.782976	-3.512748	-1.325353	-5.652110	-3.619521	11.044542	-1.231489	0.963971	-0.058639	-0.000000	-0.000000	0.000000
0.560000	-13.304043	-1.644537	3.840949	37.208749	-2.220476	-1.989415	-11.166892	3.816018	-4.095339	-1.394275	-5.811105	-3.344304	11.191650	-1.224951	0.961625	-0.057655	-0.000000	-0.000000	0.000000
0.570000	-13.311202	-1.564162	4.061808	37.439542	-2.382783	-1.883782	-9.805897	3.875342	-4.642255	-1.442357	-5.941087	-3.087583	11.344412	-1.218180	0.959308	-0.056686	-0.000000	-0.000000	0.000000
0.580000	-13.349543	-1.471517	4.280156	37.663197	-2.572050	-1.750610	-8.618560	3.942134	-5.163960	-1.474330	-6.030687	-2.859179	11.511770	-1.211203	0.957035	-0.055718	-0.000000	-0.000000	0.000000
0.590000	-13.411909	-1.380590	4.463720	37.885058	-2.745630	-1.563317	-7.635068	3.997169	-5.666457	-1.504457	-6.083743	-2.669006	11.686958	-1.204031	0.954813	-0.054722	-0.000000	-0.000000	0.000000
0.600000	-13.490694	-1.306822	4.583816	38.109545	-2.860292	-1.321140	-6.883070	4.022285	-6.153256	-1.548543	-6.111109	-2.528340	11.857446	-1.196662	0.952650	-0.053660	-0.000000	-0.000000	0.000000
0.610000	-13.576173	-1.263408	4.624882	38.335498	-2.883552	-1.048525	-6.385113	3.995583	-6.627407	-1.620151	-6.121866	-2.448911	12.013506	-1.189083	0.950561	-0.052501	-0.000000	-0.000000	0.000000
0.620000	-13.659935	-1.260462	4.588505	38.558399	-2.797680	-0.787698	-6.155431	3.885263	-7.089756	-1.730234	-6.118526	-2.440721	12.151615	-1.181265	0.948576	-0.051222	-0.000000	-0.000000	0.000000
0.630000	-13.738264	-1.302822	4.491018	38.775269	-2.600990	-0.579170	-6.198493	3.656639	-7.537024	-1.884987	-6.094271	-2.511202	12.276275	-1.173174	0.946735	-0.049813	-0.000000	-0.000000	0.000000
0.640000	-13.811169	-1.388870	4.356731	38.985005	-2.306132	-0.440433	-6.506300	3.287016	-7.962995	-2.084477	-6.034255	-2.666694	12.398815	-1.164779	0.945083	-0.048274	-0.000000	-0.000000	0.000000
0.650000	-13.879502	-1.513431	4.210058	39.184264	-1.934015	-0.361241	-7.052523	2.772186	-8.360127	-2.325424	-5.925476	-2.915779	12.526958	-1.156064	0.943654	-0.046614	-0.000000	-0.000000	0.000000
0.660000	-13.947135	-1.670496	4.068356	39.368400	-1.507742	-0.317529	-7.789875	2.124944	-8.715369	-2.602577	-5.769515	-3.272428	12.647510	-1.147023	0.942469	-0.044843	-0.000000	-0.000000	0.000000
0.670000	-14.027143	-1.852384	3.936911	39.538976	-1.049907	-0.290780	-8.656365	1.374922	-9.003508	-2.905808	-5.585287	-3.755894	12.715774	-1.137650	0.941535	-0.042975	-0.000000	-0.000000	0.000000
0.680000	-14.138686	-2.049607	3.809689	39.702834	-0.580788	-0.279833	-9.586903	0.568690	-9.192272	-3.220458	-5.397834	-4.386176	12.661163	-1.127934	0.940852	-0.041019	-0.000000	-0.000000	0.000000
0.690000	-14.293660	-2.253433	3.676327	39.861013	-0.116589	-0.300350	-10.525580	-0.234582	-9.258295	-3.532919	-5.223270	-5.178020	12.405466	-1.117870	0.940420	-0.038990	-0.000000	-0.000000	0.000000
0.700000	-14.488967	-2.458533	3.529582	40.004078	0.331549	-0.375054	-11.435995	-0.971312	-9.196392	-3.835597	-5.062418	-6.137310	11.885505	-1.107464	0.940238	-0.036908	-0.000000	-0.000000	0.000000
0.710000	-14.709782	-2.664692	3.368277	40.117409	0.759193	-0.519726	-12.305195	-1.581963	-9.017190	-4.129461	-4.903152	-7.261256	11.076630	-1.096733	0.940301	-0.034794	-0.000000	-0.000000	0.000000
0.720000	-14.935536	-2.877479	3.196050	40.185725	1.170914	-0.731370	-13.138682	-2.017162	-8.741729	-4.424720	-4.724301	-8.541046	10.007525	-1.085697	0.940590	-0.032672	-0.000000	-0.000000	0.000000
0.730000	-15.143531	-3.107395	3.018663	40.192434	1.580808	-0.988890	-13.949191	-2.242319	-8.397169	-4.738964	-4.501728	-9.964536	8.746921	-1.074377	0.941066	-0.030557	-0.000000	-0.000000	0.000000
0.740000	-15.310481	-3.367874	2.842381	40.116422	2.009758	-1.266348	-14.744343	-2.242374	-8.012261	-5.093417	-4.217817	-11.518535	7.363442	-1.062791	0.941680	-0.028459	-0.000000	-0.000000	0.000000
0.750000	-15.416067	-3.672928	2.673840	39.932989	2.480198	-1.546259	-15.518857	-2.026216	-7.609052	-5.508901	-3.869005	-13.192284	5.886872	-1.050956	0.942384	-0.026383	-0.000000	-0.000000	0.000000
0.760000	-15.451145	-4.033837	2.518607	39.623475	3.010645	-1.823493	-16.255118	-1.627562	-7.190877	-6.000843	-3.466243	-14.982371	4.300297	-1.038882	0.943144	-0.024341	-0.000000	-0.000000	0.000000
0.770000	-15.423187	-4.454182	2.377577	39.184617	3.611433	-2.098496	-16.929349	-1.099180	-6.736768	-6.572948	-3.027033	-16.897060	2.569851	-1.026579	0.943951	-0.022342	-0.000000	-0.000000	0.000000
0.780000	-15.352680	-4.924827	2.245863	38.627710	4.280735	-2.367695	-17.517136	-0.501373	-6.208336	-7.212197	-2.566314	-18.954572	0.677250	-1.014058	0.944813	-0.020396	-0.000000	-0.000000	0.000000
0.790000	-15.259276	-5.421338	2.117167	37.964931	5.000831	-2.616030	-17.995838	0.112427	-5.568314	-7.887434	-2.095729	-21.173667	-1.372564	-1.001354	0.945758	-0.018504	-0.000000	-0.000000	0.000000
0.800000	-15.144214	-5.905693	1.990409	37.190699	5.737388	-2.811694	-18.345704	0.708930	-4.801922	-8.552753	-1.628489	-23.563993	-3.550963	-0.988535	0.946823	-0.016655	-5.034300	8.104628	10.757002
0.810000	-14.993881	-6.333273	1.873651	36.286201	6.443485	-2.916973	-18.552383	1.280056	-3.913616	-9.156287	-1.181008	-26.123159	-5.804092	-0.975696	0.948051	-0.014836	-5.009502	8.728363	10.806978
0.820000	-14.804325	-6.664437	1.782570	35.247744	7.069327	-2.913401	-18.610598	1.835688	-2.900899	-9.653437	-0.770369	-28.838908	-8.056131	-0.962929	0.949476	-0.013029	-5.136481	9.359279	11.164599
0.830000	-14.589171	-6.876646	1.734262	34.098042	7.576331	-2.811755	-18.526922	2.389100	-1.747677	-10.019877	-0.412554	-31.690716	-10.211348	-0.950311	0.951115	-0.011226	-5.110726	9.595063	11.144865
0.840000	-14.366697	-6.969599	1.739632	32.873877	7.947150	-2.644678	-18.321040	2.944082	-0.440951	-10.255719	-0.119535	-34.649563	-12.160294	-0.937908	0.952955	-0.009440	-5.075084	9.679729	11.129626
0.850000	-14.153270	-6.959954	1.798727	31.617598	8.184601	-2.459910	-18.024509	3.489759	1.021744	-10.377412	0.106052	-37.678925	-13.794261	-0.925776	0.954956	-0.007705	-5.027001	9.631658	11.114274
0.860000	-13.963001	-6.870013	1.900575	30.371807	8.302942	-2.307978	-17.674858	4.004730	2.634015	-10.403712	0.265981	-40.736464	-15.020543	-0.913955	0.957062	-0.006068	-4.964051	9.484033	11.093955
0.870000	-13.801920	-6.716987	2.025644	29.166378	8.318141	-2.222148	-17.305943	4.466333	4.376328	-10.344580	0.352409	-43.772835	-15.781016	-0.902471	0.959221	-0.004574	-4.881650	9.268964	11.061625
0.880000	-13.665577	-6.508384	2.150229	28.010513	8.242028	-2.210006	-16.939051	4.857086	6.215221	-10.199503	0.347866	-46.730378	-16.069474	-0.891331	0.961396	-0.003256	-4.770605	9.006811	11.008388
0.890000	-13.546519	-6.244744	2.252221	26.899203	8.082211	-2.261270	-16.579128	5.166408	8.113668	-9.964361	0.242783	-49.546192	-15.930476	-0.880516	0.963570	-0.002119	-4.618769	8.705654	10.931661
0.900000	-13.442569	-5.924697	2.315952	25.824657	7.844137	-2.358555	-16.217999	5.391424	10.042013	-9.638319	0.049726	-52.158225	-15.441341	-0.869989	0.965736	-0.001141	-4.415293	8.365682	10.840762
0.910000	-13.358041	-5.548407	2.334343	24.782810	7.532640	-2.483926	-15.842403	5.537504	11.980581	-9.226274	-0.199759	-54.510808	-14.695087	-0.859697	0.967886	-0.000279	-4.154373	7.983721	10.752883
0.920000	-13.298931	-5.119603	2.308422	23.773470	7.153732	-2.623600	-15.442480	5.616848	13.915660	-8.739507	-0.469809	-56.558539	-13.788958	-0.849586	0.970000	0.000518	-3.836688	7.557402	10.682749
0.930000	-13.268063	-4.646217	2.245600	22.798203	6.716176	-2.774027	-15.017001	5.644732	15.835597	-8.195420	-0.731761	-58.268934	-12.810576	-0.839615	0.972047	0.001294	-3.468332	7.088673	10.634537
0.940000	-13.263236	-4.139784	2.157301	21.858057	6.232422	-2.946008	-14.573159	5.633205	17.729720	-7.615608	-0.969160	-59.623738	-11.822376	-0.829757	0.973998	0.002081	-3.058344	6.584951	10.600401
0.950000	-13.276898	-3.614593	2.055537	20.949884	5.719371	-3.161181	-14.121098	5.583558	19.587659	-7.023483	-1.181867	-60.619031	-10.852259	-0.820002	0.975833	0.002893	-2.616068	6.057179	10.563342
0.960000	-13.296587	-3.086359	1.949574	20.062565	5.197840	-3.441480	-13.666806	5.483620	21.398140	-6.441818	-1.388140	-61.263893	-9.894688	-0.810351	0.977548	0.003726	-2.149416	5.516334	10.501955
0.970000	-13.307201	-2.569598	1.844946	19.176946	4.689777	-3.797262	-13.207846	5.315659	23.149000	-5.889177	-1.618998	-61.577244	-8.921676	-0.800811	0.979151	0.004567	-1.664895	4.970592	10.396516
0.980000	-13.295459	-2.074469	1.744392	18.270965	4.213935	-4.219541	-12.733480	5.073713	24.828968	-5.376210	-1.906723	-61.582804	-7.898459	-0.791384	0.980652	0.005401	-1.168565	4.424342	10.235523
0.990000	-13.254670	-1.604628	1.648851	17.327170	3.780855	-4.678741	-12.228508	4.784202	26.429255	-4.903605	-2.275741	-61.302556	-6.798318	-0.782054	0.982055	0.006212	-0.666611	3.878828	10.020375
1.000000	-13.187212	-1.158536	1.558757	16.338770	3.390434	-5.131303	-11.679575	4.517427	27.944144	-4.464132	-2.737681	-60.751039	-5.614211	-0.772791	0.983352	0.006986	-0.166458	3.335275	9.765861
1.010000	-13.103649	-0.736258	1.476085	15.311778	3.036845	-5.535432	-11.080626	4.371047	29.371379	-4.050639	-3.284199	-59.933719	-4.365618	-0.763549	0.984515	0.007695	0.320797	2.801709	9.496267
1.020000	-13.018145	-0.346925	1.405058	14.261388	2.717761	-5.869113	-10.434627	4.425726	30.710027	-3.664817	-3.879045	-58.848007	-3.100894	-0.754277	0.985499	0.008303	0.779727	2.298693	9.237633
1.030000	-12.941578	-0.008373	1.349755	13.203665	2.438203	-6.135637	-9.752624	4.708025	31.954768	-3.317650	-4.463094	-57.483803	-1.892784	-0.744931	0.986241	0.008766	1.194853	1.856048	9.008176
1.040000	-12.877553	0.261137	1.311139	12.149022	2.206058	-6.352685	-9.051748	5.188598	33.093695	-3.021092	-4.975891	-55.825499	-0.819919	-0.735467	0.986676	0.009041	1.557163	1.501506	8.812757
1.050000	-12.823585	0.451769	1.286652	11.100953	2.025864	-6.537183	-8.351130	5.800354	34.113768	-2.779441	-5.376237	-53.858174	0.057898	-0.725853	0.986745	0.009104	1.868195	1.249848	8.644446
1.060000	-12.773794	0.567121	1.271501	10.056897	1.895679	-6.696547	-7.665958	6.457439	35.007776	-2.585792	-5.647562	-51.575730	0.714350	-0.716069	0.986408	0.008959	2.140732	1.097718	8.489735
1.070000	-12.720481	0.624983	1.260829	9.008021	1.805812	-6.826839	-7.002357	7.079092	35.775987	-2.421950	-5.792335	-48.986125	1.160230	-0.706102	0.985650	0.008645	2.395377	1.024049	8.333861
1.080000	-12.654443	0.653619	1.252409	7.938104	1.739120	-6.915980	-6.354873	7.611643	36.421444	-2.261123	-5.823517	-46.110402	1.437207	-0.695940	0.984479	0.008220	2.653277	0.995148	8.164248
1.090000	-12.564528	0.683307	1.246711	6.824234	1.676081	-6.949912	-5.708444	8.035135	36.943102	-2.076356	-5.757697	-42.977944	1.601325	-0.685570	0.982924	0.007745	2.929903	0.974049	7.970848
1.100000	-12.438201	0.735740	1.244105	5.641862	1.603772	-6.918552	-5.045364	8.357898	37.334015	-1.852370	-5.612697	-39.624088	1.703192	-0.674986	0.981029	0.007267	3.232996	0.931724	7.744734
1.110000	-12.264353	0.816302	1.243004	4.372909	1.522865	-6.819955	-4.353485	8.605130	37.588171	-1.593076	-5.407378	-36.093564	1.772093	-0.664189	0.978840	0.006809	3.562777	0.855762	7.477829
1.120000	-12.037122	0.911567	1.240042	3.012863	1.449795	-6.662721	-3.631416	8.804351	37.711641	-1.321873	-5.159606	-32.447498	1.810158	-0.653195	0.976396	0.006364	3.912862	0.754511	7.165225
1.130000	-11.758692	0.992545	1.230550	1.573880	1.413671	-6.467171	-2.889722	8.973989	37.730093	-1.076123	-4.881867	-28.767632	1.799695	-0.642030	0.973725	0.005901	4.272230	0.655497	6.809341
1.140000	-11.440401	1.025438	1.208129	0.083635	1.445620	-6.265298	-2.149182	9.121221	37.687134	-0.896015	-4.577748	-25.151510	1.719065	-0.630716	0.970847	0.005376	4.628779	0.595202	6.423693
1.150000	-11.102023	0.987266	1.164096	-1.419228	1.563001	-6.097763	-1.436950	9.248682	37.634153	-0.810524	-4.243145	-21.699057	1.557558	-0.619262	0.967783	0.004743	4.973112	0.602335	6.033371
1.160000	-10.768832	0.877519	1.088468	-2.891770	1.758120	-6.005955	-0.781763	9.364070	37.616988	-0.827418	-3.872386	-18.497893	1.323269	-0.607658	0.964559	0.003971	5.300140	0.683911	5.670663
1.170000	-10.467413	0.719901	0.972785	-4.293103	1.997945	-6.020724	-0.209936	9.485588	37.665847	-0.931542	-3.465241	-15.614559	1.043544	-0.595881	0.961219	0.003051	5.608327	0.821071	5.367698
1.180000	-10.221778	0.554966	0.814253	-5.588917	2.233714	-6.151498	0.257281	9.640779	37.791918	-1.089886	-3.029706	-13.093795	0.761434	-0.583900	0.957819	0.001999	5.897619	0.974654	5.149758
1.190000	-10.050175	0.427952	0.619359	-6.754644	2.414761	-6.380132	0.605148	9.860135	37.989534	-1.260047	-2.578981	-10.962984	0.529977	-0.571692	0.954430	0.000849	6.167264	1.096844	5.031350
1.200000	-9.962937	0.376727	0.403476	-7.776588	2.500675	-6.665973	0.824891	10.163414	38.240864	-1.399532	-2.127130	-9.236321	0.398586	-0.559248	0.951126	-0.000353	6.415379	1.144096	5.015695
1.210000	-9.960131	0.423644	0.186593	-8.652408	2.468918	-6.957889	0.910906	10.545783	38.519435	-1.473320	-1.686598	-7.916000	0.394225	-0.546571	0.947986	-0.001567	6.639362	1.087229	5.095148
1.220000	-10.028546	0.573542	-0.011051	-9.393047	2.316169	-7.201089	0.857789	10.977973	38.791014	-1.457333	-1.266565	-6.991364	0.510010	-0.533681	0.945081	-0.002765	6.834618	0.915761	5.250349
1.230000	-10.143809	0.817051	-0.173642	-10.020105	2.053576	-7.343092	0.658868	11.414560	39.017465	-1.339603	-0.874101	-6.437005	0.702110	-0.520606	0.942472	-0.003934	6.994483	0.636117	5.453117
1.240000	-10.280172	1.135608	-0.294769	-10.554716	1.700394	-7.347141	0.305392	11.799297	39.167170	-1.121439	-0.518295	-6.211888	0.892376	-0.507368	0.940206	-0.005079	7.113664	0.266789	5.676158
1.250000	-10.418757	1.505851	-0.377216	-11.008501	1.279735	-7.202660	-0.213826	12.072994	39.223786	-0.815858	-0.212014	-6.262504	0.984087	-0.493977	0.938316	-0.006224	7.190298	-0.166247	5.901172
1.260000	-10.549044	1.902900	-0.428536	-11.382737	0.816210	-6.921769	-0.912136	12.187756	39.187035	-0.443555	0.030884	-6.529950	0.895950	-0.480424	0.936816	-0.007403	7.226031	-0.633059	6.120173
1.270000	-10.667163	2.302934	-0.458384	-11.671178	0.333956	-6.528476	-1.804027	12.117570	39.068285	-0.029749	0.199807	-6.957860	0.593878	-0.466687	0.935707	-0.008656	7.227375	-1.103181	6.333151
1.280000	-10.771443	2.686775	-0.476099	-11.866253	-0.147439	-6.050500	-2.902295	11.854734	38.882306	0.400896	0.290074	-7.497664	0.090856	-0.452735	0.934978	-0.010014	7.204686	-1.550407	6.542395
1.290000	-10.858906	3.043623	-0.488490	-11.963582	-0.618938	-5.515854	-4.215267	11.393293	38.640656	0.830500	0.304288	-8.111910	-0.573221	-0.438537	0.934609	-0.011497	7.168418	-1.957836	6.747895
1.300000	-10.927715	3.370934	-0.500796	-11.957800	-1.083958	-4.953109	-5.746381	10.710098	38.353538	1.248365	0.253406	-8.778558	-1.340352	-0.424073	0.934575	-0.013118	7.127293	-2.319139	6.949740
1.310000	-10.980683	3.671047	-0.517314	-11.836860	-1.554048	-4.392092	-7.494451	9.756311	38.034886	1.647620	0.155119	-9.493991	-2.132942	-0.409348	0.934852	-0.014879	7.086861	-2.635686	7.152186
1.320000	-11.025645	3.948619	-0.539168	-11.580925	-2.043123	-3.862120	-9.455444	8.471878	37.703729	2.024601	0.028592	-10.270187	-2.856907	-0.394398	0.935416	-0.016771	7.047002	-2.913410	7.363804
1.330000	-11.073327	4.209572	-0.562581	-11.164134	-2.562586	-3.387901	-11.627845	6.822083	37.381015	2.379980	-0.111846	-11.125982	-3.413799	-0.379288	0.936247	-0.018774	7.001518	-3.160927	7.594065
1.340000	-11.132409	4.460148	-0.579846	-10.559814	-3.116897	-2.985508	-14.017190	4.822636	37.082030	2.718622	-0.261782	-12.075792	-3.722535	-0.364103	0.937320	-0.020853	6.940750	-3.387965	7.847140
1.350000	-11.205332	4.706459	-0.582367	-9.746664	-3.701671	-2.661263	-16.634888	2.534159	36.809034	3.048478	-0.428725	-13.119058	-3.744518	-0.348941	0.938608	-0.022962	6.855593	-3.604713	8.117635
1.360000	-11.289143	4.955454	-0.564663	-8.711284	-4.306090	-2.413069	-19.493224	0.052251	36.550401	3.379251	-0.629085	-14.234317	-3.497024	-0.333893	0.940080	-0.025046	6.741265	-3.822698	8.392853
1.370000	-11.378388	5.216063	-0.527453	-7.449406	-4.917420	-2.230117	-22.597266	-2.501313	36.284768	3.720971	-0.878982	-15.380654	-3.045079	-0.319035	0.941700	-0.027048	6.598516	-4.055022	8.658205
1.380000	-11.465498	5.498610	-0.477897	-5.969827	-5.524651	-2.090199	-25.933839	-5.002459	35.984740	4.083105	-1.180971	-16.504506	-2.476051	-0.304422	0.943435	-0.028916	6.431106	-4.313937	8.900332
1.390000	-11.539384	5.812493	-0.425859	-4.299035	-6.120225	-1.964177	-29.463448	-7.342188	35.619103	4.475008	-1.515451	-17.548208	-1.872264	-0.290087	0.945254	-0.030611	6.240602	-4.607033	9.107568
1.400000	-11.586104	6.162280	-0.379582	-2.480692	-6.699199	-1.828415	-33.121224	-9.413891	35.156494	4.904749	-1.844922	-18.458543	-1.294589	-0.276039	0.947137	-0.032120	6.023353	-4.933569	9.270777
1.410000	-11.594345	6.541734	-0.347030	-0.565021	-7.254468	-1.667025	-36.825329	-11.103991	34.572777	5.370847	-2.129076	-19.193827	-0.774673	-0.262265	0.949078	-0.033456	5.775170	-5.280649	9.387160
1.420000	-11.561225	6.927462	-0.339465	1.405019	-7.768517	-1.466913	-40.486607	-12.314216	33.857526	5.850893	-2.340633	-19.728135	-0.312807	-0.248736	0.951090	-0.034657	5.497916	-5.619456	9.463130
1.430000	-11.491674	7.277695	-0.368591	3.398269	-8.208820	-1.226207	-44.016811	-12.986969	33.013013	6.299641	-2.472706	-20.051373	0.112728	-0.235427	0.953201	-0.035783	5.197891	-5.905482	9.510523
1.440000	-11.394267	7.540924	-0.440029	5.392681	-8.534322	-0.966659	-47.335949	-13.117017	32.048696	6.660562	-2.537982	-20.165180	0.528122	-0.222324	0.955442	-0.036899	4.879965	-6.087500	9.540134
1.450000	-11.279282	7.671571	-0.550650	7.374444	-8.709759	-0.730583	-50.378461	-12.757402	30.977959	6.883427	-2.565042	-20.077490	0.949902	-0.209429	0.957830	-0.038061	4.545968	-6.123028	9.559186
1.460000	-11.158519	7.644602	-0.690406	9.339248	-8.718408	-0.566084	-53.097875	-12.012882	29.817933	6.939544	-2.592603	-19.799812	1.379824	-0.196746	0.960359	-0.039304	4.196637	-5.992074	9.572344
1.470000	-11.044767	7.462212	-0.845794	11.292375	-8.567035	-0.512088	-55.469164	-11.017627	28.590515	6.828950	-2.660935	-19.349356	1.808605	-0.184274	0.962991	-0.040635	3.832748	-5.702260	9.583372
1.480000	-10.951200	7.151082	-1.003242	13.247268	-8.282935	-0.587554	-57.488400	-9.907350	27.323676	6.578027	-2.803255	-18.753538	2.223501	-0.171997	0.965653	-0.042028	3.454611	-5.284393	9.596727
1.490000	-10.891087	6.752938	-1.151437	15.222275	-7.906185	-0.785081	-59.168473	-8.795407	26.051406	6.230397	-3.040241	-18.051827	2.613094	-0.159892	0.968260	-0.043436	3.061655	-4.782168	9.618806
1.500000	-10.875305	6.312754	-1.280108	17.232050	-7.480945	-1.073172	-60.529723	-7.757475	24.808605	5.836260	-3.376604	-17.292010	2.967134	-0.147933	0.970731	-0.044795	2.651215	-4.240709	9.656263
1.510000	-10.906052	5.869476	-1.375565	19.273732	-7.049602	-1.408798	-61.587299	-6.826562	23.620035	5.444243	-3.797969	-16.521538	3.274449	-0.136102	0.973015	-0.046046	2.216234	-3.698565	9.709956
1.520000	-10.969403	5.450073	-1.419903	21.314747	-6.647350	-1.750915	-62.339533	-5.998594	22.488126	5.093512	-4.270759	-15.777795	3.524751	-0.124399	0.975093	-0.047139	1.746386	-3.183325	9.767379
1.530000	-11.033606	5.065897	-1.397318	23.291485	-6.294367	-2.068079	-62.761724	-5.246370	21.388495	4.804802	-4.748561	-15.081950	3.714367	-0.112834	0.976972	-0.048042	1.234362	-2.709235	9.800514
1.540000	-11.062297	4.715271	-1.302265	25.128581	-5.992550	-2.341622	-62.810011	-4.538200	20.284008	4.577886	-5.184710	-14.438879	3.846411	-0.101416	0.978676	-0.048741	0.683323	-2.280066	9.778274
1.550000	-11.035643	4.393045	-1.142612	26.769633	-5.731969	-2.565908	-62.436285	-3.854637	19.149855	4.399674	-5.546798	-13.842193	3.924417	-0.090127	0.980222	-0.049237	0.109560	-1.897263	9.686915
1.560000	-10.955604	4.098928	-0.935093	28.189879	-5.501094	-2.746216	-61.606961	-3.191988	17.982224	4.256041	-5.826094	-13.280076	3.952919	-0.078923	0.981611	-0.049539	-0.463708	-1.565635	9.534936
1.570000	-10.833561	3.838805	-0.696281	29.386333	-5.292953	-2.894347	-60.315953	-2.552450	16.786491	4.139198	-6.037025	-12.738041	3.948272	-0.067747	0.982819	-0.049657	-1.017603	-1.292487	9.340489
1.580000	-10.680902	3.621353	-0.435993	30.368342	-5.105685	-3.022164	-58.586870	-1.934732	15.566932	4.048505	-6.207520	-12.198850	3.946534	-0.056545	0.983809	-0.049597	-1.544844	-1.083413	9.121667
1.590000	-10.508054	3.452751	-0.157048	31.155296	-4.939298	-3.136065	-56.464913	-1.333368	14.325604	3.986104	-6.364532	-11.642747	3.998387	-0.045275	0.984538	-0.049365	-2.049258	-0.937591	8.895117
1.600000	-10.323768	3.329440	0.140581	31.772355	-4.789392	-3.236059	-54.001838	-0.746804	13.062905	3.948501	-6.520494	-11.050597	4.152419	-0.033918	0.984971	-0.048976	-2.541040	-0.842361	8.674646
1.610000	-10.132585	3.233538	0.454868	32.243117	-4.642365	-3.318885	-51.241666	-0.188328	11.776942	3.920242	-6.666745	-10.408994	4.435033	-0.022480	0.985088	-0.048461	-3.031022	-0.771235	8.467652
1.620000	-9.933844	3.140042	0.777082	32.586023	-4.479512	-3.380277	-48.216482	0.312310	10.463392	3.879611	-6.777533	-9.713411	4.838212	-0.010983	0.984880	-0.047867	-3.523114	-0.693479	8.273336
1.630000	-9.723678	3.033300	1.089843	32.816024	-4.288538	-3.413712	-44.952607	0.721901	9.116832	3.814086	-6.822577	-8.967856	5.322716	0.000548	0.984343	-0.047245	-4.007763	-0.591780	8.084805
1.640000	-9.497788	2.918263	1.372396	32.945820	-4.072910	-3.407683	-41.478341	1.023185	7.732793	3.731468	-6.781571	-8.183291	5.834554	0.012105	0.983467	-0.046631	-4.463960	-0.473096	7.892930
1.650000	-9.253623	2.819747	1.608889	32.986235	-3.853458	-3.344213	-37.828909	1.229182	6.309795	3.659691	-6.654793	-7.375826	6.326694	0.023699	0.982234	-0.046040	-4.867732	-0.366308	7.690312
1.660000	-8.992825	2.772356	1.791594	32.949487	-3.661661	-3.200897	-34.048988	1.383458	4.852079	3.636816	-6.465908	-6.564796	6.777557	0.035359	0.980627	-0.045468	-5.199266	-0.310163	7.475606
1.670000	-8.724039	2.804830	1.920496	32.854317	-3.527161	-2.959202	-30.191849	1.545078	3.373857	3.694438	-6.255094	-5.772211	7.199416	0.047121	0.978642	-0.044904	-5.448587	-0.336228	7.257370
1.680000	-8.462717	2.926943	2.002921	32.727065	-3.466958	-2.615092	-26.315713	1.766056	1.901243	3.843074	-6.064457	-5.023565	7.631563	0.059018	0.976290	-0.044335	-5.620037	-0.455684	7.053652
1.690000	-8.224446	3.126487	2.052412	32.594690	-3.482456	-2.182553	-22.480543	2.072528	0.466123	4.067950	-5.921599	-4.347569	8.119689	0.071065	0.973614	-0.043752	-5.731809	-0.657390	6.884218
1.700000	-8.018908	3.374676	2.085632	32.477360	-3.561888	-1.689788	-18.747026	2.458797	-0.902131	4.334284	-5.832196	-3.773635	8.694798	0.083253	0.970675	-0.043146	-5.809358	-0.914089	6.762897
1.710000	-7.849942	3.634096	2.117577	32.387042	-3.682900	-1.170274	-15.177300	2.893744	-2.180789	4.596453	-5.785179	-3.327214	9.359227	0.095566	0.967556	-0.042508	-5.875536	-1.189905	6.695777
1.720000	-7.715855	3.866323	2.158410	32.326874	-3.816164	-0.649202	-11.835875	3.334140	-3.357477	4.807981	-5.760825	-3.024776	10.082810	0.107987	0.964341	-0.041827	-5.943772	-1.446872	6.679830
1.730000	-7.610889	4.039909	2.214135	32.293386	-3.933147	-0.136169	-8.790676	3.742872	-4.430501	4.932522	-5.736900	-2.872098	10.818784	0.120506	0.961108	-0.041092	-6.017888	-1.651984	6.703629
1.740000	-7.530197	4.137652	2.288464	32.284024	-4.014805	0.370215	-6.113586	4.102914	-5.403075	4.953412	-5.694291	-2.866213	11.527395	0.133118	0.957918	-0.040294	-6.095614	-1.784310	6.753125
1.750000	-7.472974	4.158349	2.383536	32.302177	-4.054432	0.871803	-3.877289	4.416450	-6.278293	4.875176	-5.620892	-2.998439	12.185813	0.145825	0.954814	-0.039423	-6.172658	-1.837917	6.817173
1.760000	-7.442912	4.111276	2.500374	32.356997	-4.053345	1.357463	-2.147411	4.694438	-7.056903	4.715464	-5.512502	-3.257615	12.789305	0.158631	0.951831	-0.038470	-6.246490	-1.818263	6.891169
1.770000	-7.447989	4.007071	2.639349	32.460507	-4.013224	1.793685	-0.971501	4.945018	-7.736025	4.492791	-5.371022	-3.633391	13.350223	0.171543	0.948996	-0.037432	-6.318583	-1.734478	6.979461
1.780000	-7.497618	3.850136	2.799324	32.621763	-3.929495	2.132331	-0.367311	5.158463	-8.310612	4.216759	-5.203918	-4.118250	13.883074	0.184583	0.946338	-0.036314	-6.393468	-1.592006	7.093313
1.790000	-7.597365	3.637073	2.975508	32.840086	-3.789951	2.334750	-0.313576	5.290958	-8.777377	3.886027	-5.027077	-4.708062	14.376488	0.197782	0.943888	-0.035124	-6.474877	-1.390324	7.244320
1.800000	-7.746473	3.361748	3.159085	33.102981	-3.580497	2.391494	-0.746660	5.267061	-9.135978	3.494125	-4.862327	-5.403686	14.783090	0.211176	0.941670	-0.033876	-6.562503	-1.126874	7.439259
1.810000	-7.940645	3.022515	3.340732	33.390676	-3.294431	2.321328	-1.566130	5.012264	-9.385294	3.037490	-4.722844	-6.214669	15.046513	0.224804	0.939700	-0.032573	-6.652585	-0.803183	7.680197
1.820000	-8.175212	2.626154	3.514526	33.681908	-2.937695	2.158950	-2.649074	4.486375	-9.520897	2.519590	-4.601429	-7.159682	15.130837	0.238702	0.937987	-0.031210	-6.740261	-0.428119	7.966283
1.830000	-8.443987	2.186858	3.678835	33.955590	-2.526728	1.946803	-3.869535	3.687598	-9.538626	1.949279	-4.477309	-8.260038	15.015399	0.252897	0.936537	-0.029773	-6.820882	-0.016732	8.293000
1.840000	-8.736341	1.723049	3.835090	34.191168	-2.083211	1.728128	-5.120650	2.644624	-9.439884	1.336882	-4.330104	-9.531338	14.674228	0.267403	0.935365	-0.028242	-6.890533	0.412602	8.650664
1.850000	-9.036627	1.253862	3.984625	34.371351	-1.628098	1.536511	-6.333790	1.417085	-9.233009	0.690863	-4.147366	-10.979012	14.067081	0.282210	0.934493	-0.026596	-6.945061	0.841201	9.024816
1.860000	-9.326091	0.793874	4.126074	34.484266	-1.174840	1.387573	-7.484466	0.094330	-8.929791	0.013449	-3.926352	-12.600358	13.143878	0.297288	0.933945	-0.024824	-6.979597	1.255087	9.397862
1.870000	-9.586571	0.348128	4.257062	34.523515	-0.726369	1.277285	-8.582711	-1.213238	-8.537657	-0.702661	-3.670739	-14.393253	11.857473	0.312587	0.933744	-0.022925	-6.991420	1.650126	9.752026
1.880000	-9.805531	-0.088311	4.377148	34.488693	-0.277339	1.187417	-9.655607	-2.387050	-8.051149	-1.471640	-3.384700	-16.364435	10.173442	0.328044	0.933900	-0.020913	-6.982553	2.032735	10.074227
1.890000	-9.979637	-0.527152	4.489088	34.385052	0.182305	1.094609	-10.728848	-3.318931	-7.449064	-2.307480	-3.068373	-18.530395	8.077915	0.343587	0.934400	-0.018804	-6.959993	2.416482	10.360021
1.900000	-10.113861	-0.981424	4.599035	34.219661	0.662468	0.977529	-11.812381	-3.931957	-6.700179	-3.215019	-2.716601	-20.911003	5.591542	0.359140	0.935212	-0.016619	-6.934836	2.815992	10.612934
1.910000	-10.216716	-1.458404	4.714622	33.995827	1.166817	0.820149	-12.894564	-4.194367	-5.775488	-4.181116	-2.322540	-23.518987	2.784549	0.374627	0.936283	-0.014382	-6.919009	3.239318	10.839546
1.920000	-10.294602	-1.954705	4.840530	33.708521	1.690548	0.612115	-13.944685	-4.120379	-4.661539	-5.171960	-1.886445	-26.349626	-0.215732	0.389973	0.937549	-0.012125	-6.919481	3.683151	11.043607
1.930000	-10.347812	-2.457160	4.973068	33.342209	2.225219	0.348739	-14.919470	-3.759714	-3.369613	-6.140646	-1.427755	-29.374936	-3.231666	0.405119	0.938948	-0.009890	-6.932253	4.134517	11.222093
1.940000	-10.369293	-2.948412	5.096435	32.871890	2.766713	0.033240	-15.770859	-3.181987	-1.937549	-7.041703	-0.990649	-32.544593	-6.058679	0.420026	0.940425	-0.007721	-6.939027	4.577219	11.364456
1.950000	-10.347589	-3.412245	5.185833	32.269075	3.317972	-0.320156	-16.454418	-2.461837	-0.420300	-7.843538	-0.627558	-35.794492	-8.503161	0.434676	0.941939	-0.005669	-6.911026	4.997202	11.456198
1.960000	-10.274572	-3.835300	5.218546	31.512065	3.883157	-0.686155	-16.935870	-1.669564	1.130569	-8.531582	-0.366191	-39.059478	-10.423073	0.449073	0.943474	-0.003775	-6.820497	5.383176	11.486801
1.970000	-10.153447	-4.205680	5.184526	30.595212	4.458880	-1.032565	-17.193878	-0.868205	2.686771	-9.102536	-0.189698	-42.283463	-11.749135	0.463234	0.945035	-0.002062	-6.651454	5.723574	11.457274
1.980000	-10.000984	-4.510577	5.088701	29.532021	5.029170	-1.328114	-17.221269	-0.112204	4.249986	-9.555880	-0.046131	-45.422126	-12.481282	0.477189	0.946654	-0.000524	-6.402187	6.003052	11.381710
1.990000	-9.841993	-4.734761	4.946748	28.350827	5.565554	-1.551990	-17.026083	0.555935	5.843118	-9.887853	0.121780	-48.438988	-12.675036	0.490969	0.948372	0.000866	-6.081304	6.201270	11.281714
2.000000	-9.699232	-4.861292	4.778650	27.085603	6.031452	-1.700751	-16.631590	1.109208	7.492540	-10.089938	0.344480	-51.299251	-12.427543	0.504589	0.950229	0.002152	-5.701470	6.295378	11.177215
2.010000	-9.585617	-4.875478	4.601657	25.768122	6.390570	-1.789470	-16.074024	1.538219	9.211816	-10.152511	0.608278	-53.965946	-11.862626	0.518045	0.952252	0.003376	-5.272778	6.266486	11.079891
2.020000	-9.503127	-4.770100	4.425379	24.424925	6.615980	-1.848166	-15.397280	1.850942	10.995081	-10.070978	0.860056	-56.399100	-11.111122	0.531312	0.954445	0.004557	-4.798760	6.106798	10.992412
2.030000	-9.448157	-4.546895	4.253168	23.078827	6.693588	-1.917192	-14.645257	2.067236	12.822200	-9.848155	1.031431	-58.556514	-10.288257	0.544362	0.956794	0.005700	-4.278779	5.821126	10.912740
2.040000	-9.418752	-4.213386	4.088704	21.751640	6.619206	-2.041285	-13.854348	2.209360	14.670034	-9.491283	1.068160	-60.396077	-9.476809	0.557172	0.959266	0.006797	-3.715272	5.421575	10.839521
2.050000	-9.417649	-3.780349	3.941175	20.463976	6.395997	-2.258509	-13.049434	2.294695	16.520447	-9.009993	0.946780	-61.880298	-8.723309	0.569730	0.961824	0.007845	-3.119381	4.921880	10.773836
2.060000	-9.450720	-3.263392	3.824254	19.233228	6.036641	-2.587407	-12.245337	2.333857	18.362543	-8.419372	0.675746	-62.982016	-8.046316	0.582033	0.964416	0.008844	-2.510494	4.336916	10.717937
2.070000	-9.523363	-2.685320	3.750269	18.072150	5.566197	-3.020947	-11.452797	2.333989	20.190698	-7.743349	0.286963	-63.688925	-7.448850	0.594083	0.966983	0.009790	-1.910621	3.685230	10.673545
2.080000	-9.636512	-2.075456	3.724586	16.987508	5.020590	-3.531226	-10.684516	2.304902	22.000171	-7.013225	-0.178379	-64.005052	-6.922895	0.605884	0.969462	0.010669	-1.338013	2.990501	10.640286
2.090000	-9.783996	-1.466691	3.743284	15.978176	4.441831	-4.082556	-9.956181	2.263435	23.783027	-6.263146	-0.686127	-63.949464	-6.438960	0.617444	0.971784	0.011453	-0.803277	2.281446	10.614696
2.100000	-9.951059	-0.891942	3.794868	15.031975	3.873192	-4.645758	-9.282140	2.233018	25.524550	-5.526341	-1.217507	-63.551264	-5.939383	0.628784	0.973888	0.012101	-0.309149	1.590687	10.588701
2.110000	-10.114222	-0.380094	3.865191	14.123081	3.354717	-5.205474	-8.669592	2.239315	27.200366	-4.832001	-1.762675	-62.841355	-5.354645	0.639944	0.975719	0.012579	0.146529	0.951883	10.547696
2.120000	-10.245384	0.049382	3.941242	13.214552	2.917656	-5.757446	-8.114200	2.304461	28.777439	-4.201224	-2.312236	-61.845080	-4.629063	0.650984	0.977231	0.012869	0.568752	0.393925	10.472048
2.130000	-10.319519	0.391513	4.010819	12.266092	2.579183	-6.299083	-7.597468	2.440940	30.219874	-3.644116	-2.855040	-60.578200	-3.741859	0.661981	0.978389	0.012980	0.966859	-0.066010	10.342823
2.140000	-10.321328	0.655852	4.061430	11.242574	2.341316	-6.820464	-7.086481	2.647148	31.496697	-3.160864	-3.375012	-59.045765	-2.723653	0.673013	0.979166	0.012940	1.355280	-0.424928	10.148489
2.150000	-10.248374	0.860493	4.081924	10.120805	2.194195	-7.302316	-6.538839	2.909579	32.588230	-2.745135	-3.846742	-57.242923	-1.659217	0.684147	0.979541	0.012785	1.749992	-0.690585	9.889952
2.160000	-10.110083	1.024036	4.064726	8.893118	2.121271	-7.721733	-5.914070	3.211913	33.487643	-2.387609	-4.238657	-55.157414	-0.664318	0.695419	0.979500	0.012544	2.164029	-0.875963	9.581772
2.170000	-9.923507	1.158212	4.006085	7.567709	2.106108	-8.060055	-5.188204	3.542539	34.198114	-2.080428	-4.524383	-52.774609	0.153437	0.706848	0.979040	0.012223	2.605455	-0.993803	9.248954
2.180000	-9.708821	1.263558	3.904683	6.167327	2.138792	-8.307179	-4.364737	3.893503	34.729677	-1.821700	-4.692045	-50.083733	0.723542	0.718438	0.978170	0.011815	3.077660	-1.052559	8.921563
2.190000	-9.485715	1.330896	3.760064	4.725252	2.217679	-8.462868	-3.475326	4.255084	35.097391	-1.616494	-4.745561	-47.083487	1.023198	0.730188	0.976917	0.011309	3.580435	-1.055783	8.628346
2.200000	-9.269575	1.347829	3.572423	3.276691	2.345792	-8.538232	-2.568902	4.614406	35.319825	-1.473101	-4.699650	-43.787415	1.078457	0.742102	0.975319	0.010705	4.110034	-1.004607	8.389121
2.210000	-9.067939	1.306059	3.344186	1.848678	2.525258	-8.556383	-1.695485	4.960115	35.417559	-1.397215	-4.570707	-40.228497	0.956063	0.754183	0.973422	0.010022	4.657780	-0.901074	8.208193
2.220000	-8.879232	1.205101	3.082498	0.453973	2.753783	-8.548662	-0.893302	5.289292	35.412292	-1.387921	-4.367417	-36.461122	0.743847	0.766427	0.971261	0.009294	5.208426	-0.749958	8.072722
2.230000	-8.695185	1.050988	2.800583	-0.908080	3.024851	-8.545472	-0.183610	5.611359	35.327025	-1.437607	-4.086971	-32.559731	0.527013	0.778824	0.968864	0.008566	5.740487	-0.558383	7.958216
2.240000	-8.506244	0.852701	2.516095	-2.244646	3.329896	-8.565446	0.427015	5.945636	35.186658	-1.535075	-3.720119	-28.613574	0.370477	0.791360	0.966247	0.007872	6.230047	-0.334708	7.839242
2.250000	-8.307432	0.620096	2.246840	-3.560681	3.659188	-8.608829	0.940382	6.313145	35.017145	-1.669204	-3.262642	-24.717459	0.311973	0.804018	0.963430	0.007229	6.656767	-0.088402	7.700450
2.260000	-8.101736	0.364465	2.005864	-4.853421	4.000084	-8.658578	1.360785	6.726794	34.842139	-1.830865	-2.726461	-20.960964	0.365251	0.816789	0.960447	0.006633	7.009467	0.169308	7.542716
2.270000	-7.898773	0.099680	1.797089	-6.112502	4.334995	-8.688039	1.690996	7.185059	34.677888	-2.013545	-2.143174	-17.421229	0.528199	0.829672	0.957351	0.006064	7.290119	0.425749	7.380990
2.280000	-7.709730	-0.158419	1.612730	-7.323726	4.642015	-8.671304	1.929387	7.672152	34.529467	-2.213930	-1.557450	-14.162574	0.789338	0.842666	0.954212	0.005493	7.515530	0.668828	7.235183
2.290000	-7.542983	-0.393918	1.435096	-8.472377	4.897662	-8.592378	2.068490	8.163832	34.391732	-2.430712	-1.013935	-11.241054	1.130125	0.855770	0.951108	0.004890	7.714348	0.888741	7.120222
2.300000	-7.403552	-0.591702	1.243507	-9.543508	5.079256	-8.450296	2.095438	8.635123	34.255106	-2.659068	-0.544532	-8.708927	1.524748	0.868970	0.948109	0.004228	7.918171	1.077003	7.040953
2.310000	-7.294884	-0.737347	1.022421	-10.520974	5.166973	-8.258907	1.994273	9.065262	34.112339	-2.884252	-0.161686	-6.615584	1.939863	0.882249	0.945273	0.003488	8.150369	1.224134	6.992766
2.320000	-7.219764	-0.817613	0.765986	-11.388360	5.146479	-8.042449	1.749512	9.437501	33.961858	-3.080537	0.139800	-5.004184	2.334531	0.895590	0.942646	0.002660	8.418452	1.318668	6.965397
2.330000	-7.179924	-0.821153	0.478250	-12.132283	5.010413	-7.829062	1.349901	9.735591	33.806663	-3.215620	0.373738	-3.903859	2.658731	0.908982	0.940267	0.001742	8.712804	1.347249	6.947788
2.340000	-7.175524	-0.739051	0.170804	-12.745869	4.757755	-7.643777	0.790883	9.940533	33.650864	-3.257339	0.551702	-3.319392	2.852049	0.922435	0.938173	0.000737	9.011042	1.295379	6.932640
2.350000	-7.204888	-0.566374	-0.140503	-13.230023	4.393172	-7.502032	0.073788	10.031589	33.496673	-3.181111	0.676394	-3.222918	2.847997	0.935989	0.936396	-0.000348	9.285719	1.150329	6.919384
2.360000	-7.265223	-0.304938	-0.438352	-13.590628	3.927892	-7.404833	-0.798990	9.994099	33.344511	-2.976370	0.741736	-3.552406	2.587268	0.949704	0.934960	-0.001512	9.512199	0.906112	6.915530
2.370000	-7.353925	0.035043	-0.705972	-13.833314	3.380227	-7.337450	-1.829791	9.826115	33.195261	-2.649052	0.739576	-4.218365	2.034154	0.963648	0.933867	-0.002750	9.674553	0.567246	6.935755
2.380000	-7.467574	0.437336	-0.929242	-13.961204	2.772309	-7.273649	-3.027557	9.527538	33.049703	-2.217941	0.672298	-5.116585	1.184371	0.977877	0.933099	-0.004060	9.768747	0.147736	6.996129
2.390000	-7.599532	0.884230	-1.098652	-13.976240	2.124748	-7.184557	-4.404237	9.075600	32.905400	-1.707602	0.563706	-6.144426	0.065077	0.992414	0.932622	-0.005437	9.801852	-0.333316	7.106297
2.400000	-7.740878	1.358258	-1.210272	-13.878823	1.454724	-7.048349	-5.969262	8.413427	32.757004	-1.143710	0.456024	-7.217596	-1.261549	1.007244	0.932398	-0.006875	9.786919	-0.854594	7.267039
2.410000	-7.884205	1.841299	-1.266095	-13.665100	0.777167	-6.857653	-7.726473	7.465948	32.599812	-0.551695	0.392680	-8.282088	-2.693791	1.022324	0.932396	-0.008369	9.736516	-1.393137	7.473845
2.420000	-8.025477	2.314723	-1.273860	-13.325858	0.104961	-6.622664	-9.675266	6.171316	32.431178	0.044504	0.399647	-9.316320	-4.097784	1.037598	0.932599	-0.009921	9.658455	-1.924973	7.720641
2.430000	-8.161775	2.761464	-1.245951	-12.849388	-0.552421	-6.368886	-11.813920	4.504449	32.247562	0.624704	0.478570	-10.323249	-5.331027	1.053001	0.933010	-0.011532	9.555105	-2.426705	7.999522
2.440000	-8.288120	3.169212	-1.196981	-12.225511	-1.190697	-6.128930	-14.142539	2.482703	32.040617	1.175182	0.613658	-11.316373	-6.273819	1.068465	0.933645	-0.013209	9.425320	-2.878364	8.298259
2.450000	-8.398014	3.533642	-1.140245	-11.446140	-1.812260	-5.928856	-16.665283	0.164756	31.797123	1.691036	0.782767	-12.304861	-6.853800	1.083920	0.934519	-0.014953	9.266886	-3.267762	8.600322
2.460000	-8.487854	3.859947	-1.086202	-10.501332	-2.426172	-5.774589	-19.391639	-2.348589	31.502653	2.175555	0.962420	-13.282060	-7.054140	1.099291	0.935632	-0.016758	9.079836	-3.594512	8.889060
2.470000	-8.562377	4.161475	-1.045590	-9.373803	-3.045550	-5.647226	-22.334060	-4.919169	31.146565	2.635092	1.124654	-14.220063	-6.907151	1.114508	0.936966	-0.018606	8.871295	-3.871288	9.154447
2.480000	-8.635644	4.455732	-1.032464	-8.039805	-3.682159	-5.510244	-25.498985	-7.390115	30.724308	3.073844	1.235221	-15.072722	-6.478335	1.129515	0.938484	-0.020458	8.656689	-4.120724	9.396853
2.490000	-8.722635	4.758291	-1.060991	-6.483022	-4.339326	-5.323335	-28.873040	-9.610636	30.233091	3.493037	1.262465	-15.787411	-5.845578	1.144269	0.940141	-0.022270	8.452153	-4.367272	9.621906
2.500000	-8.826667	5.075748	-1.138248	-4.713428	-5.005795	-5.056860	-32.411599	-11.457448	29.665015	3.892705	1.191974	-16.321736	-5.080702	1.158742	0.941892	-0.023994	8.262916	-4.626364	9.830167
2.510000	-8.935021	5.401433	-1.259613	-2.773966	-5.654957	-4.703183	-36.037185	-12.848156	29.007253	4.272965	1.034248	-16.657529	-4.241243	1.172907	0.943705	-0.025597	8.077606	-4.897328	10.012591
2.520000	-9.027912	5.716314	-1.409379	-0.727975	-6.251216	-4.281034	-39.650372	-13.736889	28.251672	4.633873	0.818227	-16.805030	-3.374741	1.186756	0.945569	-0.027058	7.872330	-5.164043	10.156886
2.530000	-9.092124	5.992270	-1.565068	1.362441	-6.758134	-3.830548	-43.147726	-14.104225	27.404932	4.972098	0.576388	-16.796336	-2.526794	1.200299	0.947495	-0.028374	7.620366	-5.399479	10.257690
2.540000	-9.127852	6.195263	-1.702771	3.452027	-7.142952	-3.401384	-46.437144	-13.966452	26.489786	5.275062	0.333158	-16.673229	-1.740905	1.213559	0.949504	-0.029555	7.300795	-5.569655	10.320625
2.550000	-9.147360	6.290925	-1.801575	5.517262	-7.380083	-3.040392	-49.446472	-13.392172	25.538462	5.519046	0.100158	-16.474824	-1.050768	1.226560	0.951606	-0.030621	6.902746	-5.639217	10.359283
2.560000	-9.169614	6.254004	-1.846699	7.553701	-7.457206	-2.783511	-52.126775	-12.497235	24.583792	5.675405	-0.124770	-16.228881	-0.473597	1.239318	0.953786	-0.031594	6.425493	-5.580723	10.389590
2.570000	-9.212732	6.077476	-1.831688	9.568024	-7.380750	-2.651253	-54.451479	-11.415210	23.650892	5.720907	-0.355655	-15.949380	-0.008517	1.251836	0.956008	-0.032498	5.875841	-5.383854	10.423570
2.580000	-9.285879	5.776617	-1.759647	11.566854	-7.176717	-2.645944	-56.411803	-10.260528	22.750588	5.646454	-0.613126	-15.640144	0.359753	1.264114	0.958213	-0.033348	5.264787	-5.059834	10.463583
2.590000	-9.384295	5.385690	-1.643411	13.547125	-6.885505	-2.751233	-58.009605	-9.104415	21.876721	5.460228	-0.916853	-15.301123	0.653257	1.276147	0.960344	-0.034148	4.605916	-4.638534	10.499757
2.600000	-9.490986	4.947184	-1.504832	15.493026	-6.550162	-2.934911	-59.248984	-7.977221	21.009596	5.182711	-1.278401	-14.933834	0.892498	1.287937	0.962354	-0.034895	3.916565	-4.158046	10.513659
2.610000	-9.584622	4.498486	-1.372285	17.380219	-6.202156	-3.155659	-60.129331	-6.890350	20.124890	4.836879	-1.696851	-14.544402	1.091586	1.299509	0.964222	-0.035584	3.219454	-3.651589	10.487412
2.620000	-9.649139	4.063963	-1.274604	19.183639	-5.854378	-3.372815	-60.643339	-5.857514	19.203861	4.442231	-2.158791	-14.143746	1.258877	1.310917	0.965947	-0.036206	2.540741	-3.139741	10.413671
2.630000	-9.679592	3.656099	-1.232080	20.883636	-5.506678	-3.556691	-60.780857	-4.898927	18.239559	4.017218	-2.643655	-13.744841	1.400441	1.322243	0.967541	-0.036757	1.903380	-2.631715	10.301047
2.640000	-9.680379	3.281891	-1.248892	22.466811	-5.157748	-3.697230	-60.536145	-4.026782	17.235383	3.585198	-3.132273	-13.358079	1.522332	1.333585	0.969012	-0.037235	1.319333	-2.131989	10.171097
2.650000	-9.658442	2.948076	-1.311832	23.923760	-4.813084	-3.806145	-59.913639	-3.231619	16.198359	3.175988	-3.613990	-12.986204	1.631353	1.345028	0.970364	-0.037638	0.786046	-1.646199	10.049257
2.660000	-9.617973	2.661758	-1.396229	25.247821	-4.484473	-3.908477	-58.928474	-2.486817	15.132957	2.820735	-4.088406	-12.620167	1.736367	1.356618	0.971592	-0.037970	0.289539	-1.182986	9.956230
2.670000	-9.558258	2.427504	-1.475002	26.433672	-4.183665	-4.028136	-57.601600	-1.763636	14.037734	2.543735	-4.560031	-12.238769	1.850644	1.368363	0.972681	-0.038234	-0.188475	-0.752454	9.901993
2.680000	-9.473114	2.244550	-1.525670	27.473856	-3.916588	-4.175568	-55.952149	-1.044344	12.904854	2.356546	-5.027803	-11.814840	1.993712	1.380237	0.973602	-0.038429	-0.663681	-0.364225	9.882170
2.690000	-9.352504	2.106649	-1.533156	28.356072	-3.682191	-4.341771	-53.990783	-0.330768	11.723440	2.257054	-5.475470	-11.326786	2.190788	1.392194	0.974308	-0.038544	-1.144899	-0.026908	9.878781
2.700000	-9.187300	2.004567	-1.489037	29.065033	-3.475191	-4.499787	-51.717506	0.353280	10.486181	2.232492	-5.869548	-10.769648	2.468781	1.404185	0.974734	-0.038557	-1.633407	0.251637	9.866958
2.710000	-8.975627	1.930834	-1.390161	29.589370	-3.291027	-4.612903	-49.125957	0.970134	9.195280	2.265449	-6.167598	-10.158191	2.849652	1.416177	0.974808	-0.038438	-2.124238	0.463506	9.825235
2.720000	-8.726795	1.885014	-1.239695	29.929765	-3.130884	-4.646152	-46.212347	1.485822	7.863312	2.341620	-6.333070	-9.519248	3.342949	1.428165	0.974467	-0.038163	-2.606383	0.600087	9.743446
2.730000	-8.459363	1.876291	-1.049502	30.102953	-3.003790	-4.576056	-42.984747	1.886695	6.508188	2.456244	-6.348553	-8.878802	3.939798	1.440173	0.973671	-0.037723	-3.061805	0.652873	9.622999
2.740000	-8.194081	1.922150	-0.839604	30.139218	-2.925504	-4.394979	-39.469501	2.185205	5.145414	2.616555	-6.220587	-8.252105	4.611552	1.452242	0.972417	-0.037130	-3.466178	0.615341	9.469669
2.750000	-7.946505	2.043227	-0.632055	30.075263	-2.915145	-4.109891	-35.713517	2.413464	3.782332	2.838047	-5.975107	-7.641089	5.314770	1.464413	0.970732	-0.036409	-3.848201	0.486051	9.318863
2.760000	-7.723455	2.255508	-0.441448	29.946622	-2.990305	-3.737544	-31.782815	2.609624	2.417535	3.135384	-5.648304	-7.038498	6.001023	1.476720	0.968669	-0.035588	-4.342413	0.267971	9.254429
2.770000	-7.523641	2.563924	-0.268682	29.782823	-3.162787	-3.298926	-27.758748	2.805060	1.044952	3.513804	-5.278694	-6.435554	6.628750	1.489182	0.966298	-0.034690	-0.000000	-0.000000	0.000000
2.780000	-7.341062	2.960204	-0.103948	29.606566	-3.435658	-2.815346	-23.732179	3.017930	-0.340046	3.965268	-4.902755	-5.829200	7.174066	1.501801	0.963695	-0.033732	-0.000000	-0.000000	0.000000
2.790000	-7.169594	3.423655	0.063123	29.435279	-3.800283	-2.306540	-19.794686	3.252707	-1.734951	4.468404	-4.552195	-5.226189	7.636220	1.514562	0.960932	-0.032729	-0.000000	-0.000000	0.000000
2.800000	-7.006517	3.923090	0.235783	29.281970	-4.234765	-1.790254	-16.028256	3.503248	-3.126730	4.990637	-4.249845	-4.644016	8.034933	1.527433	0.958076	-0.031699	-0.000000	-0.000000	0.000000
2.810000	-6.854008	4.420508	0.410206	29.155084	-4.706434	-1.283619	-12.498236	3.757987	-4.491490	5.492698	-4.004936	-4.109682	8.401414	1.540374	0.955179	-0.030662	-0.000000	-0.000000	0.000000
2.820000	-6.719444	4.876987	0.580426	29.059900	-5.177843	-0.806455	-9.253781	4.006702	-5.796537	5.934928	-3.811183	-3.656764	8.767250	1.553344	0.952282	-0.029632	-0.000000	-0.000000	0.000000
2.830000	-6.614300	5.258500	0.745105	29.000685	-5.613497	-0.383296	-6.335205	4.246226	-7.004736	6.282568	-3.648464	-3.321445	9.154467	1.566308	0.949418	-0.028617	-0.000000	-0.000000	0.000000
2.840000	-6.550344	5.539113	0.913085	28.980426	-5.984796	-0.039664	-3.783026	4.479149	-8.081582	6.508027	-3.487083	-3.138290	9.570003	1.579248	0.946611	-0.027607	-0.000000	-0.000000	0.000000
2.850000	-6.535195	5.702167	1.103095	28.999745	-6.272264	0.205351	-1.643268	4.704323	-9.001858	6.591825	-3.295853	-3.136613	10.006846	1.592165	0.943884	-0.026584	-0.000000	-0.000000	0.000000
2.860000	-6.570582	5.740025	1.336688	29.057907	-6.464441	0.344207	0.034135	4.903898	-9.752114	6.523412	-3.053822	-3.337562	10.449768	1.605074	0.941257	-0.025522	-0.000000	-0.000000	0.000000
2.870000	-6.652581	5.652059	1.628549	29.153313	-6.554108	0.382268	1.205516	5.031568	-10.330864	6.300939	-2.759657	-3.750939	10.880145	1.618006	0.938745	-0.024394	-0.000000	-0.000000	0.000000
2.880000	-6.772049	5.443000	1.979486	29.281095	-6.535586	0.335927	1.849859	5.008647	-10.748985	5.930868	-2.432755	-4.372106	11.276185	1.631003	0.936366	-0.023185	-0.000000	-0.000000	0.000000
2.890000	-6.915432	5.123292	2.376043	29.429643	-6.405709	0.227718	1.983994	4.734733	-11.028928	5.427985	-2.105292	-5.182050	11.610677	1.644116	0.934137	-0.021887	-0.000000	-0.000000	0.000000
2.900000	-7.066551	4.710175	2.796763	29.578966	-6.166855	0.081602	1.668147	4.115923	-11.201232	4.814336	-1.809283	-6.152309	11.849858	1.657406	0.932075	-0.020507	-0.000000	-0.000000	0.000000
2.910000	-7.209585	4.228321	3.220784	29.703434	-5.829527	-0.078176	0.997061	3.104709	-11.298131	4.117383	-1.565490	-7.253205	11.953833	1.670941	0.930196	-0.019055	-0.000000	-0.000000	0.000000
2.920000	-7.332059	3.710035	3.634328	29.778455	-5.414323	-0.226830	0.079262	1.731192	-11.345490	3.369471	-1.377209	-8.463053	11.874527	1.684787	0.928503	-0.017540	-0.000000	-0.000000	0.000000
2.930000	-7.426611	3.191986	4.032140	29.787403	-4.950463	-0.342137	-0.985708	0.104100	-11.354877	2.605930	-1.228785	-9.776828	11.550680	1.698993	0.926993	-0.015968	-0.000000	-0.000000	0.000000
2.940000	-7.491912	2.704667	4.412260	29.726442	-4.465687	-0.408970	-2.123607	-1.614199	-11.317129	1.856127	-1.094924	-11.212497	10.913943	1.713571	0.925659	-0.014341	-0.000000	-0.000000	0.000000
2.950000	-7.533327	2.258208	4.767622	29.606520	-3.970830	-0.422667	-3.292126	-3.240953	-11.199573	1.129701	-0.959498	-12.812340	9.910145	1.728489	0.924504	-0.012666	-0.000000	-0.000000	0.000000
2.960000	-7.562656	1.833554	5.082184	29.451391	-3.450093	-0.396095	-4.476907	-4.610119	-10.949261	0.407283	-0.823795	-14.636497	8.511876	1.743677	0.923546	-0.010955	-0.000000	-0.000000	0.000000
2.970000	-7.594821	1.386447	5.334830	29.290470	-2.865168	-0.365890	-5.680480	-5.605838	-10.504489	-0.355816	-0.698034	-16.748379	6.717570	1.759037	0.922822	-0.009230	-0.000000	-0.000000	0.000000
2.980000	-7.640874	0.864432	5.508068	29.147444	-2.172071	-0.384293	-6.910412	-6.176379	-9.813788	-1.212619	-0.591551	-19.195349	4.557253	1.774459	0.922366	-0.007518	-0.000000	-0.000000	0.000000
2.990000	-7.701477	0.228236	5.596968	29.029713	-1.341576	-0.498453	-8.169689	-6.327847	-8.854142	-2.203081	-0.511086	-21.991089	2.101840	1.789831	0.922197	-0.005841	-0.000000	-0.000000	0.000000
3.000000	-7.765879	-0.532832	5.614064	28.924963	-0.373985	-0.731291	-9.450515	-6.107937	-7.638046	-3.337608	-0.465939	-25.107326	-0.537158	1.805051	0.922303	-0.004205	-0.000000	-0.000000	0.000000
3.010000	-7.817633	-1.397699	5.587657	28.806829	0.698163	-1.073483	-10.732031	-5.586696	-6.205572	-4.591939	-0.468519	-28.480068	-3.217837	1.820037	0.922643	-0.002605	-0.000000	-0.000000	0.000000
3.020000	-7.842937	-2.322718	5.552322	28.645026	1.821697	-1.488873	-11.981446	-4.839031	-4.607534	-5.915279	-0.524039	-32.026220	-5.788363	1.834729	0.923152	-0.001030	-0.000000	-0.000000	0.000000
3.030000	-7.835399	-3.256239	5.535056	28.413025	2.941102	-1.930462	-13.158078	-3.932247	-2.891497	-7.245466	-0.620473	-35.659504	-8.113847	1.849096	0.923764	0.000524	-0.000000	-0.000000	0.000000
3.040000	-7.797734	-4.149608	5.546793	28.092885	4.010144	-2.361072	-14.219738	-2.920350	-1.094334	-8.521087	-0.723334	-39.298300	-10.094390	1.863127	0.924430	0.002054	-0.000000	-0.000000	0.000000
3.050000	-7.742928	-4.960991	5.582339	27.679052	4.993253	-2.765975	-15.129341	-1.847242	0.759932	-9.685703	-0.780368	-42.865834	-11.663162	1.876841	0.925137	0.003542	-0.000000	-0.000000	0.000000
3.060000	-7.687854	-5.653409	5.622242	27.173280	5.863318	-3.142684	-15.859641	-0.756333	2.649462	-10.687365	-0.752109	-46.286162	-12.776547	1.890275	0.925918	0.004973	-0.000000	-0.000000	0.000000
3.070000	-7.639961	-6.191222	5.636049	26.571210	6.599033	-3.478621	-16.395770	0.303787	4.535902	-11.479733	-0.650771	-49.481805	-13.414038	1.903475	0.926837	0.006339	-0.000000	-0.000000	0.000000
3.080000	-7.595553	-6.541542	5.591635	25.861107	7.181905	-3.747978	-16.735531	1.284557	6.365602	-12.028690	-0.541773	-52.378933	-13.584206	1.916484	0.927967	0.007643	-0.000000	-0.000000	0.000000
3.090000	-7.550778	-6.681829	5.466745	25.036963	7.595787	-3.929825	-16.886871	2.147230	8.093156	-12.320766	-0.507786	-54.918636	-13.329208	1.929333	0.929364	0.008894	-0.000000	-0.000000	0.000000
3.100000	-7.505178	-6.607367	5.253651	24.103590	7.830793	-4.021977	-16.863035	2.867239	9.696383	-12.366870	-0.616398	-57.065547	-12.727422	1.942037	0.931059	0.010098	-0.000000	-0.000000	0.000000
3.110000	-7.456196	-6.334566	4.955538	23.070668	7.889655	-4.042721	-16.677974	3.431659	11.173888	-12.200951	-0.905994	-58.809401	-11.888750	1.954585	0.933041	0.011251	-0.000000	-0.000000	0.000000
3.120000	-7.395515	-5.900488	4.581902	21.947314	7.792334	-4.027707	-16.344079	3.835950	12.538384	-11.875997	-1.377627	-60.161973	-10.939386	1.966940	0.935266	0.012343	-0.000000	-0.000000	0.000000
3.130000	-7.310768	-5.357579	4.148342	20.741567	7.574157	-4.024430	-15.872899	4.085277	13.812563	-11.455961	-1.987502	-61.151755	-9.999125	1.979049	0.937662	0.013370	-0.000000	-0.000000	0.000000
3.140000	-7.196622	-4.762975	3.678467	19.470173	7.276365	-4.083940	-15.279352	4.196816	15.032624	-11.002090	-2.646800	-61.817020	-9.156577	1.990851	0.940154	0.014337	-0.000000	-0.000000	0.000000
3.150000	-7.068816	-4.166203	3.202756	18.172254	6.935179	-4.248609	-14.586849	4.196404	16.253409	-10.559172	-3.239846	-62.196940	-8.452133	2.002307	0.942674	0.015267	-0.000000	-0.000000	0.000000
3.160000	-6.961588	-3.600545	2.752506	16.904430	6.576423	-4.537999	-13.827257	4.110875	17.535651	-10.148752	-3.662796	-62.320541	-7.878220	2.013405	0.945176	0.016186	-0.000000	-0.000000	0.000000
3.170000	-6.903725	-3.080194	2.352343	15.711642	6.215836	-4.941968	-13.033986	3.964519	18.913386	-9.769815	-3.867397	-62.198271	-7.394644	2.024167	0.947634	0.017109	-0.000000	-0.000000	0.000000
3.180000	-6.896943	-2.602779	2.016312	14.601074	5.861963	-5.428284	-12.233905	3.783526	20.370456	-9.404537	-3.883683	-61.824339	-6.943890	2.034639	0.950024	0.018023	-0.000000	-0.000000	0.000000
3.190000	-6.924727	-2.156681	1.750515	13.551334	5.519760	-5.962604	-11.443731	3.601050	21.857104	-9.027703	-3.803726	-61.189297	-6.459332	2.044903	0.952313	0.018896	-0.000000	-0.000000	0.000000
3.200000	-6.978323	-1.730474	1.559248	12.542237	5.193136	-6.526561	-10.670373	3.454906	23.328113	-8.616934	-3.737358	-60.290239	-5.877877	2.055084	0.954452	0.019687	-0.000000	-0.000000	0.000000
3.210000	-7.060445	-1.318379	1.446434	11.562090	4.884464	-7.117035	-9.912956	3.379250	24.753525	-8.159561	-3.769603	-59.128008	-5.160671	2.065328	0.956386	0.020359	-0.000000	-0.000000	0.000000
3.220000	-7.169770	-0.920320	1.410563	10.595698	4.592907	-7.729261	-9.166502	3.395366	26.104488	-7.654950	-3.933957	-57.696404	-4.306381	2.075767	0.958066	0.020891	-0.000000	-0.000000	0.000000
3.230000	-7.295346	-0.541037	1.438479	9.623037	4.316498	-8.341723	-8.426046	3.506125	27.348980	-7.114681	-4.204957	-55.977444	-3.343726	2.086476	0.959450	0.021274	-0.000000	-0.000000	0.000000
3.240000	-7.423460	-0.188395	1.503581	8.629092	4.055999	-8.915912	-7.689118	3.698045	28.461062	-6.559497	-4.520445	-53.948802	-2.311723	2.097471	0.960508	0.021510	-0.000000	-0.000000	0.000000
3.250000	-7.543938	0.131080	1.573605	7.609712	3.814074	-9.408761	-6.956764	3.950893	29.429874	-6.010173	-4.819778	-51.598303	-1.247370	2.108718	0.961210	0.021601	-0.000000	-0.000000	0.000000
3.260000	-7.647967	0.416881	1.622884	6.565817	3.591019	-9.783856	-6.233366	4.248875	30.258882	-5.477907	-5.062864	-48.935876	-0.185660	2.120146	0.961531	0.021551	-0.000000	-0.000000	0.000000
3.270000	-7.722863	0.676361	1.637086	5.493637	3.382357	-10.017518	-5.524106	4.585830	30.958129	-4.962009	-5.227893	-45.997127	0.829922	2.131666	0.961453	0.021367	-0.000000	-0.000000	0.000000
3.280000	-7.753120	0.921828	1.610611	4.382118	3.180686	-10.104366	-4.830212	4.962626	31.539428	-4.455690	-5.306887	-42.839648	1.730358	2.143191	0.960971	0.021064	-0.000000	-0.000000	0.000000
3.290000	-7.725818	1.162885	1.541856	3.216546	2.981713	-10.058467	-4.145093	5.380501	32.014223	-3.957311	-5.302408	-39.534318	2.417742	2.154665	0.960092	0.020662	-0.000000	-0.000000	0.000000
3.300000	-7.635159	1.397876	1.428380	1.983742	2.791166	-9.906359	-3.454878	5.834985	32.389974	-3.481654	-5.221981	-36.151973	2.790758	2.166083	0.958826	0.020175	-0.000000	-0.000000	0.000000
3.310000	-7.484311	1.608024	1.264629	0.677071	2.629035	-9.676121	-2.744641	6.313847	32.666206	-3.065452	-5.071547	-32.748283	2.788933	2.177500	0.957182	0.019603	-0.000000	-0.000000	0.000000
3.320000	-7.285593	1.756174	1.040695	-0.697705	2.529603	-9.389568	-2.008872	6.799530	32.835170	-2.766377	-4.854802	-29.355141	2.429556	2.189012	0.955168	0.018920	-0.000000	-0.000000	0.000000
3.330000	-7.059647	1.793269	0.743443	-2.117804	2.534840	-9.061510	-1.260389	7.275162	32.889604	-2.652584	-4.579362	-25.986006	1.813732	2.200722	0.952793	0.018079	-0.000000	-0.000000	0.000000
3.340000	-6.831807	1.673058	0.365741	-3.545915	2.681204	-8.705113	-0.531277	7.731555	32.833273	-2.780165	-4.261732	-22.654099	1.099213	2.212703	0.950075	0.017024	-0.000000	-0.000000	0.000000
3.350000	-6.626675	1.369863	-0.082394	-4.938306	2.985123	-8.339984	0.133595	8.170393	32.687239	-3.168511	-3.928028	-19.392173	0.456645	2.224976	0.947052	0.015707	-0.000000	-0.000000	0.000000
3.360000	-6.464216	0.892674	-0.572693	-6.251728	3.432316	-7.997583	0.685550	8.601760	32.487442	-3.787036	-3.609632	-16.259709	0.026825	2.237504	0.943791	0.014115	-0.000000	-0.000000	0.000000
3.370000	-6.358926	0.289564	-1.067955	-7.446055	3.974783	-7.717946	1.079918	9.038346	32.275668	-4.558307	-3.331974	-13.333398	-0.112492	2.250220	0.940399	0.012264	-0.000000	-0.000000	0.000000
3.380000	-6.321546	-0.360620	-1.533186	-8.484254	4.538097	-7.536636	1.281259	9.489360	32.090652	-5.375182	-3.100910	-10.689521	0.034481	2.263050	0.937016	0.010206	-0.000000	-0.000000	0.000000
3.390000	-6.361532	-0.967011	-1.940313	-9.333379	5.037958	-7.469092	1.266470	9.956337	31.964311	-6.124413	-2.895409	-8.390260	0.382703	2.275934	0.933794	0.008008	-0.000000	-0.000000	0.000000
3.400000	-6.487472	-1.450274	-2.265507	-9.969040	5.401964	-7.502875	1.026131	10.432559	31.922166	-6.709344	-2.671969	-6.480325	0.789511	2.288835	0.930864	0.005740	-0.000000	-0.000000	0.000000
3.410000	-6.704240	-1.762746	-2.486203	-10.381618	5.588994	-7.603447	0.563114	10.906522	31.983150	-7.067037	-2.380391	-4.990890	1.092537	2.301747	0.928309	0.003459	-0.000000	-0.000000	0.000000
3.420000	-7.009622	-1.896162	-2.582382	-10.579493	5.596438	-7.730130	-0.111439	11.366817	32.157280	-7.174344	-1.984374	-3.943056	1.147834	2.314688	0.926149	0.001201	-0.000000	-0.000000	0.000000
3.430000	-7.393700	-1.874674	-2.540497	-10.586326	5.452415	-7.851226	-0.983406	11.803880	32.444482	-7.041913	-1.476195	-3.347138	0.856619	2.327702	0.924347	-0.001019	-0.000000	-0.000000	0.000000
3.440000	-7.840919	-1.739496	-2.358519	-10.433627	5.199506	-7.947158	-2.041257	12.204243	32.835988	-6.702926	-0.878064	-3.199330	0.179321	2.340857	0.922837	-0.003204	-0.000000	-0.000000	0.000000
3.450000	-8.331535	-1.532189	-2.050524	-10.153635	4.876670	-7.999810	-3.280891	12.537373	33.314125	-6.201517	-0.232633	-3.476949	-0.858999	2.354235	0.921555	-0.005364	-0.000000	-0.000000	0.000000
3.460000	-8.840236	-1.280963	-1.648728	-9.775874	4.504007	-7.976453	-4.709062	12.742560	33.847012	-5.582604	0.406807	-4.133456	-2.170403	2.367928	0.920460	-0.007524	-0.000000	-0.000000	0.000000
3.470000	-9.336069	-0.996296	-1.201165	-9.322813	4.079191	-7.820595	-6.345842	12.723879	34.385919	-4.887986	0.981238	-5.098956	-3.613904	2.382016	0.919551	-0.009723	-0.000000	-0.000000	0.000000
3.480000	-9.787822	-0.679102	-0.761604	-8.800888	3.589969	-7.460811	-8.225333	12.357595	34.875227	-4.158818	1.434831	-6.291861	-5.014554	2.396540	0.918862	-0.012008	-0.000000	-0.000000	0.000000
3.490000	-10.168978	-0.332776	-0.373415	-8.196058	3.031136	-6.839329	-10.391306	11.515673	35.267600	-3.435658	1.729925	-7.637450	-6.192247	2.411475	0.918446	-0.014431	-0.000000	-0.000000	0.000000
3.500000	-10.454699	0.034456	-0.059012	-7.485568	2.408933	-5.945360	-12.883621	10.104022	35.527745	-2.750780	1.851476	-9.079876	-6.996834	2.426703	0.918357	-0.017033	-0.000000	-0.000000	0.000000
3.510000	-10.617039	0.420232	0.175100	-6.659859	1.729307	-4.831963	-15.714057	8.105748	35.624989	-2.118330	1.794080	-10.575900	-7.341662	2.441994	0.918633	-0.019815	-0.000000	-0.000000	0.000000
3.520000	-10.630829	0.837923	0.324636	-5.737227	0.986966	-3.613118	-18.834213	5.618918	35.532455	-1.531950	1.551626	-12.072535	-7.229028	2.456978	0.919281	-0.022706	-0.000000	-0.000000	0.000000
3.530000	-10.489987	1.309270	0.385121	-4.768181	0.173585	-2.457359	-22.099903	2.881807	35.242533	-0.970897	1.135292	-13.482665	-6.763828	2.471061	0.920247	-0.025548	-0.000000	-0.000000	0.000000
3.540000	-10.227494	1.843230	0.366531	-3.835827	-0.700512	-1.588130	-25.238251	0.282166	34.792142	-0.407808	0.621364	-14.668689	-6.151032	2.483330	0.921379	-0.028112	-0.000000	-0.000000	0.000000
3.550000	-9.935593	2.416066	0.310595	-3.049524	-1.586061	-1.284070	-27.828896	-1.652257	34.287193	0.181477	0.197045	-15.438248	-5.674658	2.492481	0.922409	-0.030127	-0.000000	-0.000000	0.000000
3.560000	-9.628075	3.156498	0.247466	-2.282723	-2.682459	-1.699445	-30.224690	-3.016505	33.693954	0.977026	-0.061960	-15.835128	-5.433699	2.499903	0.923382	-0.031937	-0.000000	-0.000000	0.000000
3.570000	-9.091914	4.568441	0.134418	-0.971759	-4.770832	-2.890763	-34.304455	-5.018851	32.613807	2.525547	-0.360675	-16.285669	-5.194870	2.511879	0.925028	-0.035004	-0.000000	-0.000000	0.000000
3.580000	-0.000000	0.000000	-0.000000	-0.000000	0.000000	-0.000000	-0.000000	-0.000000	-0.000000	-0.000000	0.000000	-0.000000	-0.000000	0.000000	0.000000	0.000000	-0.000000	-0.000000	0.000000
3.590000	-0.000000	0.000000	-0.000000	-0.000000	0.000000	-0.000000	-0.000000	-0.000000	-0.000000	-0.000000	0.000000	-0.000000	-0.000000	0.000000	0.000000	0.000000	-0.000000	-0.000000	0.000000
3.600000	-0.000000	0.000000	-0.000000	-0.000000	0.000000	-0.000000	-0.000000	-0.000000	-0.000000	-0.000000	0.000000	-0.000000	-0.000000	0.000000	0.000000	0.000000	-0.000000	-0.000000	0.000000
3.610000	-0.000000	0.000000	-0.000000	-0.000000	0.000000	-0.000000	-0.000000	-0.000000	-0.000000	-0.000000	0.000000	-0.000000	-0.000000	0.000000	0.000000	0.000000	-0.000000	-0.000000	0.000000
3.620000	-0.000000	0.000000	-0.000000	-0.000000	0.000000	-0.000000	-0.000000	-0.000000	-0.000000	-0.000000	0.000000	-0.000000	-0.000000	0.000000	0.000000	0.000000	-0.000000	-0.000000	0.000000
3.630000	-0.000000	0.000000	-0.000000	-0.000000	0.000000	-0.000000	-0.000000	-0.000000	-0.000000	-0.000000	0.000000	-0.000000	-0.000000	0.000000	0.000000	0.000000	-0.000000	-0.000000	0.000000
3.640000	-0.000000	0.000000	-0.000000	-0.000000	0.000000	-0.000000	-0.000000	-0.000000	-0.000000	-0.000000	0.000000	-0.000000	-0.000000	0.000000	0.000000	0.000000	-0.000000	-0.000000	0.000000
3.650000	-0.000000	0.000000	-0.000000	-0.000000	0.000000	-0.000000	-0.000000	-0.000000	-0.000000	-0.000000	0.000000	-0.000000	-0.000000	0.000000	0.000000	0.000000	-0.000000	-0.000000	0.000000
3.660000	-0.000000	0.000000	-0.000000	-0.000000	0.000000	-0.000000	-0.000000	-0.000000	-0.000000	-0.000000	0.000000	-0.000000	-0.000000	0.000000	0.000000	0.000000	-0.000000	-0.000000	0.000000
3.670000	-0.000000	0.000000	-0.000000	-0.000000	0.000000	-0.000000	-0.000000	-0.000000	-0.000000	-0.000000	0.000000	-0.000000	-0.000000	0.000000	0.000000	0.000000	-0.000000	-0.000000	0.000000
3.680000	-0.000000	0.000000	-0.000000	-0.000000	0.000000	-0.000000	-0.000000	-0.000000	-0.000000	-0.000000	0.000000	-0.000000	-0.000000	0.000000	0.000000	0.000000	-0.000000	-0.000000	0.000000
3.690000	-0.000000	0.000000	-0.000000	-0.000000	0.000000	-0.000000	-0.000000	-0.000000	-0.000000	-0.000000	0.000000	-0.000000	-0.000000	0.000000	0.000000	0.000000	-0.000000	-0.000000	0.000000
3.700000	-0.000000	0.000000	-0.000000	-0.000000	0.000000	-0.000000	-0.000000	-0.000000	-0.000000	-0.000000	0.000000	-0.000000	-0.000000	0.000000	0.000000	0.000000	-0.000000	-0.000000	0.000000
3.710000	-0.000000	0.000000	-0.000000	-0.000000	0.000000	-0.000000	-0.000000	-0.000000	-0.000000	-0.000000	0.000000	-0.000000	-0.000000	0.000000	0.000000	0.000000	-0.000000	-0.000000	0.000000
3.720000	-0.000000	0.000000	-0.000000	-0.000000	0.000000	-0.000000	-0.000000	-0.000000	-0.000000	-0.000000	0.000000	-0.000000	-0.000000	0.000000	0.000000	0.000000	-0.000000	-0.000000	0.000000
3.730000	-0.000000	0.000000	-0.000000	-0.000000	0.000000	-0.000000	-0.000000	-0.000000	-0.000000	-0.000000	0.000000	-0.000000	-0.000000	0.000000	0.000000	0.000000	-0.000000	-0.000000	0.000000
3.740000	-0.000000	0.000000	-0.000000	-0.000000	0.000000	-0.000000	-0.000000	-0.000000	-0.000000	-0.000000	0.000000	-0.000000	-0.000000	0.000000	0.000000	0.000000	-0.000000	-0.000000	0.000000
3.750000	-0.000000	0.000000	-0.000000	-0.000000	0.000000	-0.000000	-0.000000	-0.000000	-0.000000	-0.000000	0.000000	-0.000000	-0.000000	0.000000	0.000000	0.000000	-0.000000	-0.000000	0.000000
3.760000	-0.000000	0.000000	-0.000000	-0.000000	0.000000	-0.000000	-0.000000	-0.000000	-0.000000	-0.000000	0.000000	-0.000000	-0.000000	0.000000	0.000000	0.000000	-0.000000	-0.000000	0.000000
3.770000	-0.000000	0.000000	-0.000000	-0.000000	0.000000	-0.000000	-0.000000	-0.000000	-0.000000	-0.000000	0.000000	-0.000000	-0.000000	0.000000	0.000000	0.000000	-0.000000	-0.000000	0.000000
3.780000	-0.000000	0.000000	-0.000000	-0.000000	0.000000	-0.000000	-0.000000	-0.000000	-0.000000	-0.000000	0.000000	-0.000000	-0.000000	0.000000	0.000000	0.000000	-0.000000	-0.000000	0.000000
3.790000	-0.000000	0.000000	-0.000000	-0.000000	0.000000	-0.000000	-0.000000	-0.000000	-0.000000	-0.000000	0.000000	-0.000000	-0.000000	0.000000	0.000000	0.000000	-0.000000	-0.000000	0.000000
3.800000	-0.000000	0.000000	-0.000000	-0.000000	0.000000	-0.000000	-0.000000	-0.000000	-0.000000	-0.000000	0.000000	-0.000000	-0.000000	0.000000	0.000000	0.000000	-0.000000	-0.000000	0.000000
3.810000	-0.000000	0.000000	-0.000000	-0.000000	0.000000	-0.000000	-0.000000	-0.000000	-0.000000	-0.000000	0.000000	-0.000000	-0.000000	0.000000	0.000000	0.000000	-0.000000	-0.000000	0.000000
3.820000	-0.000000	0.000000	-0.000000	-0.000000	0.000000	-0.000000	-0.000000	-0.000000	-0.000000	-0.000000	0.000000	-0.000000	-0.000000	0.000000	0.000000	0.000000	-0.000000	-0.000000	0.000000
3.830000	-0.000000	0.000000	-0.000000	-0.000000	0.000000	-0.000000	-0.000000	-0.000000	-0.000000	-0.000000	0.000000	-0.000000	-0.000000	0.000000	0.000000	0.000000	-0.000000	-0.000000	0.000000
3.840000	-0.000000	0.000000	-0.000000	-0.000000	0.000000	-0.000000	-0.000000	-0.000000	-0.000000	-0.000000	0.000000	-0.000000	-0.000000	0.000000	0.000000	0.000000	-0.000000	-0.000000	0.000000
3.850000	-0.000000	0.000000	-0.000000	-0.000000	0.000000	-0.000000	-0.000000	-0.000000	-0.000000	-0.000000	0.000000	-0.000000	-0.000000	0.000000	0.000000	0.000000	-0.000000	-0.000000	0.000000
3.860000	-0.000000	0.000000	-0.000000	-0.000000	0.000000	-0.000000	-0.000000	-0.000000	-0.000000	-0.000000	0.000000	-0.000000	-0.000000	0.000000	0.000000	0.000000	-0.000000	-0.000000	0.000000
3.870000	-0.000000	0.000000	-0.000000	-0.000000	0.000000	-0.000000	-0.000000	-0.000000	-0.000000	-0.000000	0.000000	-0.000000	-0.000000	0.000000	0.000000	0.000000	-0.000000	-0.000000	0.000000
3.880000	-0.000000	0.000000	-0.000000	-0.000000	0.000000	-0.000000	-0.000000	-0.000000	-0.000000	-0.000000	0.000000	-0.000000	-0.000000	0.000000	0.000000	0.000000	-0.000000	-0.000000	0.000000
3.890000	-0.000000	0.000000	-0.000000	-0.000000	0.000000	-0.000000	-0.000000	-0.000000	-0.000000	-0.000000	0.000000	-0.000000	-0.000000	0.000000	0.000000	0.000000	-0.000000	-0.000000	0.000000
3.900000	-0.000000	0.000000	-0.000000	-0.000000	0.000000	-0.000000	-0.000000	-0.000000	-0.000000	-0.000000	0.000000	-0.000000	-0.000000	0.000000	0.000000	0.000000	-0.000000	-0.000000	0.000000
3.910000	-0.000000	0.000000	-0.000000	-0.000000	0.000000	-0.000000	-0.000000	-0.000000	-0.000000	-0.000000	0.000000	-0.000000	-0.000000	0.000000	0.000000	0.000000	-0.000000	-0.000000	0.000000
3.920000	-0.000000	0.000000	-0.000000	-0.000000	0.000000	-0.000000	-0.000000	-0.000000	-0.000000	-0.000000	0.000000	-0.000000	-0.000000	0.000000	0.000000	0.000000	-0.000000	-0.000000	0.000000
3.930000	-0.000000	0.000000	-0.000000	-0.000000	0.000000	-0.000000	-0.000000	-0.000000	-0.000000	-0.000000	0.000000	-0.000000	-0.000000	0.000000	0.000000	0.000000	-0.000000	-0.000000	0.000000
3.940000	-0.000000	0.000000	-0.000000	-0.000000	0.000000	-0.000000	-0.000000	-0.000000	-0.000000	-0.000000	0.000000	-0.000000	-0.000000	0.000000	0.000000	0.000000	-0.000000	-0.000000	0.000000
3.950000	-0.000000	0.000000	-0.000000	-0.000000	0.000000	-0.000000	-0.000000	-0.000000	-0.000000	-0.000000	0.000000	-0.000000	-0.000000	0.000000	0.000000	0.000000	-0.000000	-0.000000	0.000000
3.960000	-0.000000	0.000000	-0.000000	-0.000000	0.000000	-0.000000	-0.000000	-0.000000	-0.000000	-0.000000	0.000000	-0.000000	-0.000000	0.000000	0.000000	0.000000	-0.000000	-0.000000	0.000000
3.970000	-0.000000	0.000000	-0.000000	-0.000000	0.000000	-0.000000	-0.000000	-0.000000	-0.000000	-0.000000	0.000000	-0.000000	-0.000000	0.000000	0.000000	0.000000	-0.000000	-0.000000	0.000000
3.980000	-0.000000	0.000000	-0.000000	-0.000000	0.000000	-0.000000	-0.000000	-0.000000	-0.000000	-0.000000	0.000000	-0.000000	-0.000000	0.000000	0.000000	0.000000	-0.000000	-0.000000	0.000000
3.990000	-0.000000	0.000000	-0.000000	-0.000000	0.000000	-0.000000	-0.000000	-0.000000	-0.000000	-0.000000	0.000000	-0.000000	-0.000000	0.000000	0.000000	0.000000	-0.000000	-0.000000	0.000000
4.000000	-0.000000	0.000000	-0.000000	-0.000000	0.000000	-0.000000	-0.000000	-0.000000	-0.000000	-0.000000	0.000000	-0.000000	-0.000000	0.000000	0.000000	0.000000	-0.000000	-0.000000	0.000000
4.010000	-0.000000	0.000000	-0.000000	-0.000000	0.000000	-0.000000	-0.000000	-0.000000	-0.000000	-0.000000	0.000000	-0.000000	-0.000000	0.000000	0.000000	0.000000	-0.000000	-0.000000	0.000000
4.020000	-0.000000	0.000000	-0.000000	-0.000000	0.000000	-0.000000	-0.000000	-0.000000	-0.000000	-0.000000	0.000000	-0.000000	-0.000000	0.000000	0.000000	0.000000	-0.000000	-0.000000	0.000000
4.030000	-0.000000	0.000000	-0.000000	-0.000000	0.000000	-0.000000	-0.000000	-0.000000	-0.000000	-0.000000	0.000000	-0.000000	-0.000000	0.000000	0.000000	0.000000	-0.000000	-0.000000	0.000000
4.040000	-0.000000	0.000000	-0.000000	-0.000000	0.000000	-0.000000	-0.000000	-0.000000	-0.000000	-0.000000	0.000000	-0.000000	-0.000000	0.000000	0.000000	0.000000	-0.000000	-0.000000	0.000000
4.050000	-0.000000	0.000000	-0.000000	-0.000000	0.000000	-0.000000	-0.000000	-0.000000	-0.000000	-0.000000	0.000000	-0.000000	-0.000000	0.000000	0.000000	0.000000	-0.000000	-0.000000	0.000000
4.060000	-0.000000	0.000000	-0.000000	-0.000000	0.000000	-0.000000	-0.000000	-0.000000	-0.000000	-0.000000	0.000000	-0.000000	-0.000000	0.000000	0.000000	0.000000	-0.000000	-0.000000	0.000000
4.070000	-0.000000	0.000000	-0.000000	-0.000000	0.000000	-0.000000	-0.000000	-0.000000	-0.000000	-0.000000	0.000000	-0.000000	-0.000000	0.000000	0.000000	0.000000	-0.000000	-0.000000	0.000000
4.080000	-0.000000	0.000000	-0.000000	-0.000000	0.000000	-0.000000	-0.000000	-0.000000	-0.000000	-0.000000	0.000000	-0.000000	-0.000000	0.000000	0.000000	0.000000	-0.000000	-0.000000	0.000000
4.090000	-0.000000	0.000000	-0.000000	-0.000000	0.000000	-0.000000	-0.000000	-0.000000	-0.000000	-0.000000	0.000000	-0.000000	-0.000000	0.000000	0.000000	0.000000	-0.000000	-0.000000	0.000000
4.100000	-0.000000	0.000000	-0.000000	-0.000000	0.000000	-0.000000	-0.000000	-0.000000	-0.000000	-0.000000	0.000000	-0.000000	-0.000000	0.000000	0.000000	0.000000	-0.000000	-0.000000	0.000000
4.110000	-0.000000	0.000000	-0.000000	-0.000000	0.000000	-0.000000	-0.000000	-0.000000	-0.000000	-0.000000	0.000000	-0.000000	-0.000000	0.000000	0.000000	0.000000	-0.000000	-0.000000	0.000000
4.120000	-0.000000	0.000000	-0.000000	-0.000000	0.000000	-0.000000	-0.000000	-0.000000	-0.000000	-0.000000	0.000000	-0.000000	-0.000000	0.000000	0.000000	0.000000	-0.000000	-0.000000	0.000000
4.130000	-0.000000	0.000000	-0.000000	-0.000000	0.000000	-0.000000	-0.000000	-0.000000	-0.000000	-0.000000	0.000000	-0.000000	-0.000000	0.000000	0.000000	0.000000	-0.000000	-0.000000	0.000000
4.140000	-0.000000	0.000000	-0.000000	-0.000000	0.000000	-0.000000	-0.000000	-0.000000	-0.000000	-0.000000	0.000000	-0.000000	-0.000000	0.000000	0.000000	0.000000	-0.000000	-0.000000	0.000000
4.150000	-0.000000	0.000000	-0.000000	-0.000000	0.000000	-0.000000	-0.000000	-0.000000	-0.000000	-0.000000	0.000000	-0.000000	-0.000000	0.000000	0.000000	0.000000	-0.000000	-0.000000	0.000000
4.160000	-0.000000	0.000000	-0.000000	-0.000000	0.000000	-0.000000	-0.000000	-0.000000	-0.000000	-0.000000	0.000000	-0.000000	-0.000000	0.000000	0.000000	0.000000	-0.000000	-0.000000	0.000000
4.170000	-0.000000	0.000000	-0.000000	-0.000000	0.000000	-0.000000	-0.000000	-0.000000	-0.000000	-0.000000	0.000000	-0.000000	-0.000000	0.000000	0.000000	0.000000	-0.000000	-0.000000	0.000000
4.180000	-0.000000	0.000000	-0.000000	-0.000000	0.000000	-0.000000	-0.000000	-0.000000	-0.000000	-0.000000	0.000000	-0.000000	-0.000000	0.000000	0.000000	0.000000	-0.000000	-0.000000	0.000000
4.190000	-0.000000	0.000000	-0.000000	-0.000000	0.000000	-0.000000	-0.000000	-0.000000	-0.000000	-0.000000	0.000000	-0.000000	-0.000000	0.000000	0.000000	0.000000	-0.000000	-0.000000	0.000000
4.200000	-0.000000	0.000000	-0.000000	-0.000000	0.000000	-0.000000	-0.000000	-0.000000	-0.000000	-0.000000	0.000000	-0.000000	-0.000000	0.000000	0.000000	0.000000	-0.000000	-0.000000	0.000000
4.210000	-0.000000	0.000000	-0.000000	-0.000000	0.000000	-0.000000	-0.000000	-0.000000	-0.000000	-0.000000	0.000000	-0.000000	-0.000000	0.000000	0.000000	0.000000	-0.000000	-0.000000	0.000000
4.220000	-0.000000	0.000000	-0.000000	-0.000000	0.000000	-0.000000	-0.000000	-0.000000	-0.000000	-0.000000	0.000000	-0.000000	-0.000000	0.000000	0.000000	0.000000	-0.000000	-0.000000	0.000000
4.230000	-0.000000	0.000000	-0.000000	-0.000000	0.000000	-0.000000	-0.000000	-0.000000	-0.000000	-0.000000	0.000000	-0.000000	-0.000000	0.000000	0.000000	0.000000	-0.000000	-0.000000	0.000000
4.240000	-0.000000	0.000000	-0.000000	-0.000000	0.000000	-0.000000	-0.000000	-0.000000	-0.000000	-0.000000	0.000000	-0.000000	-0.000000	0.000000	0.000000	0.000000	-0.000000	-0.000000	0.000000
4.250000	-0.000000	0.000000	-0.000000	-0.000000	0.000000	-0.000000	-0.000000	-0.000000	-0.000000	-0.000000	0.000000	-0.000000	-0.000000	0.000000	0.000000	0.000000	-0.000000	-0.000000	0.000000
4.260000	-0.000000	0.000000	-0.000000	-0.000000	0.000000	-0.000000	-0.000000	-0.000000	-0.000000	-0.000000	0.000000	-0.000000	-0.000000	0.000000	0.000000	0.000000	-0.000000	-0.000000	0.000000
4.270000	-0.000000	0.000000	-0.000000	-0.000000	0.000000	-0.000000	-0.000000	-0.000000	-0.000000	-0.000000	0.000000	-0.000000	-0.000000	0.000000	0.000000	0.000000	-0.000000	-0.000000	0.000000
4.280000	-0.000000	0.000000	-0.000000	-0.000000	0.000000	-0.000000	-0.000000	-0.000000	-0.000000	-0.000000	0.000000	-0.000000	-0.000000	0.000000	0.000000	0.000000	-0.000000	-0.000000	0.000000
4.290000	-0.000000	0.000000	-0.000000	-0.000000	0.000000	-0.000000	-0.000000	-0.000000	-0.000000	-0.000000	0.000000	-0.000000	-0.000000	0.000000	0.000000	0.000000	-0.000000	-0.000000	0.000000
4.300000	-0.000000	0.000000	-0.000000	-0.000000	0.000000	-0.000000	-0.000000	-0.000000	-0.000000	-0.000000	0.000000	-0.000000	-0.000000	0.000000	0.000000	0.000000	-0.000000	-0.000000	0.000000
4.310000	-0.000000	0.000000	-0.000000	-0.000000	0.000000	-0.000000	-0.000000	-0.000000	-0.000000	-0.000000	0.000000	-0.000000	-0.000000	0.000000	0.000000	0.000000	-0.000000	-0.000000	0.000000
4.320000	-0.000000	0.000000	-0.000000	-0.000000	0.000000	-0.000000	-0.000000	-0.000000	-0.000000	-0.000000	0.000000	-0.000000	-0.000000	0.000000	0.000000	0.000000	-0.000000	-0.000000	0.000000
4.330000	-0.000000	0.000000	-0.000000	-0.000000	0.000000	-0.000000	-0.000000	-0.000000	-0.000000	-0.000000	0.000000	-0.000000	-0.000000	0.000000	0.000000	0.000000	-0.000000	-0.000000	0.000000
4.340000	-0.000000	0.000000	-0.000000	-0.000000	0.000000	-0.000000	-0.000000	-0.000000	-0.000000	-0.000000	0.000000	-0.000000	-0.000000	0.000000	0.000000	0.000000	-0.000000	-0.000000	0.000000
4.350000	-0.000000	0.000000	-0.000000	-0.000000	0.000000	-0.000000	-0.000000	-0.000000	-0.000000	-0.000000	0.000000	-0.000000	-0.000000	0.000000	0.000000	0.000000	-0.000000	-0.000000	0.000000
4.360000	-0.000000	0.000000	-0.000000	-0.000000	0.000000	-0.000000	-0.000000	-0.000000	-0.000000	-0.000000	0.000000	-0.000000	-0.000000	0.000000	0.000000	0.000000	-0.000000	-0.000000	0.000000
4.370000	-0.000000	0.000000	-0.000000	-0.000000	0.000000	-0.000000	-0.000000	-0.000000	-0.000000	-0.000000	0.000000	-0.000000	-0.000000	0.000000	0.000000	0.000000	-0.000000	-0.000000	0.000000
4.380000	-0.000000	0.000000	-0.000000	-0.000000	0.000000	-0.000000	-0.000000	-0.000000	-0.000000	-0.000000	0.000000	-0.000000	-0.000000	0.000000	0.000000	0.000000	-0.000000	-0.000000	0.000000
4.390000	-0.000000	0.000000	-0.000000	-0.000000	0.000000	-0.000000	-0.000000	-0.000000	-0.000000	-0.000000	0.000000	-0.000000	-0.000000	0.000000	0.000000	0.000000	-0.000000	-0.000000	0.000000
4.400000	-0.000000	0.000000	-0.000000	-0.000000	0.000000	-0.000000	-0.000000	-0.000000	-0.000000	-0.000000	0.000000	-0.000000	-0.000000	0.000000	0.000000	0.000000	-0.000000	-0.000000	0.000000
4.410000	-0.000000	0.000000	-0.000000	-0.000000	0.000000	-0.000000	-0.000000	-0.000000	-0.000000	-0.000000	0.000000	-0.000000	-0.000000	0.000000	0.000000	0.000000	-0.000000	-0.000000	0.000000
4.420000	-0.000000	0.000000	-0.000000	-0.000000	0.000000	-0.000000	-0.000000	-0.000000	-0.000000	-0.000000	0.000000	-0.000000	-0.000000	0.000000	0.000000	0.000000	-0.000000	-0.000000	0.000000
4.430000	-0.000000	0.000000	-0.000000	-0.000000	0.000000	-0.000000	-0.000000	-0.000000	-0.000000	-0.000000	0.000000	-0.000000	-0.000000	0.000000	0.000000	0.000000	-0.000000	-0.000000	0.000000
4.440000	-0.000000	0.000000	-0.000000	-0.000000	0.000000	-0.000000	-0.000000	-0.000000	-0.000000	-0.000000	0.000000	-0.000000	-0.000000	0.000000	0.000000	0.000000	-0.000000	-0.000000	0.000000
4.450000	-0.000000	0.000000	-0.000000	-0.000000	0.000000	-0.000000	-0.000000	-0.000000	-0.000000	-0.000000	0.000000	-0.000000	-0.000000	0.000000	0.000000	0.000000	-0.000000	-0.000000	0.000000
4.460000	-0.000000	0.000000	-0.000000	-0.000000	0.000000	-0.000000	-0.000000	-0.000000	-0.000000	-0.000000	0.000000	-0.000000	-0.000000	0.000000	0.000000	0.000000	-0.000000	-0.000000	0.000000
4.470000	-0.000000	0.000000	-0.000000	-0.000000	0.000000	-0.000000	-0.000000	-0.000000	-0.000000	-0.000000	0.000000	-0.000000	-0.000000	0.000000	0.000000	0.000000	-0.000000	-0.000000	0.000000
4.480000	-0.000000	0.000000	-0.000000	-0.000000	0.000000	-0.000000	-0.000000	-0.000000	-0.000000	-0.000000	0.000000	-0.000000	-0.000000	0.000000	0.000000	0.000000	-0.000000	-0.000000	0.000000
4.490000	-0.000000	0.000000	-0.000000	-0.000000	0.000000	-0.000000	-0.000000	-0.000000	-0.000000	-0.000000	0.000000	-0.000000	-0.000000	0.000000	0.000000	0.000000	-0.000000	-0.000000	0.000000
4.500000	-0.000000	0.000000	-0.000000	-0.000000	0.000000	-0.000000	-0.000000	-0.000000	-0.000000	-0.000000	0.000000	-0.000000	-0.000000	0.000000	0.000000	0.000000	-0.000000	-0.000000	0.000000
4.510000	-0.000000	0.000000	-0.000000	-0.000000	0.000000	-0.000000	-0.000000	-0.000000	-0.000000	-0.000000	0.000000	-0.000000	-0.000000	0.000000	0.000000	0.000000	-0.000000	-0.000000	0.000000
4.520000	-0.000000	0.000000	-0.000000	-0.000000	0.000000	-0.000000	-0.000000	-0.000000	-0.000000	-0.000000	0.000000	-0.000000	-0.000000	0.000000	0.000000	0.000000	-0.000000	-0.000000	0.000000
4.530000	-0.000000	0.000000	-0.000000	-0.000000	0.000000	-0.000000	-0.000000	-0.000000	-0.000000	-0.000000	0.000000	-0.000000	-0.000000	0.000000	0.000000	0.000000	-0.000000	-0.000000	0.000000
4.540000	-0.000000	0.000000	-0.000000	-0.000000	0.000000	-0.000000	-0.000000	-0.000000	-0.000000	-0.000000	0.000000	-0.000000	-0.000000	0.000000	0.000000	0.000000	-0.000000	-0.000000	0.000000
4.550000	-0.000000	0.000000	-0.000000	-0.000000	0.000000	-0.000000	-0.000000	-0.000000	-0.000000	-0.000000	0.000000	-0.000000	-0.000000	0.000000	0.000000	0.000000	-0.000000	-0.000000	0.000000
